"name","address","lat","lng"
"サンマルクカフェ サツエキBridge店","〒060-0806  北海道札幌市北区北6条西5-1サツエキBridge","43.0679825","141.3479225"
"サンマルクカフェ アリオ札幌店","〒065-0007  北海道札幌市東区北7条東9-2-20アリオ札幌","43.0719339","141.371044"
"サンマルクカフェ イオンモール札幌発寒店","〒063-0828  北海道札幌市西区発寒8条12-1","43.0965442","141.2775533"
"サンマルクカフェ　新さっぽろサンピアザ店","〒004-0052  北海道札幌市厚別区厚別中央2条5丁目7番2号","43.0376462","141.472395"
"サンマルクカフェ イオンモール旭川駅前店","〒070-0030  北海道旭川市宮下通7-2-5","43.7639638","142.3574173"
"サンマルクカフェ MORUE中島店","〒050-0075  北海道室蘭市中島本町1-4-4","42.3530405","141.0131475"
"サンマルクカフェ 青森サンロード店","〒030-0845  青森県青森市緑3-9-2","40.8064486","140.753151"
"サンマルクカフェ イオンモール盛岡南店","〒020-0866  岩手県盛岡市本宮7-1-1","39.68365989999999","141.1287228"
"サンマルクカフェ 盛岡大通2丁目店","〒020-0022  岩手県盛岡市大通2-6-7","39.7035247","141.145579"
"サンマルクカフェ 仙台マーブルロード店","〒980-0811  宮城県仙台市青葉区一番町3丁目2-24","38.260602","140.8729752"
"サンマルクカフェ 仙台一番町店","〒980-0811  宮城県仙台市青葉区一番町3-11-8","38.2616269","140.8719002"
"サンマルクカフェ 仙台クリスロード店","〒980-0021  宮城県仙台市青葉区中央2-5-8","38.2615187","140.8763471"
"サンマルクカフェ ララガーデン長町店","〒982-0011  宮城県仙台市太白区長町7-20-5","38.2250902","140.8757359"
"サンマルクカフェ イオンモール秋田店","〒010-1413  秋田県秋田市御所野地蔵田1-1-1","39.66315","140.1612697"
"サンマルクカフェ イオンモール土浦店","茨城県土浦市上高津367番地","36.0796988","140.1787187"
"サンマルクカフェ イオンモールつくば店","〒305-0071  茨城県つくば市稲岡66-1","36.0349817","140.1329673"
"サンマルクカフェ イーアスつくばSC店","〒305-0817  茨城県つくば市研究学園5-19","36.08668","140.0860444"
"サンマルクカフェ イオンタウン守谷店","〒302-0110  茨城県守谷市百合ヶ丘3-249-1","35.9448692","139.99039"
"サンマルクカフェ アピタ宇都宮店","〒321-0101  栃木県宇都宮市江曽島本町22-7","36.5315924","139.8669094"
"サンマルクカフェ イオンモール佐野新都市店","〒327-0821  栃木県佐野市高萩町1324-1","36.2991381","139.6062751"
"サンマルクカフェ イオンモール小山店","〒323-0806  栃木県小山市中久喜1467-11F","36.3206613","139.8360334"
"サンマルクカフェ けやきウォーク前橋店","〒371-0801  群馬県前橋市文京町2-1-1","36.3783444","139.0785076"
"サンマルクカフェ イオンモール高崎店","〒370-3521  群馬県高崎市棟高町1400","36.3904993","139.0066913"
"サンマルクカフェ スマーク伊勢崎店","〒379-2224  群馬県伊勢崎市西小保方町368","36.3395617","139.2328927"
"サンマルクカフェ イオンモール太田店","〒373-0808  群馬県太田市石原町81番地","36.2940446","139.400463"
"サンマルクカフェ 浦和店","〒330-0062  埼玉県さいたま市浦和区仲町1-1-8コスモシティ浦和仲町ビル","35.8599097","139.6557113"
"サンマルクカフェ 武蔵浦和マーレ店","〒336-0022  埼玉県さいたま市南区白幡5-19-19","35.8445198","139.6477658"
"サンマルクカフェ イオンモール浦和美園店","〒336-8760  埼玉県さいたま市緑区美園五丁目50番地1","35.890175","139.731854"
"サンマルクカフェ 埼玉アトレ川越店","〒350-1122  埼玉県川越市脇田町105アトレ1F","35.9082886","139.483121"
"サンマルクカフェ 熊谷ニットーモール店","〒360-0032  埼玉県熊谷市銀座2-245","36.1387884","139.3937695"
"サンマルクカフェ アリオ川口店","〒332-0033  埼玉県川口市並木元町1-79","35.8078098","139.7137916"
"サンマルクカフェ イオンモール川口前川店","〒333-0842  埼玉県川口市前川1-1-11","35.8341858","139.707058"
"サンマルクカフェ 埼玉川口そごう店","〒332-0017  埼玉県川口市栄町3-5-1そごうビル3F","35.80267440000001","139.7189105"
"サンマルクカフェ イオンモール羽生店","〒348-0039  埼玉県羽生市川崎2-281-3","36.1428655","139.5418448"
"サンマルクカフェ エルミこうのすショッピングモール店","〒365-0038  埼玉県鴻巣市本町1-1-2","36.0599835","139.5098015"
"サンマルクカフェ 上尾ショーサンプラザ店","〒362-0042  埼玉県上尾市谷津2-1-1ショーサンプラザ1Ｆ","35.97203140000001","139.5886054"
"サンマルクカフェ イオンモール越谷レイクタウンMORI店","〒343-0826  埼玉県越谷市レイクタウン3-1-1イオンレイクタウンmori","35.881322","139.8279441"
"サンマルクカフェ 蕨東口駅前店","〒335-0002  埼玉県蕨市塚越1-5-11","35.827559","139.692304"
"サンマルクカフェ イオンモール北戸田店","〒335-0032  埼玉県戸田市美女木東1-3-1","35.8266248","139.6526187"
"サンマルクカフェ 埼玉県チョコクロ 三井アウトレットパーク入間店","〒358-0014  埼玉県入間市宮寺3169-1","35.8101879","139.3802147"
"サンマルクカフェ モラージュ菖蒲SC店","〒346-0195  埼玉県久喜市菖蒲町菖蒲6005-1","36.0752054","139.6112644"
"サンマルクカフェ フレスポ八潮店","〒340-0822  埼玉県八潮市大瀬1-1-3","35.80835200000001","139.8438416"
"サンマルクカフェ 東武みずほ台店","〒354-0015  埼玉県富士見市東みずほ台2-29-4東武ストアみずほ台東","35.838277","139.55123"
"サンマルクカフェ ららぽーと新三郷店","〒341-0009  埼玉県三郷市新三郷ららシティ3-1-1","35.8601478","139.8653829"
"サンマルクカフェ 浦和店","〒330-0062  埼玉県さいたま市浦和区仲町1-1-8コスモシティ浦和仲町ビル","35.8599097","139.6557113"
"サンマルクカフェ 武蔵浦和マーレ店","〒336-0022  埼玉県さいたま市南区白幡5-19-19","35.8445198","139.6477658"
"サンマルクカフェ イオンモール浦和美園店","〒336-8760  埼玉県さいたま市緑区美園五丁目50番地1","35.890175","139.731854"
"サンマルクカフェ 埼玉アトレ川越店","〒350-1122  埼玉県川越市脇田町105アトレ1F","35.9082886","139.483121"
"サンマルクカフェ 熊谷ニットーモール店","〒360-0032  埼玉県熊谷市銀座2-245","36.1387884","139.3937695"
"サンマルクカフェ アリオ川口店","〒332-0033  埼玉県川口市並木元町1-79","35.8078098","139.7137916"
"サンマルクカフェ イオンモール川口前川店","〒333-0842  埼玉県川口市前川1-1-11","35.8341858","139.707058"
"サンマルクカフェ 埼玉川口そごう店","〒332-0017  埼玉県川口市栄町3-5-1そごうビル3F","35.80267440000001","139.7189105"
"サンマルクカフェ イオンモール羽生店","〒348-0039  埼玉県羽生市川崎2-281-3","36.1428655","139.5418448"
"サンマルクカフェ エルミこうのすショッピングモール店","〒365-0038  埼玉県鴻巣市本町1-1-2","36.0599835","139.5098015"
"サンマルクカフェ 上尾ショーサンプラザ店","〒362-0042  埼玉県上尾市谷津2-1-1ショーサンプラザ1Ｆ","35.97203140000001","139.5886054"
"サンマルクカフェ イオンモール越谷レイクタウンMORI店","〒343-0826  埼玉県越谷市レイクタウン3-1-1イオンレイクタウンmori","35.881322","139.8279441"
"サンマルクカフェ 蕨東口駅前店","〒335-0002  埼玉県蕨市塚越1-5-11","35.827559","139.692304"
"サンマルクカフェ イオンモール北戸田店","〒335-0032  埼玉県戸田市美女木東1-3-1","35.8266248","139.6526187"
"サンマルクカフェ 埼玉県チョコクロ 三井アウトレットパーク入間店","〒358-0014  埼玉県入間市宮寺3169-1","35.8101879","139.3802147"
"サンマルクカフェ モラージュ菖蒲SC店","〒346-0195  埼玉県久喜市菖蒲町菖蒲6005-1","36.0752054","139.6112644"
"サンマルクカフェ フレスポ八潮店","〒340-0822  埼玉県八潮市大瀬1-1-3","35.80835200000001","139.8438416"
"サンマルクカフェ 東武みずほ台店","〒354-0015  埼玉県富士見市東みずほ台2-29-4東武ストアみずほ台東","35.838277","139.55123"
"サンマルクカフェ ららぽーと新三郷店","〒341-0009  埼玉県三郷市新三郷ららシティ3-1-1","35.8601478","139.8653829"
"サンマルクカフェ ワカバウォーク店","〒350-2201  埼玉県鶴ケ島市富士見1-2-1ワカバウォーク1F","35.949123","139.410924"
"サンマルクカフェ 千葉駅前店","〒260-0015  千葉県千葉市中央区富士見2-3-1塚本大千葉ビルディング","35.6116114","140.1165618"
"サンマルクカフェ 千葉C－one店","〒260-0015  千葉県千葉市中央区富士見2-24-1","35.6098091","140.1188813"
"サンマルクカフェ 千葉中央銀座通り店","〒260-0013  千葉県千葉市中央区中央3-4-17","35.6089984","140.1218478"
"サンマルクカフェ 千城台店","〒265-0076  千葉県千葉市若葉区下田町1319-1","35.6255916","140.1954592"
"サンマルクカフェ イオンタウンおゆみ野店","〒266-0033  千葉県千葉市緑区おゆみ野南5-37-1","35.5447579","140.1749198"
"サンマルクカフェ ゆみ～る鎌取店","〒266-0031  千葉県千葉市緑区おゆみ野3-16-1","35.5614423","140.1775859"
"サンマルクカフェ イオンモール幕張新都心店","〒261-0024  千葉県千葉市美浜区豊砂1-13他　イオンモール幕張新都心Ａ棟","35.6524016","140.0318892"
"サンマルクカフェ イオン幕張店","〒261-0021  千葉県千葉市美浜区ひび野1-31F","35.6474731","140.0422501"
"サンマルクカフェ プレナ幕張店","〒261-0021  千葉県千葉市美浜区ひび野2-4","35.6477647","140.0403975"
"サンマルクカフェ マリンピア稲毛海岸店","〒261-0004  千葉県千葉市美浜区高洲3-13-1マリンピア1F","35.628455","140.073149"
"サンマルクカフェ イオンモール銚子店","〒288-0815  千葉県銚子市三崎町2-2660-1","35.71063230000001","140.7880864"
"サンマルクカフェ ニッケコルトンプラザ店","〒272-0015  千葉県市川市鬼高1-1-1","35.7167873","139.9342126"
"サンマルクカフェ 北習志野店","〒274-0063  千葉県船橋市習志野台2-1-6","35.7219199","140.0420976"
"サンマルクカフェ シャポー船橋店","〒273-0005  千葉県船橋市本町7-1-1シャポー船橋B1","35.7016433","139.9845349"
"サンマルクカフェ 船橋北口店","〒273-0005  千葉県船橋市本町5-4-5","35.7028048","139.986112"
"サンマルクカフェ 松戸店","〒271-0092  千葉県松戸市松戸1305-1林ビル","35.7831044","139.8993363"
"サンマルクカフェ イオンモール成田店","〒286-0029  千葉県成田市ウィング土屋24","35.795833","140.3176162"
"サンマルクカフェ イオンタウンユーカリが丘店","〒285-0850  千葉県佐倉市西ユーカリが丘6丁目12番地3　東館","35.7271755","140.1522986"
"サンマルクカフェ モリシア津田沼店","〒275-0026  千葉県習志野市谷津1-16-1モリシア津田沼2F","35.6898479","140.0191567"
"サンマルクカフェ 柏駅東口店","〒277-0005  千葉県柏市柏1-4-27","35.8612967","139.972262"
"サンマルクカフェ 千葉駅前店","〒260-0015  千葉県千葉市中央区富士見2-3-1塚本大千葉ビルディング","35.6116114","140.1165618"
"サンマルクカフェ 千葉C－one店","〒260-0015  千葉県千葉市中央区富士見2-24-1","35.6098091","140.1188813"
"サンマルクカフェ 千葉中央銀座通り店","〒260-0013  千葉県千葉市中央区中央3-4-17","35.6089984","140.1218478"
"サンマルクカフェ 千城台店","〒265-0076  千葉県千葉市若葉区下田町1319-1","35.6255916","140.1954592"
"サンマルクカフェ イオンタウンおゆみ野店","〒266-0033  千葉県千葉市緑区おゆみ野南5-37-1","35.5447579","140.1749198"
"サンマルクカフェ ゆみ～る鎌取店","〒266-0031  千葉県千葉市緑区おゆみ野3-16-1","35.5614423","140.1775859"
"サンマルクカフェ イオンモール幕張新都心店","〒261-0024  千葉県千葉市美浜区豊砂1-13他　イオンモール幕張新都心Ａ棟","35.6524016","140.0318892"
"サンマルクカフェ イオン幕張店","〒261-0021  千葉県千葉市美浜区ひび野1-31F","35.6474731","140.0422501"
"サンマルクカフェ プレナ幕張店","〒261-0021  千葉県千葉市美浜区ひび野2-4","35.6477647","140.0403975"
"サンマルクカフェ マリンピア稲毛海岸店","〒261-0004  千葉県千葉市美浜区高洲3-13-1マリンピア1F","35.628455","140.073149"
"サンマルクカフェ イオンモール銚子店","〒288-0815  千葉県銚子市三崎町2-2660-1","35.71063230000001","140.7880864"
"サンマルクカフェ ニッケコルトンプラザ店","〒272-0015  千葉県市川市鬼高1-1-1","35.7167873","139.9342126"
"サンマルクカフェ 北習志野店","〒274-0063  千葉県船橋市習志野台2-1-6","35.7219199","140.0420976"
"サンマルクカフェ シャポー船橋店","〒273-0005  千葉県船橋市本町7-1-1シャポー船橋B1","35.7016433","139.9845349"
"サンマルクカフェ 船橋北口店","〒273-0005  千葉県船橋市本町5-4-5","35.7028048","139.986112"
"サンマルクカフェ 松戸店","〒271-0092  千葉県松戸市松戸1305-1林ビル","35.7831044","139.8993363"
"サンマルクカフェ イオンモール成田店","〒286-0029  千葉県成田市ウィング土屋24","35.795833","140.3176162"
"サンマルクカフェ イオンタウンユーカリが丘店","〒285-0850  千葉県佐倉市西ユーカリが丘6丁目12番地3　東館","35.7271755","140.1522986"
"サンマルクカフェ モリシア津田沼店","〒275-0026  千葉県習志野市谷津1-16-1モリシア津田沼2F","35.6898479","140.0191567"
"サンマルクカフェ 柏駅東口店","〒277-0005  千葉県柏市柏1-4-27","35.8612967","139.972262"
"サンマルクカフェ ららぽーと柏の葉店","〒277-8518  千葉県柏市若柴175","35.8949105","139.9515097"
"サンマルクカフェ ユニモちはら台店","〒290-0143  千葉県市原市ちはら台西3-4","35.5281764","140.1707597"
"サンマルクカフェ ユアエルム八千代台店","〒276-0032  千葉県八千代市八千代台東一丁目1番10号","35.7002542","140.0914582"
"サンマルクカフェ イオン千葉ニュータウン店","〒270-1350  千葉県印西市中央北3-2","35.8026106","140.1111848"
"サンマルクカフェ ビッグホップガーデンモール印西店","〒270-1335  千葉県印西市原1-2","35.8031274","140.1624894"
"サンマルクカフェ 飯田橋東口店","〒102-0072  東京都千代田区飯田橋4-6-10","35.7008795","139.7470426"
"サンマルクカフェ 神田北口店","〒101-0045  東京都千代田区神田鍛冶町3-3-31鍛冶町ベストビル","35.6932124","139.770739"
"サンマルクカフェ 神田西口店","〒101-0047  東京都千代田区内神田3-12-10神田西口駅前共同ビル1F","35.69115900000001","139.770203"
"サンマルクカフェ 神田東口店","〒101-0044  東京都千代田区鍛冶町2-2-9第二登栄ビル1F","35.6915634","139.7715607"
"サンマルクカフェ 神保町すずらん通り店","〒101-0051  東京都千代田区神田神保町1-5-1","35.6956944","139.7593864"
"サンマルクカフェ 水道橋東口店","〒101-0061  東京都千代田区三崎町2-9-2","35.7009325","139.7549698"
"サンマルクカフェ 竹橋パレスサイドビル店","〒100-0003  東京都千代田区一ツ橋1-1-1パレスサイドビル","35.6909808","139.7567649"
"サンマルクカフェ 東京都有楽町ビル店","〒100-0006  東京都千代田区有楽町1-10-1有楽町ビルB1","35.675027","139.761712"
"サンマルクカフェ 半蔵門店","〒102-0083  東京都千代田区麹町2-7半蔵門ビル","35.6836411","139.7413724"
"サンマルクカフェ 丸の内新東京ビル店","〒100-0005  東京都千代田区丸の内3-3-1新東京ビル","35.677514","139.7624926"
"サンマルクカフェ 明治大学グローバルフロント店","〒101-0062  東京都千代田区神田駿河台2-1","35.6993857","139.7622139"
"サンマルクカフェ 銀座みゆき通り店","〒104-0061  東京都中央区銀座6-12-1第二寿ビル1F","35.669453","139.765068"
"サンマルクカフェ 小伝馬町駅前店","〒103-0001  東京都中央区日本橋小伝馬町3-8田中ビル","35.6907607","139.7781579"
"サンマルクカフェ 日本橋八重洲通り店","〒103-0027  東京都中央区日本橋3-5-15ニッセイ同和損保 日本橋本社ビル","35.679402","139.772153"
"サンマルクカフェ 晴海トリトン店","〒104-0053  東京都中央区晴海1-8-16晴海トリトン2F","35.6574706","139.7823685"
"サンマルクカフェ 赤坂外堀通り店","〒107-0052  東京都港区赤坂3-2-2日総第24ビル","35.6762635","139.7372411"
"サンマルクカフェ 慶応三田店","〒108-0014  東京都港区芝5-25-11","35.6479997","139.7456112"
"サンマルクカフェ 汐留店","〒105-0021  東京都港区東新橋1-9-1東京汐留ビルディング ペディ汐留2F","35.6630867","139.7607847"
"サンマルクカフェ 品川インターシティ店","〒108-0075  東京都港区港南2-15-2品川インターシティS＆R棟2F","35.6267899","139.74211"
"サンマルクカフェ 飯田橋東口店","〒102-0072  東京都千代田区飯田橋4-6-10","35.7008795","139.7470426"
"サンマルクカフェ 神田北口店","〒101-0045  東京都千代田区神田鍛冶町3-3-31鍛冶町ベストビル","35.6932124","139.770739"
"サンマルクカフェ 神田西口店","〒101-0047  東京都千代田区内神田3-12-10神田西口駅前共同ビル1F","35.69115900000001","139.770203"
"サンマルクカフェ 神田東口店","〒101-0044  東京都千代田区鍛冶町2-2-9第二登栄ビル1F","35.6915634","139.7715607"
"サンマルクカフェ 神保町すずらん通り店","〒101-0051  東京都千代田区神田神保町1-5-1","35.6956944","139.7593864"
"サンマルクカフェ 水道橋東口店","〒101-0061  東京都千代田区三崎町2-9-2","35.7009325","139.7549698"
"サンマルクカフェ 竹橋パレスサイドビル店","〒100-0003  東京都千代田区一ツ橋1-1-1パレスサイドビル","35.6909808","139.7567649"
"サンマルクカフェ 東京都有楽町ビル店","〒100-0006  東京都千代田区有楽町1-10-1有楽町ビルB1","35.675027","139.761712"
"サンマルクカフェ 半蔵門店","〒102-0083  東京都千代田区麹町2-7半蔵門ビル","35.6836411","139.7413724"
"サンマルクカフェ 丸の内新東京ビル店","〒100-0005  東京都千代田区丸の内3-3-1新東京ビル","35.677514","139.7624926"
"サンマルクカフェ 明治大学グローバルフロント店","〒101-0062  東京都千代田区神田駿河台2-1","35.6993857","139.7622139"
"サンマルクカフェ 銀座みゆき通り店","〒104-0061  東京都中央区銀座6-12-1第二寿ビル1F","35.669453","139.765068"
"サンマルクカフェ 小伝馬町駅前店","〒103-0001  東京都中央区日本橋小伝馬町3-8田中ビル","35.6907607","139.7781579"
"サンマルクカフェ 日本橋八重洲通り店","〒103-0027  東京都中央区日本橋3-5-15ニッセイ同和損保 日本橋本社ビル","35.679402","139.772153"
"サンマルクカフェ 晴海トリトン店","〒104-0053  東京都中央区晴海1-8-16晴海トリトン2F","35.6574706","139.7823685"
"サンマルクカフェ 赤坂外堀通り店","〒107-0052  東京都港区赤坂3-2-2日総第24ビル","35.6762635","139.7372411"
"サンマルクカフェ 慶応三田店","〒108-0014  東京都港区芝5-25-11","35.6479997","139.7456112"
"サンマルクカフェ 汐留店","〒105-0021  東京都港区東新橋1-9-1東京汐留ビルディング ペディ汐留2F","35.6630867","139.7607847"
"サンマルクカフェ 品川インターシティ店","〒108-0075  東京都港区港南2-15-2品川インターシティS＆R棟2F","35.6267899","139.74211"
"サンマルクカフェ 田町駅前店","〒108-0014  東京都港区芝5-33-1森永プラザビル別館1・2F","35.646617","139.747569"
"サンマルクカフェ 浜松町貿易センタービル店","〒105-6190  東京都港区浜松町2-4-1","35.653827","139.7558629"
"サンマルクカフェ ビックカメラ赤坂見附駅店","〒107-0052  東京都港区赤坂3-1-6","35.67710150000001","139.7366721"
"サンマルクカフェ 新宿アイランド店","〒163-1390  東京都新宿区西新宿6-5-1","35.6919843","139.6854958"
"サンマルクカフェ 新宿新南口店","〒160-0022  東京都新宿区新宿4-1-1","35.6881602","139.7026969"
"サンマルクカフェ 新宿西口駅前店","〒160-0023  東京都新宿区西新宿1-4-2141ビル2F","35.6889711","139.6980377"
"サンマルクカフェ 新宿三井ビル店","〒163-0490  東京都新宿区西新宿2-1-1新宿三井ビルB1","35.6918716","139.6938522"
"サンマルクカフェ 新宿モノリスビル店","〒160-0023  東京都新宿区西新宿2-3-1","35.6887155","139.694545"
"サンマルクカフェ 住友不動産新宿グランドタワー店","〒160-0023  東京都新宿区西新宿8-17-3住友不動産新宿グランドタワー","35.6957954","139.6903892"
"サンマルクカフェ 西武新宿ぺぺ店","〒160-0021  東京都新宿区歌舞伎町1-30-1","35.6962175","139.7001219"
"サンマルクカフェ 高田馬場店","〒169-0075  東京都新宿区高田馬場1-26-12高田馬場ビル1F","35.7129029","139.7055179"
"サンマルクカフェ 東京大久保店","〒169-0073  東京都新宿区百人町2-23-1TSTビル","35.7018072","139.6970163"
"サンマルクカフェ 西新宿メトロ店","〒160-0023  東京都新宿区西新宿1-1-2","35.6919843","139.6854958"
"サンマルクカフェ 西鉄イン新宿店","〒160-0023  東京都新宿区西新宿7-23-2","35.694437","139.6945087"
"サンマルクカフェ 四ツ谷駅前店","〒160-0004  東京都新宿区四谷1-2-4クニヤビル","35.6857656","139.7290192"
"サンマルクカフェ 千駄木店","〒113-0022  東京都文京区千駄木2-32-6レガシー千駄木","35.7246189","139.7627991"
"サンマルクカフェ 本郷三丁目メトロピア店","〒113-0033  東京都文京区本郷2-39-1","35.7066292","139.7599221"
"サンマルクカフェ 茗荷谷駅前店","〒112-0012  東京都文京区大塚1-4-10銀嶺ビル","35.7176191","139.736343"
"サンマルクカフェ 飯田橋東口店","〒102-0072  東京都千代田区飯田橋4-6-10","35.7008795","139.7470426"
"サンマルクカフェ 神田北口店","〒101-0045  東京都千代田区神田鍛冶町3-3-31鍛冶町ベストビル","35.6932124","139.770739"
"サンマルクカフェ 神田西口店","〒101-0047  東京都千代田区内神田3-12-10神田西口駅前共同ビル1F","35.69115900000001","139.770203"
"サンマルクカフェ 神田東口店","〒101-0044  東京都千代田区鍛冶町2-2-9第二登栄ビル1F","35.6915634","139.7715607"
"サンマルクカフェ 神保町すずらん通り店","〒101-0051  東京都千代田区神田神保町1-5-1","35.6956944","139.7593864"
"サンマルクカフェ 水道橋東口店","〒101-0061  東京都千代田区三崎町2-9-2","35.7009325","139.7549698"
"サンマルクカフェ 竹橋パレスサイドビル店","〒100-0003  東京都千代田区一ツ橋1-1-1パレスサイドビル","35.6909808","139.7567649"
"サンマルクカフェ 東京都有楽町ビル店","〒100-0006  東京都千代田区有楽町1-10-1有楽町ビルB1","35.675027","139.761712"
"サンマルクカフェ 半蔵門店","〒102-0083  東京都千代田区麹町2-7半蔵門ビル","35.6836411","139.7413724"
"サンマルクカフェ 丸の内新東京ビル店","〒100-0005  東京都千代田区丸の内3-3-1新東京ビル","35.677514","139.7624926"
"サンマルクカフェ 明治大学グローバルフロント店","〒101-0062  東京都千代田区神田駿河台2-1","35.6993857","139.7622139"
"サンマルクカフェ 銀座みゆき通り店","〒104-0061  東京都中央区銀座6-12-1第二寿ビル1F","35.669453","139.765068"
"サンマルクカフェ 小伝馬町駅前店","〒103-0001  東京都中央区日本橋小伝馬町3-8田中ビル","35.6907607","139.7781579"
"サンマルクカフェ 日本橋八重洲通り店","〒103-0027  東京都中央区日本橋3-5-15ニッセイ同和損保 日本橋本社ビル","35.679402","139.772153"
"サンマルクカフェ 晴海トリトン店","〒104-0053  東京都中央区晴海1-8-16晴海トリトン2F","35.6574706","139.7823685"
"サンマルクカフェ 赤坂外堀通り店","〒107-0052  東京都港区赤坂3-2-2日総第24ビル","35.6762635","139.7372411"
"サンマルクカフェ 慶応三田店","〒108-0014  東京都港区芝5-25-11","35.6479997","139.7456112"
"サンマルクカフェ 汐留店","〒105-0021  東京都港区東新橋1-9-1東京汐留ビルディング ペディ汐留2F","35.6630867","139.7607847"
"サンマルクカフェ 品川インターシティ店","〒108-0075  東京都港区港南2-15-2品川インターシティS＆R棟2F","35.6267899","139.74211"
"サンマルクカフェ 田町駅前店","〒108-0014  東京都港区芝5-33-1森永プラザビル別館1・2F","35.646617","139.747569"
"サンマルクカフェ 浜松町貿易センタービル店","〒105-6190  東京都港区浜松町2-4-1","35.653827","139.7558629"
"サンマルクカフェ ビックカメラ赤坂見附駅店","〒107-0052  東京都港区赤坂3-1-6","35.67710150000001","139.7366721"
"サンマルクカフェ 新宿アイランド店","〒163-1390  東京都新宿区西新宿6-5-1","35.6919843","139.6854958"
"サンマルクカフェ 新宿新南口店","〒160-0022  東京都新宿区新宿4-1-1","35.6881602","139.7026969"
"サンマルクカフェ 新宿西口駅前店","〒160-0023  東京都新宿区西新宿1-4-2141ビル2F","35.6889711","139.6980377"
"サンマルクカフェ 新宿三井ビル店","〒163-0490  東京都新宿区西新宿2-1-1新宿三井ビルB1","35.6918716","139.6938522"
"サンマルクカフェ 新宿モノリスビル店","〒160-0023  東京都新宿区西新宿2-3-1","35.6887155","139.694545"
"サンマルクカフェ 住友不動産新宿グランドタワー店","〒160-0023  東京都新宿区西新宿8-17-3住友不動産新宿グランドタワー","35.6957954","139.6903892"
"サンマルクカフェ 西武新宿ぺぺ店","〒160-0021  東京都新宿区歌舞伎町1-30-1","35.6962175","139.7001219"
"サンマルクカフェ 高田馬場店","〒169-0075  東京都新宿区高田馬場1-26-12高田馬場ビル1F","35.7129029","139.7055179"
"サンマルクカフェ 東京大久保店","〒169-0073  東京都新宿区百人町2-23-1TSTビル","35.7018072","139.6970163"
"サンマルクカフェ 西新宿メトロ店","〒160-0023  東京都新宿区西新宿1-1-2","35.6919843","139.6854958"
"サンマルクカフェ 西鉄イン新宿店","〒160-0023  東京都新宿区西新宿7-23-2","35.694437","139.6945087"
"サンマルクカフェ 四ツ谷駅前店","〒160-0004  東京都新宿区四谷1-2-4クニヤビル","35.6857656","139.7290192"
"サンマルクカフェ 千駄木店","〒113-0022  東京都文京区千駄木2-32-6レガシー千駄木","35.7246189","139.7627991"
"サンマルクカフェ 本郷三丁目メトロピア店","〒113-0033  東京都文京区本郷2-39-1","35.7066292","139.7599221"
"サンマルクカフェ 茗荷谷駅前店","〒112-0012  東京都文京区大塚1-4-10銀嶺ビル","35.7176191","139.736343"
"サンマルクカフェ 浅草EKIMISE店","〒111-0033  東京都台東区花川戸1-4-1","35.7120381","139.7984747"
"サンマルクカフェ 浅草橋東口店","〒111-0053  東京都台東区浅草橋1-30-12玉木ビル","35.6979696","139.7863466"
"サンマルクカフェ 浅草ROX店","〒111-0032  東京都台東区浅草1-25-15","35.7128824","139.7927613"
"サンマルクカフェ 御徒町南口店","〒110-0005  東京都台東区上野3-27-3","35.7071185","139.7741295"
"サンマルクカフェ 東京上野アブアブ前店","〒110-0005  東京都台東区上野4-5-8","35.7090822","139.7737767"
"サンマルクカフェ オリナス錦糸町店","〒130-0012  東京都墨田区太平4-1-2","35.7007196","139.8158098"
"サンマルクカフェ 両国西口店","〒130-0026  東京都墨田区両国2-19-1ザ・ホテル ベルグランデ","35.6954341","139.792188"
"サンマルクカフェ 新木場駅店","〒136-0082  東京都江東区新木場1-6りんかい線新木場駅構内","35.6459022","139.8266952"
"サンマルクカフェ ららぽーと豊洲店","〒135-0061  東京都江東区豊洲2-4-9","35.6551414","139.7927659"
"サンマルクカフェ 大崎ニューシティー店","〒141-0032  東京都品川区大崎1-6-5大崎ニューシティー","35.6200912","139.7292415"
"サンマルクカフェ スフィアタワー天王洲店","〒140-0002  東京都品川区東品川2-2-8スフィアタワー天王洲","35.6229117","139.7496405"
"サンマルクカフェ 阪急大井町ガーデン店","〒140-0014  東京都品川区大井1-50-5阪急大井町ガーデン1・2F","35.6056988","139.7341221"
"サンマルクカフェ 武蔵小山店","〒142-0062  東京都品川区小山3-25-1","35.6196602","139.7041019"
"サンマルクカフェ 目黒西口店","〒141-0021  東京都品川区上大崎2-27-1サンフェリスタ目黒","35.6341277","139.714873"
"サンマルクカフェ 目黒東口店","〒141-0021  東京都品川区上大崎2-13-38三樹ビル1F","35.6341658","139.7172471"
"サンマルクカフェ 都立大学駅前店","〒152-0031  東京都目黒区中根1-2-7第3丸八ビル","35.6178786","139.6762427"
"サンマルクカフェ アトレ大森店","〒143-0016  東京都大田区大森北1-6-16","35.5885035","139.7285568"
"サンマルクカフェ 大森山王店","〒143-0023  東京都大田区山王2-5-5オリエントビル","35.5904553","139.7280614"
"サンマルクカフェ 御嶽山店","〒145-0073  東京都大田区北嶺町11-11池田ビル","35.5856363","139.6824705"
"サンマルクカフェ 西蒲田店","〒144-0051  東京都大田区西蒲田7-65-1","35.5621623","139.7132542"
"サンマルクカフェ 飯田橋東口店","〒102-0072  東京都千代田区飯田橋4-6-10","35.7008795","139.7470426"
"サンマルクカフェ 神田北口店","〒101-0045  東京都千代田区神田鍛冶町3-3-31鍛冶町ベストビル","35.6932124","139.770739"
"サンマルクカフェ 神田西口店","〒101-0047  東京都千代田区内神田3-12-10神田西口駅前共同ビル1F","35.69115900000001","139.770203"
"サンマルクカフェ 神田東口店","〒101-0044  東京都千代田区鍛冶町2-2-9第二登栄ビル1F","35.6915634","139.7715607"
"サンマルクカフェ 神保町すずらん通り店","〒101-0051  東京都千代田区神田神保町1-5-1","35.6956944","139.7593864"
"サンマルクカフェ 水道橋東口店","〒101-0061  東京都千代田区三崎町2-9-2","35.7009325","139.7549698"
"サンマルクカフェ 竹橋パレスサイドビル店","〒100-0003  東京都千代田区一ツ橋1-1-1パレスサイドビル","35.6909808","139.7567649"
"サンマルクカフェ 東京都有楽町ビル店","〒100-0006  東京都千代田区有楽町1-10-1有楽町ビルB1","35.675027","139.761712"
"サンマルクカフェ 半蔵門店","〒102-0083  東京都千代田区麹町2-7半蔵門ビル","35.6836411","139.7413724"
"サンマルクカフェ 丸の内新東京ビル店","〒100-0005  東京都千代田区丸の内3-3-1新東京ビル","35.677514","139.7624926"
"サンマルクカフェ 明治大学グローバルフロント店","〒101-0062  東京都千代田区神田駿河台2-1","35.6993857","139.7622139"
"サンマルクカフェ 銀座みゆき通り店","〒104-0061  東京都中央区銀座6-12-1第二寿ビル1F","35.669453","139.765068"
"サンマルクカフェ 小伝馬町駅前店","〒103-0001  東京都中央区日本橋小伝馬町3-8田中ビル","35.6907607","139.7781579"
"サンマルクカフェ 日本橋八重洲通り店","〒103-0027  東京都中央区日本橋3-5-15ニッセイ同和損保 日本橋本社ビル","35.679402","139.772153"
"サンマルクカフェ 晴海トリトン店","〒104-0053  東京都中央区晴海1-8-16晴海トリトン2F","35.6574706","139.7823685"
"サンマルクカフェ 赤坂外堀通り店","〒107-0052  東京都港区赤坂3-2-2日総第24ビル","35.6762635","139.7372411"
"サンマルクカフェ 慶応三田店","〒108-0014  東京都港区芝5-25-11","35.6479997","139.7456112"
"サンマルクカフェ 汐留店","〒105-0021  東京都港区東新橋1-9-1東京汐留ビルディング ペディ汐留2F","35.6630867","139.7607847"
"サンマルクカフェ 品川インターシティ店","〒108-0075  東京都港区港南2-15-2品川インターシティS＆R棟2F","35.6267899","139.74211"
"サンマルクカフェ 田町駅前店","〒108-0014  東京都港区芝5-33-1森永プラザビル別館1・2F","35.646617","139.747569"
"サンマルクカフェ 浜松町貿易センタービル店","〒105-6190  東京都港区浜松町2-4-1","35.653827","139.7558629"
"サンマルクカフェ ビックカメラ赤坂見附駅店","〒107-0052  東京都港区赤坂3-1-6","35.67710150000001","139.7366721"
"サンマルクカフェ 新宿アイランド店","〒163-1390  東京都新宿区西新宿6-5-1","35.6919843","139.6854958"
"サンマルクカフェ 新宿新南口店","〒160-0022  東京都新宿区新宿4-1-1","35.6881602","139.7026969"
"サンマルクカフェ 新宿西口駅前店","〒160-0023  東京都新宿区西新宿1-4-2141ビル2F","35.6889711","139.6980377"
"サンマルクカフェ 新宿三井ビル店","〒163-0490  東京都新宿区西新宿2-1-1新宿三井ビルB1","35.6918716","139.6938522"
"サンマルクカフェ 新宿モノリスビル店","〒160-0023  東京都新宿区西新宿2-3-1","35.6887155","139.694545"
"サンマルクカフェ 住友不動産新宿グランドタワー店","〒160-0023  東京都新宿区西新宿8-17-3住友不動産新宿グランドタワー","35.6957954","139.6903892"
"サンマルクカフェ 西武新宿ぺぺ店","〒160-0021  東京都新宿区歌舞伎町1-30-1","35.6962175","139.7001219"
"サンマルクカフェ 高田馬場店","〒169-0075  東京都新宿区高田馬場1-26-12高田馬場ビル1F","35.7129029","139.7055179"
"サンマルクカフェ 東京大久保店","〒169-0073  東京都新宿区百人町2-23-1TSTビル","35.7018072","139.6970163"
"サンマルクカフェ 西新宿メトロ店","〒160-0023  東京都新宿区西新宿1-1-2","35.6919843","139.6854958"
"サンマルクカフェ 西鉄イン新宿店","〒160-0023  東京都新宿区西新宿7-23-2","35.694437","139.6945087"
"サンマルクカフェ 四ツ谷駅前店","〒160-0004  東京都新宿区四谷1-2-4クニヤビル","35.6857656","139.7290192"
"サンマルクカフェ 千駄木店","〒113-0022  東京都文京区千駄木2-32-6レガシー千駄木","35.7246189","139.7627991"
"サンマルクカフェ 本郷三丁目メトロピア店","〒113-0033  東京都文京区本郷2-39-1","35.7066292","139.7599221"
"サンマルクカフェ 茗荷谷駅前店","〒112-0012  東京都文京区大塚1-4-10銀嶺ビル","35.7176191","139.736343"
"サンマルクカフェ 浅草EKIMISE店","〒111-0033  東京都台東区花川戸1-4-1","35.7120381","139.7984747"
"サンマルクカフェ 浅草橋東口店","〒111-0053  東京都台東区浅草橋1-30-12玉木ビル","35.6979696","139.7863466"
"サンマルクカフェ 浅草ROX店","〒111-0032  東京都台東区浅草1-25-15","35.7128824","139.7927613"
"サンマルクカフェ 御徒町南口店","〒110-0005  東京都台東区上野3-27-3","35.7071185","139.7741295"
"サンマルクカフェ 東京上野アブアブ前店","〒110-0005  東京都台東区上野4-5-8","35.7090822","139.7737767"
"サンマルクカフェ オリナス錦糸町店","〒130-0012  東京都墨田区太平4-1-2","35.7007196","139.8158098"
"サンマルクカフェ 両国西口店","〒130-0026  東京都墨田区両国2-19-1ザ・ホテル ベルグランデ","35.6954341","139.792188"
"サンマルクカフェ 新木場駅店","〒136-0082  東京都江東区新木場1-6りんかい線新木場駅構内","35.6459022","139.8266952"
"サンマルクカフェ ららぽーと豊洲店","〒135-0061  東京都江東区豊洲2-4-9","35.6551414","139.7927659"
"サンマルクカフェ 大崎ニューシティー店","〒141-0032  東京都品川区大崎1-6-5大崎ニューシティー","35.6200912","139.7292415"
"サンマルクカフェ スフィアタワー天王洲店","〒140-0002  東京都品川区東品川2-2-8スフィアタワー天王洲","35.6229117","139.7496405"
"サンマルクカフェ 阪急大井町ガーデン店","〒140-0014  東京都品川区大井1-50-5阪急大井町ガーデン1・2F","35.6056988","139.7341221"
"サンマルクカフェ 武蔵小山店","〒142-0062  東京都品川区小山3-25-1","35.6196602","139.7041019"
"サンマルクカフェ 目黒西口店","〒141-0021  東京都品川区上大崎2-27-1サンフェリスタ目黒","35.6341277","139.714873"
"サンマルクカフェ 目黒東口店","〒141-0021  東京都品川区上大崎2-13-38三樹ビル1F","35.6341658","139.7172471"
"サンマルクカフェ 都立大学駅前店","〒152-0031  東京都目黒区中根1-2-7第3丸八ビル","35.6178786","139.6762427"
"サンマルクカフェ アトレ大森店","〒143-0016  東京都大田区大森北1-6-16","35.5885035","139.7285568"
"サンマルクカフェ 大森山王店","〒143-0023  東京都大田区山王2-5-5オリエントビル","35.5904553","139.7280614"
"サンマルクカフェ 御嶽山店","〒145-0073  東京都大田区北嶺町11-11池田ビル","35.5856363","139.6824705"
"サンマルクカフェ 西蒲田店","〒144-0051  東京都大田区西蒲田7-65-1","35.5621623","139.7132542"
"サンマルクカフェ Luz大森店","〒143-0016  東京都大田区大森北1-10-4Luz大森1F","35.5864899","139.7283403"
"サンマルクカフェ 小田急豪徳寺駅店","〒154-0021  東京都世田谷区豪徳寺1-43-4","35.6536906","139.6475391"
"サンマルクカフェ 三軒茶屋店","〒154-0004  東京都世田谷区太子堂4-23-2","35.64393400000001","139.6706819"
"サンマルクカフェ ピーコックストア 経堂店","〒156-0051  東京都世田谷区宮坂2-19-5","35.6514074","139.6377622"
"サンマルクカフェ 恵比寿駅前店","〒150-0021  東京都渋谷区恵比寿西1-8-8","35.6472709","139.7085951"
"サンマルクカフェ 恵比寿東口店","〒150-0013  東京都渋谷区恵比寿1-8-1サン栄ビル","35.6480477","139.7100158"
"サンマルクカフェ 恵比寿三越店","〒150-6090  東京都渋谷区恵比寿4-20-7恵比寿三越2F","35.64259200000001","139.71425"
"サンマルクカフェ 渋谷井の頭通店","〒150-0042  東京都渋谷区宇田川町12-7渋谷エメラルドビル1F","35.6615058","139.6979893"
"サンマルクカフェ 渋谷公園通り店","〒150-0042  東京都渋谷区宇田川町2-1渋谷ホームズ","35.6636111","139.6987158"
"サンマルクカフェ 渋谷道玄坂店","〒150-0043  東京都渋谷区道玄坂2-29-8","35.6593968","139.6964402"
"サンマルクカフェ 代々木上原店","〒151-0066  東京都渋谷区西原3-8-5","35.6694979","139.6803886"
"サンマルクカフェ 中野坂上店","〒164-0011  東京都中野区中央2-5-4","35.6975778","139.6796126"
"サンマルクカフェ 荻窪タウンセブン店","〒167-0043  東京都杉並区上荻1-9-1荻窪タウンセブン","35.705079","139.619581"
"サンマルクカフェ 荻窪南口店","〒167-0051  東京都杉並区荻窪5-27-8荻窪タイガープラザ3ビル1F","35.7040079","139.6202468"
"サンマルクカフェ 高円寺南口店","〒166-0003  東京都杉並区高円寺南3-58-29","35.7040347","139.6487561"
"サンマルクカフェ 池袋メトロポリタン口店","〒171-0021  東京都豊島区西池袋1-3-6　アウルコート","35.7282898","139.7093425"
"サンマルクカフェ　目白駅前店","東京都豊島区目白三丁目4番14号","35.7216761","139.7062145"
"サンマルクカフェ 池袋東口店","〒171-0022  東京都豊島区南池袋1-24-6深野ビル1F","35.728959","139.713055"
"サンマルクカフェ 飯田橋東口店","〒102-0072  東京都千代田区飯田橋4-6-10","35.7008795","139.7470426"
"サンマルクカフェ 神田北口店","〒101-0045  東京都千代田区神田鍛冶町3-3-31鍛冶町ベストビル","35.6932124","139.770739"
"サンマルクカフェ 神田西口店","〒101-0047  東京都千代田区内神田3-12-10神田西口駅前共同ビル1F","35.69115900000001","139.770203"
"サンマルクカフェ 神田東口店","〒101-0044  東京都千代田区鍛冶町2-2-9第二登栄ビル1F","35.6915634","139.7715607"
"サンマルクカフェ 神保町すずらん通り店","〒101-0051  東京都千代田区神田神保町1-5-1","35.6956944","139.7593864"
"サンマルクカフェ 水道橋東口店","〒101-0061  東京都千代田区三崎町2-9-2","35.7009325","139.7549698"
"サンマルクカフェ 竹橋パレスサイドビル店","〒100-0003  東京都千代田区一ツ橋1-1-1パレスサイドビル","35.6909808","139.7567649"
"サンマルクカフェ 東京都有楽町ビル店","〒100-0006  東京都千代田区有楽町1-10-1有楽町ビルB1","35.675027","139.761712"
"サンマルクカフェ 半蔵門店","〒102-0083  東京都千代田区麹町2-7半蔵門ビル","35.6836411","139.7413724"
"サンマルクカフェ 丸の内新東京ビル店","〒100-0005  東京都千代田区丸の内3-3-1新東京ビル","35.677514","139.7624926"
"サンマルクカフェ 明治大学グローバルフロント店","〒101-0062  東京都千代田区神田駿河台2-1","35.6993857","139.7622139"
"サンマルクカフェ 銀座みゆき通り店","〒104-0061  東京都中央区銀座6-12-1第二寿ビル1F","35.669453","139.765068"
"サンマルクカフェ 小伝馬町駅前店","〒103-0001  東京都中央区日本橋小伝馬町3-8田中ビル","35.6907607","139.7781579"
"サンマルクカフェ 日本橋八重洲通り店","〒103-0027  東京都中央区日本橋3-5-15ニッセイ同和損保 日本橋本社ビル","35.679402","139.772153"
"サンマルクカフェ 晴海トリトン店","〒104-0053  東京都中央区晴海1-8-16晴海トリトン2F","35.6574706","139.7823685"
"サンマルクカフェ 赤坂外堀通り店","〒107-0052  東京都港区赤坂3-2-2日総第24ビル","35.6762635","139.7372411"
"サンマルクカフェ 慶応三田店","〒108-0014  東京都港区芝5-25-11","35.6479997","139.7456112"
"サンマルクカフェ 汐留店","〒105-0021  東京都港区東新橋1-9-1東京汐留ビルディング ペディ汐留2F","35.6630867","139.7607847"
"サンマルクカフェ 品川インターシティ店","〒108-0075  東京都港区港南2-15-2品川インターシティS＆R棟2F","35.6267899","139.74211"
"サンマルクカフェ 田町駅前店","〒108-0014  東京都港区芝5-33-1森永プラザビル別館1・2F","35.646617","139.747569"
"サンマルクカフェ 浜松町貿易センタービル店","〒105-6190  東京都港区浜松町2-4-1","35.653827","139.7558629"
"サンマルクカフェ ビックカメラ赤坂見附駅店","〒107-0052  東京都港区赤坂3-1-6","35.67710150000001","139.7366721"
"サンマルクカフェ 新宿アイランド店","〒163-1390  東京都新宿区西新宿6-5-1","35.6919843","139.6854958"
"サンマルクカフェ 新宿新南口店","〒160-0022  東京都新宿区新宿4-1-1","35.6881602","139.7026969"
"サンマルクカフェ 新宿西口駅前店","〒160-0023  東京都新宿区西新宿1-4-2141ビル2F","35.6889711","139.6980377"
"サンマルクカフェ 新宿三井ビル店","〒163-0490  東京都新宿区西新宿2-1-1新宿三井ビルB1","35.6918716","139.6938522"
"サンマルクカフェ 新宿モノリスビル店","〒160-0023  東京都新宿区西新宿2-3-1","35.6887155","139.694545"
"サンマルクカフェ 住友不動産新宿グランドタワー店","〒160-0023  東京都新宿区西新宿8-17-3住友不動産新宿グランドタワー","35.6957954","139.6903892"
"サンマルクカフェ 西武新宿ぺぺ店","〒160-0021  東京都新宿区歌舞伎町1-30-1","35.6962175","139.7001219"
"サンマルクカフェ 高田馬場店","〒169-0075  東京都新宿区高田馬場1-26-12高田馬場ビル1F","35.7129029","139.7055179"
"サンマルクカフェ 東京大久保店","〒169-0073  東京都新宿区百人町2-23-1TSTビル","35.7018072","139.6970163"
"サンマルクカフェ 西新宿メトロ店","〒160-0023  東京都新宿区西新宿1-1-2","35.6919843","139.6854958"
"サンマルクカフェ 西鉄イン新宿店","〒160-0023  東京都新宿区西新宿7-23-2","35.694437","139.6945087"
"サンマルクカフェ 四ツ谷駅前店","〒160-0004  東京都新宿区四谷1-2-4クニヤビル","35.6857656","139.7290192"
"サンマルクカフェ 千駄木店","〒113-0022  東京都文京区千駄木2-32-6レガシー千駄木","35.7246189","139.7627991"
"サンマルクカフェ 本郷三丁目メトロピア店","〒113-0033  東京都文京区本郷2-39-1","35.7066292","139.7599221"
"サンマルクカフェ 茗荷谷駅前店","〒112-0012  東京都文京区大塚1-4-10銀嶺ビル","35.7176191","139.736343"
"サンマルクカフェ 浅草EKIMISE店","〒111-0033  東京都台東区花川戸1-4-1","35.7120381","139.7984747"
"サンマルクカフェ 浅草橋東口店","〒111-0053  東京都台東区浅草橋1-30-12玉木ビル","35.6979696","139.7863466"
"サンマルクカフェ 浅草ROX店","〒111-0032  東京都台東区浅草1-25-15","35.7128824","139.7927613"
"サンマルクカフェ 御徒町南口店","〒110-0005  東京都台東区上野3-27-3","35.7071185","139.7741295"
"サンマルクカフェ 東京上野アブアブ前店","〒110-0005  東京都台東区上野4-5-8","35.7090822","139.7737767"
"サンマルクカフェ オリナス錦糸町店","〒130-0012  東京都墨田区太平4-1-2","35.7007196","139.8158098"
"サンマルクカフェ 両国西口店","〒130-0026  東京都墨田区両国2-19-1ザ・ホテル ベルグランデ","35.6954341","139.792188"
"サンマルクカフェ 新木場駅店","〒136-0082  東京都江東区新木場1-6りんかい線新木場駅構内","35.6459022","139.8266952"
"サンマルクカフェ ららぽーと豊洲店","〒135-0061  東京都江東区豊洲2-4-9","35.6551414","139.7927659"
"サンマルクカフェ 大崎ニューシティー店","〒141-0032  東京都品川区大崎1-6-5大崎ニューシティー","35.6200912","139.7292415"
"サンマルクカフェ スフィアタワー天王洲店","〒140-0002  東京都品川区東品川2-2-8スフィアタワー天王洲","35.6229117","139.7496405"
"サンマルクカフェ 阪急大井町ガーデン店","〒140-0014  東京都品川区大井1-50-5阪急大井町ガーデン1・2F","35.6056988","139.7341221"
"サンマルクカフェ 武蔵小山店","〒142-0062  東京都品川区小山3-25-1","35.6196602","139.7041019"
"サンマルクカフェ 目黒西口店","〒141-0021  東京都品川区上大崎2-27-1サンフェリスタ目黒","35.6341277","139.714873"
"サンマルクカフェ 目黒東口店","〒141-0021  東京都品川区上大崎2-13-38三樹ビル1F","35.6341658","139.7172471"
"サンマルクカフェ 都立大学駅前店","〒152-0031  東京都目黒区中根1-2-7第3丸八ビル","35.6178786","139.6762427"
"サンマルクカフェ アトレ大森店","〒143-0016  東京都大田区大森北1-6-16","35.5885035","139.7285568"
"サンマルクカフェ 大森山王店","〒143-0023  東京都大田区山王2-5-5オリエントビル","35.5904553","139.7280614"
"サンマルクカフェ 御嶽山店","〒145-0073  東京都大田区北嶺町11-11池田ビル","35.5856363","139.6824705"
"サンマルクカフェ 西蒲田店","〒144-0051  東京都大田区西蒲田7-65-1","35.5621623","139.7132542"
"サンマルクカフェ Luz大森店","〒143-0016  東京都大田区大森北1-10-4Luz大森1F","35.5864899","139.7283403"
"サンマルクカフェ 小田急豪徳寺駅店","〒154-0021  東京都世田谷区豪徳寺1-43-4","35.6536906","139.6475391"
"サンマルクカフェ 三軒茶屋店","〒154-0004  東京都世田谷区太子堂4-23-2","35.64393400000001","139.6706819"
"サンマルクカフェ ピーコックストア 経堂店","〒156-0051  東京都世田谷区宮坂2-19-5","35.6514074","139.6377622"
"サンマルクカフェ 恵比寿駅前店","〒150-0021  東京都渋谷区恵比寿西1-8-8","35.6472709","139.7085951"
"サンマルクカフェ 恵比寿東口店","〒150-0013  東京都渋谷区恵比寿1-8-1サン栄ビル","35.6480477","139.7100158"
"サンマルクカフェ 恵比寿三越店","〒150-6090  東京都渋谷区恵比寿4-20-7恵比寿三越2F","35.64259200000001","139.71425"
"サンマルクカフェ 渋谷井の頭通店","〒150-0042  東京都渋谷区宇田川町12-7渋谷エメラルドビル1F","35.6615058","139.6979893"
"サンマルクカフェ 渋谷公園通り店","〒150-0042  東京都渋谷区宇田川町2-1渋谷ホームズ","35.6636111","139.6987158"
"サンマルクカフェ 渋谷道玄坂店","〒150-0043  東京都渋谷区道玄坂2-29-8","35.6593968","139.6964402"
"サンマルクカフェ 代々木上原店","〒151-0066  東京都渋谷区西原3-8-5","35.6694979","139.6803886"
"サンマルクカフェ 中野坂上店","〒164-0011  東京都中野区中央2-5-4","35.6975778","139.6796126"
"サンマルクカフェ 荻窪タウンセブン店","〒167-0043  東京都杉並区上荻1-9-1荻窪タウンセブン","35.705079","139.619581"
"サンマルクカフェ 荻窪南口店","〒167-0051  東京都杉並区荻窪5-27-8荻窪タイガープラザ3ビル1F","35.7040079","139.6202468"
"サンマルクカフェ 高円寺南口店","〒166-0003  東京都杉並区高円寺南3-58-29","35.7040347","139.6487561"
"サンマルクカフェ 池袋メトロポリタン口店","〒171-0021  東京都豊島区西池袋1-3-6　アウルコート","35.7282898","139.7093425"
"サンマルクカフェ　目白駅前店","東京都豊島区目白三丁目4番14号","35.7216761","139.7062145"
"サンマルクカフェ 池袋東口店","〒171-0022  東京都豊島区南池袋1-24-6深野ビル1F","35.728959","139.713055"
"サンマルクカフェ 巣鴨店","〒170-0002  東京都豊島区巣鴨3-27-8巣鴨駅前ビル","35.73322","139.738353"
"サンマルクカフェ ホテルザ・ビー池袋店","〒170-0013  東京都豊島区東池袋1-39-4ザ・ビー池袋1F","35.7323476","139.7142688"
"サンマルクカフェ 南池袋店","〒171-0022  東京都豊島区南池袋1-20-9第一中野ビル1F","35.7282249","139.7129579"
"サンマルクカフェ 東京赤羽店","〒115-0045  東京都北区赤羽2-1-29-1斉藤ビル","35.781381","139.7212773"
"サンマルクカフェ 東京上十条店","〒114-0034  東京都北区上十条2-30-6","35.7613336","139.7214756"
"サンマルクカフェ サンポップマチヤ店","〒116-0002  東京都荒川区荒川7-50-9","35.742318","139.7806717"
"サンマルクカフェ 光が丘IMA店","〒179-0072  東京都練馬区光が丘5-1-1光が丘IMA 中央館2F","35.7597363","139.6283062"
"サンマルクカフェ アリオ西新井SC店","〒123-0843  東京都足立区西新井栄町1-20-1","35.7747367","139.7861194"
"サンマルクカフェ 北千住東口店","〒120-0026  東京都足立区千住旭町3-7","35.7494151","139.805861"
"サンマルクカフェ 東武北千住店","〒120-0026  東京都足立区千住旭町42-1","35.7491373","139.8052694"
"サンマルクカフェ 東武五反野駅前店","〒120-0015  東京都足立区足立4-41-27","35.7663461","139.8089011"
"サンマルクカフェ パサージオ西新井店","〒123-0843  東京都足立区西新井栄町1-17-1","35.7757422","139.7896413"
"サンマルクカフェ 新小岩ルミエール店","〒124-0024  東京都葛飾区新小岩1-50-2","35.7155222","139.8598883"
"サンマルクカフェ 瑞江駅前店","〒132-0011  東京都江戸川区瑞江2-2-1","35.6928358","139.8967569"
"サンマルクカフェ fab南大沢店","〒192-0364  東京都八王子市南大沢2-3","35.6144495","139.3798662"
"サンマルクカフェ 吉祥寺北口駅前店","〒180-0004  東京都武蔵野市吉祥寺本町1-4-17O．F．ビル","35.7032985","139.5789614"
"サンマルクカフェ 吉祥寺元町通店","〒180-0004  東京都武蔵野市吉祥寺本町1-8-9","35.7046028","139.5786596"
"サンマルクカフェ 小田急町田北口店","〒194-0022  東京都町田市森野1-36-14","35.5457368","139.4452125"
"サンマルクカフェ T‐wing machida店","〒194-0013  東京都町田市原町田6-11-11T-wing machida1F","35.5443088","139.4462962"
"サンマルクカフェ 飯田橋東口店","〒102-0072  東京都千代田区飯田橋4-6-10","35.7008795","139.7470426"
"サンマルクカフェ 神田北口店","〒101-0045  東京都千代田区神田鍛冶町3-3-31鍛冶町ベストビル","35.6932124","139.770739"
"サンマルクカフェ 神田西口店","〒101-0047  東京都千代田区内神田3-12-10神田西口駅前共同ビル1F","35.69115900000001","139.770203"
"サンマルクカフェ 神田東口店","〒101-0044  東京都千代田区鍛冶町2-2-9第二登栄ビル1F","35.6915634","139.7715607"
"サンマルクカフェ 神保町すずらん通り店","〒101-0051  東京都千代田区神田神保町1-5-1","35.6956944","139.7593864"
"サンマルクカフェ 水道橋東口店","〒101-0061  東京都千代田区三崎町2-9-2","35.7009325","139.7549698"
"サンマルクカフェ 竹橋パレスサイドビル店","〒100-0003  東京都千代田区一ツ橋1-1-1パレスサイドビル","35.6909808","139.7567649"
"サンマルクカフェ 東京都有楽町ビル店","〒100-0006  東京都千代田区有楽町1-10-1有楽町ビルB1","35.675027","139.761712"
"サンマルクカフェ 半蔵門店","〒102-0083  東京都千代田区麹町2-7半蔵門ビル","35.6836411","139.7413724"
"サンマルクカフェ 丸の内新東京ビル店","〒100-0005  東京都千代田区丸の内3-3-1新東京ビル","35.677514","139.7624926"
"サンマルクカフェ 明治大学グローバルフロント店","〒101-0062  東京都千代田区神田駿河台2-1","35.6993857","139.7622139"
"サンマルクカフェ 銀座みゆき通り店","〒104-0061  東京都中央区銀座6-12-1第二寿ビル1F","35.669453","139.765068"
"サンマルクカフェ 小伝馬町駅前店","〒103-0001  東京都中央区日本橋小伝馬町3-8田中ビル","35.6907607","139.7781579"
"サンマルクカフェ 日本橋八重洲通り店","〒103-0027  東京都中央区日本橋3-5-15ニッセイ同和損保 日本橋本社ビル","35.679402","139.772153"
"サンマルクカフェ 晴海トリトン店","〒104-0053  東京都中央区晴海1-8-16晴海トリトン2F","35.6574706","139.7823685"
"サンマルクカフェ 赤坂外堀通り店","〒107-0052  東京都港区赤坂3-2-2日総第24ビル","35.6762635","139.7372411"
"サンマルクカフェ 慶応三田店","〒108-0014  東京都港区芝5-25-11","35.6479997","139.7456112"
"サンマルクカフェ 汐留店","〒105-0021  東京都港区東新橋1-9-1東京汐留ビルディング ペディ汐留2F","35.6630867","139.7607847"
"サンマルクカフェ 品川インターシティ店","〒108-0075  東京都港区港南2-15-2品川インターシティS＆R棟2F","35.6267899","139.74211"
"サンマルクカフェ 田町駅前店","〒108-0014  東京都港区芝5-33-1森永プラザビル別館1・2F","35.646617","139.747569"
"サンマルクカフェ 浜松町貿易センタービル店","〒105-6190  東京都港区浜松町2-4-1","35.653827","139.7558629"
"サンマルクカフェ ビックカメラ赤坂見附駅店","〒107-0052  東京都港区赤坂3-1-6","35.67710150000001","139.7366721"
"サンマルクカフェ 新宿アイランド店","〒163-1390  東京都新宿区西新宿6-5-1","35.6919843","139.6854958"
"サンマルクカフェ 新宿新南口店","〒160-0022  東京都新宿区新宿4-1-1","35.6881602","139.7026969"
"サンマルクカフェ 新宿西口駅前店","〒160-0023  東京都新宿区西新宿1-4-2141ビル2F","35.6889711","139.6980377"
"サンマルクカフェ 新宿三井ビル店","〒163-0490  東京都新宿区西新宿2-1-1新宿三井ビルB1","35.6918716","139.6938522"
"サンマルクカフェ 新宿モノリスビル店","〒160-0023  東京都新宿区西新宿2-3-1","35.6887155","139.694545"
"サンマルクカフェ 住友不動産新宿グランドタワー店","〒160-0023  東京都新宿区西新宿8-17-3住友不動産新宿グランドタワー","35.6957954","139.6903892"
"サンマルクカフェ 西武新宿ぺぺ店","〒160-0021  東京都新宿区歌舞伎町1-30-1","35.6962175","139.7001219"
"サンマルクカフェ 高田馬場店","〒169-0075  東京都新宿区高田馬場1-26-12高田馬場ビル1F","35.7129029","139.7055179"
"サンマルクカフェ 東京大久保店","〒169-0073  東京都新宿区百人町2-23-1TSTビル","35.7018072","139.6970163"
"サンマルクカフェ 西新宿メトロ店","〒160-0023  東京都新宿区西新宿1-1-2","35.6919843","139.6854958"
"サンマルクカフェ 西鉄イン新宿店","〒160-0023  東京都新宿区西新宿7-23-2","35.694437","139.6945087"
"サンマルクカフェ 四ツ谷駅前店","〒160-0004  東京都新宿区四谷1-2-4クニヤビル","35.6857656","139.7290192"
"サンマルクカフェ 千駄木店","〒113-0022  東京都文京区千駄木2-32-6レガシー千駄木","35.7246189","139.7627991"
"サンマルクカフェ 本郷三丁目メトロピア店","〒113-0033  東京都文京区本郷2-39-1","35.7066292","139.7599221"
"サンマルクカフェ 茗荷谷駅前店","〒112-0012  東京都文京区大塚1-4-10銀嶺ビル","35.7176191","139.736343"
"サンマルクカフェ 浅草EKIMISE店","〒111-0033  東京都台東区花川戸1-4-1","35.7120381","139.7984747"
"サンマルクカフェ 浅草橋東口店","〒111-0053  東京都台東区浅草橋1-30-12玉木ビル","35.6979696","139.7863466"
"サンマルクカフェ 浅草ROX店","〒111-0032  東京都台東区浅草1-25-15","35.7128824","139.7927613"
"サンマルクカフェ 御徒町南口店","〒110-0005  東京都台東区上野3-27-3","35.7071185","139.7741295"
"サンマルクカフェ 東京上野アブアブ前店","〒110-0005  東京都台東区上野4-5-8","35.7090822","139.7737767"
"サンマルクカフェ オリナス錦糸町店","〒130-0012  東京都墨田区太平4-1-2","35.7007196","139.8158098"
"サンマルクカフェ 両国西口店","〒130-0026  東京都墨田区両国2-19-1ザ・ホテル ベルグランデ","35.6954341","139.792188"
"サンマルクカフェ 新木場駅店","〒136-0082  東京都江東区新木場1-6りんかい線新木場駅構内","35.6459022","139.8266952"
"サンマルクカフェ ららぽーと豊洲店","〒135-0061  東京都江東区豊洲2-4-9","35.6551414","139.7927659"
"サンマルクカフェ 大崎ニューシティー店","〒141-0032  東京都品川区大崎1-6-5大崎ニューシティー","35.6200912","139.7292415"
"サンマルクカフェ スフィアタワー天王洲店","〒140-0002  東京都品川区東品川2-2-8スフィアタワー天王洲","35.6229117","139.7496405"
"サンマルクカフェ 阪急大井町ガーデン店","〒140-0014  東京都品川区大井1-50-5阪急大井町ガーデン1・2F","35.6056988","139.7341221"
"サンマルクカフェ 武蔵小山店","〒142-0062  東京都品川区小山3-25-1","35.6196602","139.7041019"
"サンマルクカフェ 目黒西口店","〒141-0021  東京都品川区上大崎2-27-1サンフェリスタ目黒","35.6341277","139.714873"
"サンマルクカフェ 目黒東口店","〒141-0021  東京都品川区上大崎2-13-38三樹ビル1F","35.6341658","139.7172471"
"サンマルクカフェ 都立大学駅前店","〒152-0031  東京都目黒区中根1-2-7第3丸八ビル","35.6178786","139.6762427"
"サンマルクカフェ アトレ大森店","〒143-0016  東京都大田区大森北1-6-16","35.5885035","139.7285568"
"サンマルクカフェ 大森山王店","〒143-0023  東京都大田区山王2-5-5オリエントビル","35.5904553","139.7280614"
"サンマルクカフェ 御嶽山店","〒145-0073  東京都大田区北嶺町11-11池田ビル","35.5856363","139.6824705"
"サンマルクカフェ 西蒲田店","〒144-0051  東京都大田区西蒲田7-65-1","35.5621623","139.7132542"
"サンマルクカフェ Luz大森店","〒143-0016  東京都大田区大森北1-10-4Luz大森1F","35.5864899","139.7283403"
"サンマルクカフェ 小田急豪徳寺駅店","〒154-0021  東京都世田谷区豪徳寺1-43-4","35.6536906","139.6475391"
"サンマルクカフェ 三軒茶屋店","〒154-0004  東京都世田谷区太子堂4-23-2","35.64393400000001","139.6706819"
"サンマルクカフェ ピーコックストア 経堂店","〒156-0051  東京都世田谷区宮坂2-19-5","35.6514074","139.6377622"
"サンマルクカフェ 恵比寿駅前店","〒150-0021  東京都渋谷区恵比寿西1-8-8","35.6472709","139.7085951"
"サンマルクカフェ 恵比寿東口店","〒150-0013  東京都渋谷区恵比寿1-8-1サン栄ビル","35.6480477","139.7100158"
"サンマルクカフェ 恵比寿三越店","〒150-6090  東京都渋谷区恵比寿4-20-7恵比寿三越2F","35.64259200000001","139.71425"
"サンマルクカフェ 渋谷井の頭通店","〒150-0042  東京都渋谷区宇田川町12-7渋谷エメラルドビル1F","35.6615058","139.6979893"
"サンマルクカフェ 渋谷公園通り店","〒150-0042  東京都渋谷区宇田川町2-1渋谷ホームズ","35.6636111","139.6987158"
"サンマルクカフェ 渋谷道玄坂店","〒150-0043  東京都渋谷区道玄坂2-29-8","35.6593968","139.6964402"
"サンマルクカフェ 代々木上原店","〒151-0066  東京都渋谷区西原3-8-5","35.6694979","139.6803886"
"サンマルクカフェ 中野坂上店","〒164-0011  東京都中野区中央2-5-4","35.6975778","139.6796126"
"サンマルクカフェ 荻窪タウンセブン店","〒167-0043  東京都杉並区上荻1-9-1荻窪タウンセブン","35.705079","139.619581"
"サンマルクカフェ 荻窪南口店","〒167-0051  東京都杉並区荻窪5-27-8荻窪タイガープラザ3ビル1F","35.7040079","139.6202468"
"サンマルクカフェ 高円寺南口店","〒166-0003  東京都杉並区高円寺南3-58-29","35.7040347","139.6487561"
"サンマルクカフェ 池袋メトロポリタン口店","〒171-0021  東京都豊島区西池袋1-3-6　アウルコート","35.7282898","139.7093425"
"サンマルクカフェ　目白駅前店","東京都豊島区目白三丁目4番14号","35.7216761","139.7062145"
"サンマルクカフェ 池袋東口店","〒171-0022  東京都豊島区南池袋1-24-6深野ビル1F","35.728959","139.713055"
"サンマルクカフェ 巣鴨店","〒170-0002  東京都豊島区巣鴨3-27-8巣鴨駅前ビル","35.73322","139.738353"
"サンマルクカフェ ホテルザ・ビー池袋店","〒170-0013  東京都豊島区東池袋1-39-4ザ・ビー池袋1F","35.7323476","139.7142688"
"サンマルクカフェ 南池袋店","〒171-0022  東京都豊島区南池袋1-20-9第一中野ビル1F","35.7282249","139.7129579"
"サンマルクカフェ 東京赤羽店","〒115-0045  東京都北区赤羽2-1-29-1斉藤ビル","35.781381","139.7212773"
"サンマルクカフェ 東京上十条店","〒114-0034  東京都北区上十条2-30-6","35.7613336","139.7214756"
"サンマルクカフェ サンポップマチヤ店","〒116-0002  東京都荒川区荒川7-50-9","35.742318","139.7806717"
"サンマルクカフェ 光が丘IMA店","〒179-0072  東京都練馬区光が丘5-1-1光が丘IMA 中央館2F","35.7597363","139.6283062"
"サンマルクカフェ アリオ西新井SC店","〒123-0843  東京都足立区西新井栄町1-20-1","35.7747367","139.7861194"
"サンマルクカフェ 北千住東口店","〒120-0026  東京都足立区千住旭町3-7","35.7494151","139.805861"
"サンマルクカフェ 東武北千住店","〒120-0026  東京都足立区千住旭町42-1","35.7491373","139.8052694"
"サンマルクカフェ 東武五反野駅前店","〒120-0015  東京都足立区足立4-41-27","35.7663461","139.8089011"
"サンマルクカフェ パサージオ西新井店","〒123-0843  東京都足立区西新井栄町1-17-1","35.7757422","139.7896413"
"サンマルクカフェ 新小岩ルミエール店","〒124-0024  東京都葛飾区新小岩1-50-2","35.7155222","139.8598883"
"サンマルクカフェ 瑞江駅前店","〒132-0011  東京都江戸川区瑞江2-2-1","35.6928358","139.8967569"
"サンマルクカフェ fab南大沢店","〒192-0364  東京都八王子市南大沢2-3","35.6144495","139.3798662"
"サンマルクカフェ 吉祥寺北口駅前店","〒180-0004  東京都武蔵野市吉祥寺本町1-4-17O．F．ビル","35.7032985","139.5789614"
"サンマルクカフェ 吉祥寺元町通店","〒180-0004  東京都武蔵野市吉祥寺本町1-8-9","35.7046028","139.5786596"
"サンマルクカフェ 小田急町田北口店","〒194-0022  東京都町田市森野1-36-14","35.5457368","139.4452125"
"サンマルクカフェ T‐wing machida店","〒194-0013  東京都町田市原町田6-11-11T-wing machida1F","35.5443088","139.4462962"
"サンマルクカフェ イトーヨーカドー武蔵小金井店","〒184-0004  東京都小金井市本町6-14-9","35.7004955","139.5046803"
"サンマルクカフェ イオンモール多摩平の森店","〒191-0062  東京都日野市多摩平2-4","35.6611773","139.3806224"
"サンマルクカフェ 久米川店","〒189-0013  東京都東村山市栄町1-4-26","35.7499473","139.4725001"
"サンマルクカフェ 狛江店","〒201-0014  東京都狛江市東和泉1-34-28","35.6293958","139.5763388"
"サンマルクカフェ ザ・マーケットプレイス東大和店","〒207-0021  東京都東大和市立野3-1344-1","35.7377951","139.4247131"
"サンマルクカフェ イトーヨーカドー東久留米店","〒203-0053  東京都東久留米市本町3-8-1","35.7590142","139.5287865"
"サンマルクカフェ イオンモールむさし村山店","〒208-0022  東京都武蔵村山市榎1-1-33F","35.7415937","139.3915632"
"サンマルクカフェ 多摩丘の上プラザ店","〒206-0033  東京都多摩市落合1-44丘の上プラザ2F","35.623613","139.4257268"
"サンマルクカフェ 田無店","〒188-0011  東京都西東京市田無町4-28-14第2マーブルビル1F","35.728966","139.539705"
"サンマルクカフェ イオンモール日の出SC店","〒190-0182  東京都西多摩郡日の出町平井237-3","35.7348466","139.2752513"
"サンマルクカフェ シァルプラット東神奈川店","〒221-0044  神奈川県横浜市神奈川区東神奈川1-29-101","35.47889809999999","139.6357746"
"サンマルクカフェ クイーンズ伊勢丹横浜店","〒220-0005  神奈川県横浜市西区南幸1-5-1相鉄ジョイナスB1","35.4655954","139.6207708"
"サンマルクカフェ みなとみらいグランドセントラルタワー店","〒220-0012  神奈川県横浜市西区みなとみらい4-6-2グランドセントラルタワー","35.458661","139.6292066"
"サンマルクカフェ パークスクエア横浜店","〒231-0024  神奈川県横浜市中区吉浜町1-2パークスクエア横浜","35.4395347","139.643376"
"サンマルクカフェ 横浜中華街東門店","〒231-0023  神奈川県横浜市中区山下町78-8","35.4438939","139.6474916"
"サンマルクカフェ 京急弘明寺駅前店","〒232-0067  神奈川県横浜市南区弘明寺町267","35.4244935","139.5973326"
"サンマルクカフェ 綱島西店","〒223-0053  神奈川県横浜市港北区綱島西2-6-17","35.5362171","139.6324017"
"サンマルクカフェ 戸塚店","〒244-0816  神奈川県横浜市戸塚区上倉田町493-1","35.3997903","139.5360434"
"サンマルクカフェ ウイング上大岡店","〒233-0002  神奈川県横浜市港南区上大岡西1-6-1京急ショッピングプラザウィング上大岡 南ウィングB1","35.4082956","139.596316"
"サンマルクカフェ JR中山駅前店","〒226-0013  神奈川県横浜市緑区寺山町72","35.5143039","139.5393694"
"サンマルクカフェ 飯島店","〒244-0842  神奈川県横浜市栄区飯島町1356","35.3739383","139.5396098"
"サンマルクカフェ 山手台店","〒245-0003  神奈川県横浜市泉区岡津町148-1","35.4258368","139.5271132"
"サンマルクカフェ 藤が丘駅前店","〒227-0043  神奈川県横浜市青葉区藤が丘2-5","35.5436057","139.5274784"
"サンマルクカフェ 港北東急SC店","〒224-0032  神奈川県横浜市都筑区茅ヶ崎中央5-1","35.5444257","139.5724217"
"サンマルクカフェ　モザイクモール港北店","〒224-0003  神奈川県横浜市都筑区中川中央1丁目31番1号","35.5549715","139.5778543"
"サンマルクカフェ 川崎ラチッタデッラ店","〒210-0023  神奈川県川崎市川崎区小川町4-1ラチッタデッラ内MAGGIORE棟","35.528311","139.6977225"
"サンマルクカフェ 川崎アゼリア店","〒210-0007  神奈川県川崎市川崎区駅前本町26番地2","35.5302226","139.697371"
"サンマルクカフェ ラゾーナ川崎店","〒212-0013  神奈川県川崎市幸区堀川町72LAZONA川崎3F","35.5328163","139.6953918"
"サンマルクカフェ 神奈川元住吉店","〒211-0025  神奈川県川崎市中原区木月1-24-11","35.5654036","139.6533212"
"サンマルクカフェ 溝の口店","〒213-0001  神奈川県川崎市高津区溝口1-8-5","35.5996511","139.6127232"
"サンマルクカフェ シァルプラット東神奈川店","〒221-0044  神奈川県横浜市神奈川区東神奈川1-29-101","35.47889809999999","139.6357746"
"サンマルクカフェ クイーンズ伊勢丹横浜店","〒220-0005  神奈川県横浜市西区南幸1-5-1相鉄ジョイナスB1","35.4655954","139.6207708"
"サンマルクカフェ みなとみらいグランドセントラルタワー店","〒220-0012  神奈川県横浜市西区みなとみらい4-6-2グランドセントラルタワー","35.458661","139.6292066"
"サンマルクカフェ パークスクエア横浜店","〒231-0024  神奈川県横浜市中区吉浜町1-2パークスクエア横浜","35.4395347","139.643376"
"サンマルクカフェ 横浜中華街東門店","〒231-0023  神奈川県横浜市中区山下町78-8","35.4438939","139.6474916"
"サンマルクカフェ 京急弘明寺駅前店","〒232-0067  神奈川県横浜市南区弘明寺町267","35.4244935","139.5973326"
"サンマルクカフェ 綱島西店","〒223-0053  神奈川県横浜市港北区綱島西2-6-17","35.5362171","139.6324017"
"サンマルクカフェ 戸塚店","〒244-0816  神奈川県横浜市戸塚区上倉田町493-1","35.3997903","139.5360434"
"サンマルクカフェ ウイング上大岡店","〒233-0002  神奈川県横浜市港南区上大岡西1-6-1京急ショッピングプラザウィング上大岡 南ウィングB1","35.4082956","139.596316"
"サンマルクカフェ JR中山駅前店","〒226-0013  神奈川県横浜市緑区寺山町72","35.5143039","139.5393694"
"サンマルクカフェ 飯島店","〒244-0842  神奈川県横浜市栄区飯島町1356","35.3739383","139.5396098"
"サンマルクカフェ 山手台店","〒245-0003  神奈川県横浜市泉区岡津町148-1","35.4258368","139.5271132"
"サンマルクカフェ 藤が丘駅前店","〒227-0043  神奈川県横浜市青葉区藤が丘2-5","35.5436057","139.5274784"
"サンマルクカフェ 港北東急SC店","〒224-0032  神奈川県横浜市都筑区茅ヶ崎中央5-1","35.5444257","139.5724217"
"サンマルクカフェ　モザイクモール港北店","〒224-0003  神奈川県横浜市都筑区中川中央1丁目31番1号","35.5549715","139.5778543"
"サンマルクカフェ 川崎ラチッタデッラ店","〒210-0023  神奈川県川崎市川崎区小川町4-1ラチッタデッラ内MAGGIORE棟","35.528311","139.6977225"
"サンマルクカフェ 川崎アゼリア店","〒210-0007  神奈川県川崎市川崎区駅前本町26番地2","35.5302226","139.697371"
"サンマルクカフェ ラゾーナ川崎店","〒212-0013  神奈川県川崎市幸区堀川町72LAZONA川崎3F","35.5328163","139.6953918"
"サンマルクカフェ 神奈川元住吉店","〒211-0025  神奈川県川崎市中原区木月1-24-11","35.5654036","139.6533212"
"サンマルクカフェ 溝の口店","〒213-0001  神奈川県川崎市高津区溝口1-8-5","35.5996511","139.6127232"
"サンマルクカフェ ミウイ橋本店","〒252-0143  神奈川県相模原市緑区橋本3-28-1","35.5947835","139.3462977"
"サンマルクカフェ 淵野辺駅店","〒252-0206  神奈川県相模原市中央区淵野辺3-5-16","35.5687255","139.3950274"
"サンマルクカフェ イオン相模原店","〒252-0344  神奈川県相模原市南区古淵2-10-1","35.5536635","139.4167815"
"サンマルクカフェ ニトリモール相模原店","〒252-0331  神奈川県相模原市南区大野台6-1-1","35.5553552","139.4097293"
"サンマルクカフェ bono相模大野店","〒252-0303  神奈川県相模原市南区相模大野3-2","35.5308862","139.4340306"
"サンマルクカフェ 横須賀三笠商店街店","〒238-0008  神奈川県横須賀市大滝町2-25-5","35.2800497","139.6695007"
"サンマルクカフェ イトーヨーカドー藤沢店","〒251-0025  神奈川県藤沢市鵠沼石上1-10-11F","35.336104","139.4885583"
"サンマルクカフェ テラスモール湘南店","〒251-0041  神奈川県藤沢市辻堂神台1-3-1","35.3384969","139.4469449"
"サンマルクカフェ ダイナシティ小田原店","〒250-0872  神奈川県小田原市中里313-1ダイナシティウォーク1F","35.28384730000001","139.1855724"
"サンマルクカフェ イオンモール大和店","〒242-0001  神奈川県大和市下鶴間1-2-1","35.4892259","139.4576553"
"サンマルクカフェ 中央林間店","〒242-0007  神奈川県大和市中央林間3-2-10中央林間アネックス","35.5073654","139.4438203"
"サンマルクカフェ 海老名ビナウォーク店","〒243-0432  神奈川県海老名市中央1-4-1ビナウォーク5番館2F","35.451995","139.393561"
"サンマルクカフェ 新潟万代シティ店","〒950-0088  新潟県新潟市中央区万代1-6-1","37.9162733","139.0553363"
"サンマルクカフェ アピタ新潟亀田店","〒950-0157  新潟県新潟市江南区鵜ノ子4-4661F","37.8735899","139.0932855"
"サンマルクカフェ イオンモール新潟南店","〒950-0150  新潟県新潟市江南区下早通柳田1-1-1","37.8760671","139.0812391"
"サンマルクカフェ リバーサイド千秋店","〒940-2093  新潟県長岡市千秋2-278","37.460939","138.826833"
"サンマルクカフェ イオンモール高岡店","〒933-0813  富山県高岡市下伏間江383","36.7239137","137.0168282"
"サンマルクカフェ イオンモールとなみ店","〒939-1344  富山県砺波市中神土地区画整理事業地31-1","36.6413774","136.9475411"
"サンマルクカフェ イオンモール新小松店","〒923-8565  石川県小松市沖周辺土地区画整理事業区域内20街区","36.395036","136.467175"
"サンマルクカフェ ココリ甲府店","〒400-0031  山梨県甲府市丸の内1-16-20","35.6627827","138.5697124"
"サンマルクカフェ アクアウォーク大垣店","〒503-0015  岐阜県大垣市林町6-80-21","35.3706136","136.6174603"
"サンマルクカフェ イオンモール大垣店","〒503-0933  岐阜県大垣市外野2-100","35.3367479","136.6140646"
"サンマルクカフェ イオンモール各務原店","〒504-0943  岐阜県各務原市那加萱場町3-8","35.3917813","136.8244201"
"サンマルクカフェ 静岡葵タワー店","〒420-0852  静岡県静岡市葵区紺屋町17-1葵タワー","34.9724809","138.3866979"
"サンマルクカフェ 静岡呉服町店","〒420-0031  静岡県静岡市葵区呉服町2-6-1GDSビル","34.974243","138.384029"
"サンマルクカフェ イオンモール浜松市野店","〒435-0052  静岡県浜松市東区天王町字諏訪1981-3イオンモール浜松市野SC1F","34.7400311","137.7630764"
"サンマルクカフェ プレ葉ウォーク浜北店","〒434-0038  静岡県浜松市浜北区貴布祢1200","34.7975881","137.7794703"
"サンマルクカフェ イオンタウン富士南店","〒416-0934  静岡県富士市鮫島118-10","35.1409787","138.6739591"
"サンマルクカフェ ららぽーと磐田店","〒438-0801  静岡県磐田市高見丘1200","34.7503905","137.8422547"
"サンマルクカフェ　アピタ磐田店","〒438-0086  静岡県磐田市見付3007番1号","34.7183259","137.8563684"
"サンマルクカフェ イオンモールナゴヤドーム前店","〒461-0048  愛知県名古屋市東区矢田南4-102-3","35.1871751","136.9440943"
"サンマルクカフェ イオンタウン名西店","〒451-0015  愛知県名古屋市西区香呑町6-49-1","35.2043093","136.8928298"
"サンマルクカフェ mozoワンダーシティ店","〒452-0817  愛知県名古屋市西区二方町40","35.2246458","136.8809799"
"サンマルクカフェ 栄スカイル店","〒460-0008  愛知県名古屋市中区栄3-4-5","35.1684565","136.9063732"
"サンマルクカフェ 栄セントラルパーク店","〒460-0003  愛知県名古屋市中区錦3-15-13","35.1706449","136.8987377"
"サンマルクカフェ 名古屋パルコ店","〒460-0008  愛知県名古屋市中区栄3-29-1西館B1","35.1673455","136.9042679"
"サンマルクカフェ イオンモール名古屋みなと店","〒455-0055  愛知県名古屋市港区品川町2-1-6イオンモール名古屋みなと","35.103266","136.8633403"
"サンマルクカフェ ポートウォークみなと店","〒455-0804  愛知県名古屋市港区当知2-1501","35.1095154","136.8477323"
"サンマルクカフェ イオンモール新瑞橋店","〒457-0012  愛知県名古屋市南区菊住1-7-10","35.1147088","136.93525"
"サンマルクカフェ イオンモール大高店","〒459-8001  愛知県名古屋市緑区大高町字奥平子1-1","35.0536959","136.9462716"
"サンマルクカフェ イオンモール木曽川店","〒493-0001  愛知県一宮市木曽川町黒田字南ハツケ池25-1","35.3484832","136.7727151"
"サンマルクカフェ リーフウォーク稲沢店","〒492-8142  愛知県稲沢市長野7-1-2リーフウォーク稲沢","35.260715","136.819024"
"サンマルクカフェ アピタ岩倉店","〒482-0024  愛知県岩倉市旭町1-25","35.276542","136.8729056"
"サンマルクカフェ イオンモール長久手店","〒480-1100  愛知県長久手市長久手中央土地区画整理事業地内","35.173514","137.05142"
"サンマルクカフェ エアポートウォーク名古屋店","〒480-0202  愛知県西春日井郡豊山町豊場林先1-8","35.2459806","136.9248523"
"サンマルクカフェ イオンモール東浦SC店","〒470-2102  愛知県知多郡東浦町大字緒川字旭１３－２","34.9789398","136.9741342"
"サンマルクカフェ アピタ四日市店","〒510-0075  三重県四日市市安島1-3-31","34.9686061","136.6166547"
"サンマルクカフェ イオンモール鈴鹿店","〒513-0834  三重県鈴鹿市庄野羽山4-1-2","34.8718303","136.5316485"
"サンマルクカフェ イオンモール東員店","〒511-0255  三重県員弁郡東員町大字長深字築田510-1","35.0612","136.5812119"
"サンマルクカフェ イオンモール明和店","〒515-0348  三重県多気郡明和町中村1223","34.5812064","136.6139177"
"サンマルクカフェ イオンモール草津SC店","〒525-0067  滋賀県草津市新浜町300","34.9977184","135.9173624"
"サンマルクカフェ 北大路ビブレ店","〒603-8142  京都府京都市北区小山北上総町49-1北大路ビブレ","35.04480059999999","135.7582989"
"サンマルクカフェ京都河原町三条店","〒604-8031  京都府京都市中京区河原町通三条下る二丁目山崎町237-6","35.0074026","135.7689441"
"サンマルクカフェ 京都寺町店","〒604-8042  京都府京都市中京区寺町通錦小路下ル中之町541-2","35.00477","135.766955"
"サンマルクカフェ コトクロス阪急河原町店","〒600-0000  京都府京都市下京区四条通河原町北東角","35.0040268","135.7696369"
"サンマルクカフェ 京都四条通り店","〒600-8004  京都府京都市下京区四条通寺町西入奈良物町379-2","35.0038395","135.7666923"
"サンマルクカフェ イオン洛南店","〒601-8327  京都府京都市南区吉祥院御池町31","34.9755378","135.7364577"
"サンマルクカフェ イオンモール京都五条店","〒615-0035  京都府京都市右京区西院追分町25-1","34.9973618","135.7272443"
"サンマルクカフェ 京都伏見桃山店","〒612-8053  京都府京都市伏見区東大手町755","34.9332381","135.7622818"
"サンマルクカフェ MOMOテラス店","〒612-8002  京都府京都市伏見区桃山町山ノ下32","34.9370526","135.79504"
"サンマルクカフェ イオンモール高の原店","〒619-0223  京都府木津川市相楽台1-1-1","34.7259349","135.7903281"
"サンマルクカフェ 京橋コムズガーデン店","〒534-0024  大阪府大阪市都島区東野田2-6-1","34.6973685","135.5313737"
"サンマルクカフェ ユニバーサル・シティウォーク店","〒554-0024  大阪府大阪市此花区島屋6-2-61","34.6685473","135.4375661"
"サンマルクカフェ 大阪肥後橋店","〒550-0002  大阪府大阪市西区江戸堀1-10-1","34.6899186","135.4963685"
"サンマルクカフェ 南海天王寺店","〒543-0055  大阪府大阪市天王寺区悲田院町10-48ステーションプラザ中2F","34.6473516","135.5138363"
"サンマルクカフェ 大阪日本橋四丁目店","〒556-0005  大阪府大阪市浪速区日本橋4-8-12","34.6599193","135.5063574"
"サンマルクカフェ あべのnini店","〒545-0052  大阪府大阪市阿倍野区阿倍野筋1-5-10","34.6463015","135.5121462"
"サンマルクカフェ 大阪市立大学医学部附属病院店","〒545-0051  大阪府大阪市阿倍野区旭町1-5-7大阪市立大学医学部付属病院","34.646665","135.508869"
"サンマルクカフェ 大阪十三フレンドリー通店","〒532-0024  大阪府大阪市淀川区十三本町1-9-18フジヤビル1F","34.7194702","135.4804945"
"サンマルクカフェ イオンモール鶴見緑地店","〒538-0053  大阪府大阪市鶴見区鶴見4-17-1","34.7034821","135.5663767"
"サンマルクカフェ 梅田HEPFIVE店","〒530-0017  大阪府大阪市北区角田町5-15HEP FIVE","34.7040619","135.5002961"
"サンマルクカフェ 大阪梅田茶屋町店","〒530-0013  大阪府大阪市北区茶屋町1-27ABC-MART梅田ビル1F","34.7047837","135.4996039"
"サンマルクカフェ 大阪天神橋店","〒530-0041  大阪府大阪市北区天神橋4-8-261・2F","34.7070254","135.5116584"
"サンマルクカフェ 大阪堂島店","〒530-0002  大阪府大阪市北区曾根崎新地1-3-16京富ビル1F","34.6975876","135.4958444"
"サンマルクカフェ ディアモール大阪店","〒530-0001  大阪府大阪市北区梅田1大阪駅前ダイヤモンド地下街5 ディアモール大阪","34.6998218","135.4976873"
"サンマルクカフェ 阪急かっぱ横丁店","〒530-0012  大阪府大阪市北区芝田1-7-2","34.705939","135.4972513"
"サンマルクカフェ 阪急三番街店","〒530-0012  大阪府大阪市北区芝田1-1-3阪急三番街南館B1","34.7046633","135.4985762"
"サンマルクカフェ 御堂筋堂島店","〒530-0003  大阪府大阪市北区堂島1-1-25新山本ビル1F","34.6961392","135.500852"
"サンマルクカフェ 大阪安土町店","〒541-0051  大阪府大阪市中央区備後町3-2-15モレスコ本町ビル1F","34.6848871","135.5034297"
"サンマルクカフェ 大阪戎橋店","〒542-0076  大阪府大阪市中央区難波1-5-14","34.6676823","135.5022103"
"サンマルクカフェ 大阪OMMビル店","〒540-0008  大阪府大阪市中央区大手前1-7-31","34.6903218","135.518422"
"サンマルクカフェ 京橋コムズガーデン店","〒534-0024  大阪府大阪市都島区東野田2-6-1","34.6973685","135.5313737"
"サンマルクカフェ ユニバーサル・シティウォーク店","〒554-0024  大阪府大阪市此花区島屋6-2-61","34.6685473","135.4375661"
"サンマルクカフェ 大阪肥後橋店","〒550-0002  大阪府大阪市西区江戸堀1-10-1","34.6899186","135.4963685"
"サンマルクカフェ 南海天王寺店","〒543-0055  大阪府大阪市天王寺区悲田院町10-48ステーションプラザ中2F","34.6473516","135.5138363"
"サンマルクカフェ 大阪日本橋四丁目店","〒556-0005  大阪府大阪市浪速区日本橋4-8-12","34.6599193","135.5063574"
"サンマルクカフェ あべのnini店","〒545-0052  大阪府大阪市阿倍野区阿倍野筋1-5-10","34.6463015","135.5121462"
"サンマルクカフェ 大阪市立大学医学部附属病院店","〒545-0051  大阪府大阪市阿倍野区旭町1-5-7大阪市立大学医学部付属病院","34.646665","135.508869"
"サンマルクカフェ 大阪十三フレンドリー通店","〒532-0024  大阪府大阪市淀川区十三本町1-9-18フジヤビル1F","34.7194702","135.4804945"
"サンマルクカフェ イオンモール鶴見緑地店","〒538-0053  大阪府大阪市鶴見区鶴見4-17-1","34.7034821","135.5663767"
"サンマルクカフェ 梅田HEPFIVE店","〒530-0017  大阪府大阪市北区角田町5-15HEP FIVE","34.7040619","135.5002961"
"サンマルクカフェ 大阪梅田茶屋町店","〒530-0013  大阪府大阪市北区茶屋町1-27ABC-MART梅田ビル1F","34.7047837","135.4996039"
"サンマルクカフェ 大阪天神橋店","〒530-0041  大阪府大阪市北区天神橋4-8-261・2F","34.7070254","135.5116584"
"サンマルクカフェ 大阪堂島店","〒530-0002  大阪府大阪市北区曾根崎新地1-3-16京富ビル1F","34.6975876","135.4958444"
"サンマルクカフェ ディアモール大阪店","〒530-0001  大阪府大阪市北区梅田1大阪駅前ダイヤモンド地下街5 ディアモール大阪","34.6998218","135.4976873"
"サンマルクカフェ 阪急かっぱ横丁店","〒530-0012  大阪府大阪市北区芝田1-7-2","34.705939","135.4972513"
"サンマルクカフェ 阪急三番街店","〒530-0012  大阪府大阪市北区芝田1-1-3阪急三番街南館B1","34.7046633","135.4985762"
"サンマルクカフェ 御堂筋堂島店","〒530-0003  大阪府大阪市北区堂島1-1-25新山本ビル1F","34.6961392","135.500852"
"サンマルクカフェ 大阪安土町店","〒541-0051  大阪府大阪市中央区備後町3-2-15モレスコ本町ビル1F","34.6848871","135.5034297"
"サンマルクカフェ 大阪戎橋店","〒542-0076  大阪府大阪市中央区難波1-5-14","34.6676823","135.5022103"
"サンマルクカフェ 大阪OMMビル店","〒540-0008  大阪府大阪市中央区大手前1-7-31","34.6903218","135.518422"
"サンマルクカフェ 大阪北浜店","〒541-0043  大阪府大阪市中央区高麗橋2-1-2高麗橋野村ビルディング1F","34.6898461","135.5063942"
"サンマルクカフェ 大阪南海なんば駅店","〒542-0076  大阪府大阪市中央区難波5-1-60南海なんば駅3F","34.6643875","135.5013323"
"サンマルクカフェ 大阪なんさん通り店","〒542-0075  大阪府大阪市中央区難波千日前15-15","34.6634633","135.5031381"
"サンマルクカフェ 大阪本町店","〒541-0053  大阪府大阪市中央区本町3-4-10","34.6837929","135.5019567"
"サンマルクカフェ 北心斎橋店","〒542-0081  大阪府大阪市中央区南船場3-5-17シウラビル","34.6755386","135.5014547"
"サンマルクカフェ なんばウォーク店","〒542-0074  大阪府大阪市中央区千日前1虹のまち5-3","34.6669249","135.5035851"
"サンマルクカフェ 日生淀屋橋ビル店","〒541-0041  大阪府大阪市中央区北浜3-5-29ネクスト1","34.6921703","135.5023694"
"サンマルクカフェ 南久宝寺店","〒541-0058  大阪府大阪市中央区南久宝寺町3-6-13","34.6789338","135.50121"
"サンマルクカフェ　南海堺東駅店","〒590-0028  大阪府堺市堺区三国ヶ丘御幸通61番地","34.5727843","135.483898"
"サンマルクカフェ イオンモール堺鉄砲町店","〒590-0905  大阪府堺市堺区鉄砲町1番地","34.5927657","135.4801894"
"サンマルクカフェ アリオ鳳店","〒593-8325  大阪府堺市西区鳳南町3-199-12","34.524803","135.4589536"
"サンマルクカフェ イオンモール堺北花田店","〒591-8008  大阪府堺市北区東浅香山町4-1-12","34.5837385","135.5147363"
"サンマルクカフェ 大阪なかもず店","〒591-8034  大阪府堺市北区百舌鳥陵南町2-633-1-2","34.5436517","135.4919169"
"サンマルクカフェ 岸和田カンカンベイサイドモール店","〒596-0014  大阪府岸和田市港緑町2-1","34.4667195","135.3713761"
"サンマルク珈琲店 豊中ロマンチック街道店","〒560-0004  大阪府豊中市少路2-105-1","34.805899","135.4717632"
"サンマルクカフェ ニトリ守口大日店","〒570-0003  大阪府守口市大日町3-129-1","34.7546515","135.5811516"
"サンマルクカフェ 大阪府枚方市役所前店","〒573-0032  大阪府枚方市岡東町8-6","34.8154651","135.6502417"
"サンマルクカフェ ニトリモール枚方店","〒573-0171  大阪府枚方市北山1-2-1","34.8390366","135.6976412"
"サンマルクカフェ アリオ八尾店","〒581-0803  大阪府八尾市光町2-3","34.6328435","135.6058242"
"サンマルクカフェ 京橋コムズガーデン店","〒534-0024  大阪府大阪市都島区東野田2-6-1","34.6973685","135.5313737"
"サンマルクカフェ ユニバーサル・シティウォーク店","〒554-0024  大阪府大阪市此花区島屋6-2-61","34.6685473","135.4375661"
"サンマルクカフェ 大阪肥後橋店","〒550-0002  大阪府大阪市西区江戸堀1-10-1","34.6899186","135.4963685"
"サンマルクカフェ 南海天王寺店","〒543-0055  大阪府大阪市天王寺区悲田院町10-48ステーションプラザ中2F","34.6473516","135.5138363"
"サンマルクカフェ 大阪日本橋四丁目店","〒556-0005  大阪府大阪市浪速区日本橋4-8-12","34.6599193","135.5063574"
"サンマルクカフェ あべのnini店","〒545-0052  大阪府大阪市阿倍野区阿倍野筋1-5-10","34.6463015","135.5121462"
"サンマルクカフェ 大阪市立大学医学部附属病院店","〒545-0051  大阪府大阪市阿倍野区旭町1-5-7大阪市立大学医学部付属病院","34.646665","135.508869"
"サンマルクカフェ 大阪十三フレンドリー通店","〒532-0024  大阪府大阪市淀川区十三本町1-9-18フジヤビル1F","34.7194702","135.4804945"
"サンマルクカフェ イオンモール鶴見緑地店","〒538-0053  大阪府大阪市鶴見区鶴見4-17-1","34.7034821","135.5663767"
"サンマルクカフェ 梅田HEPFIVE店","〒530-0017  大阪府大阪市北区角田町5-15HEP FIVE","34.7040619","135.5002961"
"サンマルクカフェ 大阪梅田茶屋町店","〒530-0013  大阪府大阪市北区茶屋町1-27ABC-MART梅田ビル1F","34.7047837","135.4996039"
"サンマルクカフェ 大阪天神橋店","〒530-0041  大阪府大阪市北区天神橋4-8-261・2F","34.7070254","135.5116584"
"サンマルクカフェ 大阪堂島店","〒530-0002  大阪府大阪市北区曾根崎新地1-3-16京富ビル1F","34.6975876","135.4958444"
"サンマルクカフェ ディアモール大阪店","〒530-0001  大阪府大阪市北区梅田1大阪駅前ダイヤモンド地下街5 ディアモール大阪","34.6998218","135.4976873"
"サンマルクカフェ 阪急かっぱ横丁店","〒530-0012  大阪府大阪市北区芝田1-7-2","34.705939","135.4972513"
"サンマルクカフェ 阪急三番街店","〒530-0012  大阪府大阪市北区芝田1-1-3阪急三番街南館B1","34.7046633","135.4985762"
"サンマルクカフェ 御堂筋堂島店","〒530-0003  大阪府大阪市北区堂島1-1-25新山本ビル1F","34.6961392","135.500852"
"サンマルクカフェ 大阪安土町店","〒541-0051  大阪府大阪市中央区備後町3-2-15モレスコ本町ビル1F","34.6848871","135.5034297"
"サンマルクカフェ 大阪戎橋店","〒542-0076  大阪府大阪市中央区難波1-5-14","34.6676823","135.5022103"
"サンマルクカフェ 大阪OMMビル店","〒540-0008  大阪府大阪市中央区大手前1-7-31","34.6903218","135.518422"
"サンマルクカフェ 大阪北浜店","〒541-0043  大阪府大阪市中央区高麗橋2-1-2高麗橋野村ビルディング1F","34.6898461","135.5063942"
"サンマルクカフェ 大阪南海なんば駅店","〒542-0076  大阪府大阪市中央区難波5-1-60南海なんば駅3F","34.6643875","135.5013323"
"サンマルクカフェ 大阪なんさん通り店","〒542-0075  大阪府大阪市中央区難波千日前15-15","34.6634633","135.5031381"
"サンマルクカフェ 大阪本町店","〒541-0053  大阪府大阪市中央区本町3-4-10","34.6837929","135.5019567"
"サンマルクカフェ 北心斎橋店","〒542-0081  大阪府大阪市中央区南船場3-5-17シウラビル","34.6755386","135.5014547"
"サンマルクカフェ なんばウォーク店","〒542-0074  大阪府大阪市中央区千日前1虹のまち5-3","34.6669249","135.5035851"
"サンマルクカフェ 日生淀屋橋ビル店","〒541-0041  大阪府大阪市中央区北浜3-5-29ネクスト1","34.6921703","135.5023694"
"サンマルクカフェ 南久宝寺店","〒541-0058  大阪府大阪市中央区南久宝寺町3-6-13","34.6789338","135.50121"
"サンマルクカフェ　南海堺東駅店","〒590-0028  大阪府堺市堺区三国ヶ丘御幸通61番地","34.5727843","135.483898"
"サンマルクカフェ イオンモール堺鉄砲町店","〒590-0905  大阪府堺市堺区鉄砲町1番地","34.5927657","135.4801894"
"サンマルクカフェ アリオ鳳店","〒593-8325  大阪府堺市西区鳳南町3-199-12","34.524803","135.4589536"
"サンマルクカフェ イオンモール堺北花田店","〒591-8008  大阪府堺市北区東浅香山町4-1-12","34.5837385","135.5147363"
"サンマルクカフェ 大阪なかもず店","〒591-8034  大阪府堺市北区百舌鳥陵南町2-633-1-2","34.5436517","135.4919169"
"サンマルクカフェ 岸和田カンカンベイサイドモール店","〒596-0014  大阪府岸和田市港緑町2-1","34.4667195","135.3713761"
"サンマルク珈琲店 豊中ロマンチック街道店","〒560-0004  大阪府豊中市少路2-105-1","34.805899","135.4717632"
"サンマルクカフェ ニトリ守口大日店","〒570-0003  大阪府守口市大日町3-129-1","34.7546515","135.5811516"
"サンマルクカフェ 大阪府枚方市役所前店","〒573-0032  大阪府枚方市岡東町8-6","34.8154651","135.6502417"
"サンマルクカフェ ニトリモール枚方店","〒573-0171  大阪府枚方市北山1-2-1","34.8390366","135.6976412"
"サンマルクカフェ アリオ八尾店","〒581-0803  大阪府八尾市光町2-3","34.6328435","135.6058242"
"サンマルクカフェ 八尾高美店","〒581-0017  大阪府八尾市高美町2-1-4","34.6232281","135.6094906"
"サンマルクカフェ 大阪府香里園駅店","〒572-0084  大阪府寝屋川市香里南之町19-17フレスト香里園店1F","34.7840234","135.6313485"
"サンマルクカフェ 寝屋川市駅店","〒572-0837  大阪府寝屋川市早子町16-10","34.7631882","135.6198706"
"サンマルクカフェ オペラパーク住道店","〒574-0046  大阪府大東市赤井1-4-1ポップタウン住道オペラパーク東館1F","34.7088922","135.6201215"
"サンマルクカフェ イオンモールりんくう泉南店","〒590-0535  大阪府泉南市りんくう南浜3-12イオンりんくう泉南S．C","34.3817426","135.2689183"
"サンマルクカフェ 関西国際空港店","〒549-0011  大阪府泉南郡田尻町泉州空港中1旅客ターミナルビル3F","34.4346067","135.2437135"
"サンマルクカフェ 阪急岡本店","〒658-0072  兵庫県神戸市東灘区岡本5-1-1岡本阪急ビル1F","34.7291099","135.2762619"
"サンマルクカフェ イオンモール神戸北店","〒651-1515  兵庫県神戸市北区上津台8-1-1","34.8600756","135.1942047"
"サンマルクカフェ 神戸さんちか店","〒650-0021  兵庫県神戸市中央区三宮町1-10-1","34.693266","135.1938807"
"サンマルクカフェ 神戸元町通店","〒650-0022  兵庫県神戸市中央区元町通1-8-2","34.6888719","135.1889424"
"サンマルクカフェ 神戸元町プラザホテル店","〒650-0022  兵庫県神戸市中央区元町通1-13-12神戸プラザホテル1F","34.6894863","135.1885196"
"サンマルクカフェ サンシティ三宮店","〒651-0096  兵庫県神戸市中央区雲井通6-1-15ダイエー三宮駅前店2F","34.695124","135.196433"
"サンマルクカフェ 三宮センター街店","〒650-0021  兵庫県神戸市中央区三宮町1-5-8-29","34.6899996","135.1912477"
"サンマルクカフェ プロメナ神戸店","〒650-0044  兵庫県神戸市中央区東川崎町1-8-1","34.6797479","135.1810016"
"サンマルクカフェ 神戸キャンパススクエア店","〒651-2103  兵庫県神戸市西区学園西町1-4","34.6834817","135.0581006"
"サンマルクカフェ 姫路フェスタ店","〒670-0927  兵庫県姫路市駅前町363-1新フェスタビル1F","34.8281163","134.6910363"
"サンマルクカフェ 尼崎神田中通店","〒660-0884  兵庫県尼崎市神田中通3-38","34.72034920000001","135.4128643"
"サンマルクカフェ あまがさきキューズモール店","〒661-0976  兵庫県尼崎市潮江一丁目3番1号","34.7335844","135.4304428"
"サンマルクカフェ アスピア明石店","〒673-0886  兵庫県明石市東仲ノ町6番1号","34.6481867","134.9952733"
"サンマルクカフェ 西宮北インター店","〒651-1411  兵庫県西宮市山口町名来1-12-17","34.8441357","135.2374158"
"サンマルクカフェ ららぽーと甲子園店","〒663-8178  兵庫県西宮市甲子園八番町1-100","34.7173455","135.3644131"
"サンマルクカフェ 伊丹店","〒664-0013  兵庫県伊丹市瑞穂町2-22","34.7905971","135.4047051"
"サンマルクカフェ ニッケパークタウン加古川店","〒675-0066  兵庫県加古川市加古川町寺家町173-1　本館","34.7696142","134.8357439"
"サンマルクカフェ 三田ウッディタウン店","〒669-1322  兵庫県三田市すずかけ台3-2","34.9041344","135.1903759"
"サンマルクカフェ 奈良東向商店街店","〒630-8215  奈良県奈良市東向中町23","34.6836845","135.8285064"
"サンマルクカフェ イオンモール大和郡山店","〒639-1101  奈良県大和郡山市下三橋町705-1外","34.65098700000001","135.802431"
"サンマルクカフェ イオンモール橿原店","〒634-0837  奈良県橿原市曲川町7-20-1","34.5055398","135.7624176"
"サンマルクカフェ イオンモール奈良登美ヶ丘店","〒630-0115  奈良県生駒市鹿畑町3027","34.7259956","135.7505761"
"サンマルクカフェ ベルテラスいこま店","〒630-0245  奈良県生駒市北新町2043ベルテラスいこま","34.6941758","135.6978128"
"サンマルク珈琲 イオンモール和歌山店","〒640-8451  和歌山県和歌山市中字楠谷573","34.2760627","135.1483176"
"サンマルクカフェ イオンモール日吉津店","〒689-3553  鳥取県西伯郡日吉津村大字日吉津1319-1","35.4460512","133.3846797"
"サンマルクカフェ ゆめタウン出雲店","〒693-0063  島根県出雲市大塚町650-1","35.3774033","132.756228"
"サンマルクカフェ イオンモール岡山店","〒700-0907  岡山県岡山市北区下石井1-2-1","34.6620947","133.9177824"
"サンマルクカフェ 岡山一番街店","〒700-0024  岡山県岡山市北区駅元町一番街地下6","34.66526330000001","133.9185387"
"サンマルクカフェ 岡山今店","〒700-0975  岡山県岡山市北区今7-22-131","34.6412075","133.8917195"
"サンマルクカフェ 岡山表町店","〒700-0822  岡山県岡山市北区表町2-2-84","34.662098","133.9294951"
"サンマルクカフェ 岡山空港店","〒701-1131  岡山県岡山市北区日応寺1277岡山空港ビル","34.760029","133.853159"
"サンマルクカフェ 原尾島店","〒703-8255  岡山県岡山市中区東川原239-1","34.6748","133.9437019"
"サンマルクカフェ イオンモール倉敷店","〒710-8560  岡山県倉敷市水江12F","34.5928599","133.7403335"
"サンマルクカフェ イオンモール津山店","〒708-0842  岡山県津山市河辺1000-1","35.0648005","134.0475806"
"サンマルクカフェ アクア広島広島センター街店","〒730-0011  広島県広島市中区基町6-27広島センタービル","34.396202","132.457225"
"サンマルクカフェ 広島紙屋町店","〒730-0051  広島県広島市中区大手町1-5-2","34.3941799","132.4557924"
"サンマルクカフェ 広島パルコ前店","〒730-0033  広島県広島市中区堀川町6-9","34.3926385","132.4621641"
"サンマルクカフェ フジグラン広島店","〒730-0044  広島県広島市中区宝町2-1","34.3861169","132.4642585"
"サンマルクカフェ ゆめタウン広島店","〒734-0007  広島県広島市南区皆実町2-8-17","34.3761595","132.4637922"
"サンマルクカフェ さんすて福山店","〒720-0066  広島県福山市三之丸町30-1福山駅構内","34.489247","133.361422"
"サンマルクカフェ ゆめタウン廿日市店","〒738-0023  広島県廿日市市下平良2-1317-30","34.3486078","132.3339745"
"サンマルクカフェ イオンモール広島府中店","〒735-0021  広島県安芸郡府中町大須2-1-1","34.3949859","132.4991412"
"サンマルクカフェ リピエ下関店","〒750-0025  山口県下関市竹崎町4-3-32F","33.95241439999999","130.9245633"
"サンマルクカフェ イオンタウン防府店","〒747-0823  山口県防府市鐘紡町7-1","34.0479272","131.5883964"
"サンマルクカフェ おのだサンパーク店","〒756-0806  山口県山陽小野田市中川6-4-1","33.9860734","131.1721541"
"サンマルクカフェ ゆめタウン徳島店","〒771-1202  徳島県板野郡藍住町奥野字東中須88-1","34.119283","134.501142"
"サンマルクカフェ 高松丸亀町店","〒760-0029  香川県高松市丸亀町2-3","34.3453266","134.0501933"
"サンマルクカフェ イオンモール高松店","〒761-8012  香川県高松市香西本町1-1","34.351989","134.0042712"
"サンマルクカフェ 丸亀VASALA店","〒763-0072  香川県丸亀市山北町50-1丸亀VASALA1F","34.2677755","133.8005031"
"サンマルクカフェ ゆめタウン丸亀店","〒763-0055  香川県丸亀市新田町橋本171-2","34.2733664","133.7848686"
"サンマルクカフェ ゆめタウン三豊店","〒769-1506  香川県三豊市豊中町本山甲22","34.1454306","133.6994051"
"サンマルクカフェ 愛媛県立中央病院店","〒790-0024  愛媛県松山市春日町83","33.8319833","132.7654753"
"サンマルクカフェ 愛媛松山大街道店","〒790-0004  愛媛県松山市大街道2-3-14","33.8399186","132.7699582"
"サンマルクカフェ 松山湊町店","〒790-0012  愛媛県松山市湊町4-6-6","33.8358606","132.7659335"
"サンマルクカフェ イオンモール今治新都市店","〒794-0068  愛媛県今治市にぎわい広場1-1","34.0437778","132.9623899"
"サンマルクカフェ 高知帯屋町店","〒780-0841  高知県高知市帯屋町1-14-7","33.5606424","133.5385029"
"サンマルクカフェ サニーサイドモール小倉店","〒800-0217  福岡県北九州市小倉南区下曽根新町10-1","33.8320138","130.9334871"
"サンマルク珈琲店 イオンモール八幡東店","〒805-0071  福岡県北九州市八幡東区東田3-2-102イオンモール八幡東","33.870454","130.8112522"
"サンマルクカフェ ゆめタウン博多店","〒812-0055  福岡県福岡市東区東浜1-1-1","33.6119664","130.4120418"
"サンマルクカフェ キャナルシティオーパ店","〒812-0018  福岡県福岡市博多区住吉1-2-22","33.5897604","130.4112286"
"サンマルクカフェ 博多デイトス店","〒812-0012  福岡県福岡市博多区博多駅中央街1-1","33.5905244","130.4210695"
"サンマルクカフェ ノース天神店","〒810-0001  福岡県福岡市中央区天神4-3-20","33.59319869999999","130.3983435"
"サンマルクカフェ 福岡天神駅店","〒810-0001  福岡県福岡市中央区天神2-11-3ソラリアステージビルM3F","33.5901913","130.3990038"
"サンマルクカフェ 福岡天神地下街店","〒810-0001  福岡県福岡市中央区天神2-1004","33.5902074","130.3976602"
"サンマルクカフェイオンマリナタウン店","〒819-0014  福岡県福岡市西区豊浜3-1-10","33.5895937","130.3339539"
"サンマルクカフェ イオンモール筑紫野店","〒818-0042  福岡県筑紫野市立明寺434-1","33.4809383","130.5267763"
"サンマルクカフェ ゆめタウン佐賀店","〒849-0915  佐賀県佐賀市兵庫町兵庫北土地区画整理地内22街区","33.275767","130.30784"
"サンマルクカフェ 長崎浜町店","〒850-0853  長崎県長崎市浜町1-11","32.7443334","129.8772366"
"サンマルクカフェ 佐世保四ヶ町店","〒857-0871  長崎県佐世保市本島町4-1","33.1701634","129.7218454"
"サンマルクカフェ ゆめマート田崎店","〒860-0053  熊本県熊本市西区田崎2-5-1","32.7833655","130.6797942"
"サンマルクカフェ ゆめタウンはません店","〒862-0965  熊本県熊本市南区田井島1-2-1","32.7717314","130.7264211"
"サンマルクカフェ ゆめタウン光の森店","〒869-1108  熊本県菊池郡菊陽町光の森7-33-1","32.86030119999999","130.784305"
"サンマルクカフェ トキハわさだタウン店","〒870-1155  大分県大分市玉沢755-13F","33.1885863","131.5812474"
"サンマルクカフェ パークプレイス大分店","〒870-0174  大分県大分市公園通り西2-1","33.1952641","131.6558417"
"サンマルクカフェ ニトリモール宮崎店","〒880-0927  宮崎県宮崎市源藤町東田423","31.885398","131.4128057"
"サンマルクカフェ イオンモール都城駅前店","〒885-0023  宮崎県都城市栄町4672-5イオンモール都城駅前1F","31.7352569","131.080019"
"サンマルクカフェ イオンモール鹿児島店","〒891-0115  鹿児島県鹿児島市東開町7","31.5259218","130.5376946"
"サンマルクカフェ　イオンタウン姶良店","〒899-5431  鹿児島県姶良市西餅田264-1","31.7321503","130.6264908"
"サンマルクカフェ イオンモール沖縄ライカム店","〒901-2300  沖縄県中頭郡北中城村アワセ土地区画整理事業区域内4街区","26.3140473","127.797735"
"サンマルクカフェ 札幌ル・トロワ店","〒060-0042  北海道札幌市中央区大通西1-13B2","43.0603507","141.355604"
"サンマルクカフェ 東武ふじみ野駅店","〒354-0031  埼玉県富士見市勝瀬 東武東上線ふじみ野駅構内","35.8607488","139.5231863"
"サンマルクカフェ 東武上福岡店","〒356-0004  埼玉県ふじみ野市上福岡1-1-1東武東上線上福岡駅構内","35.873489","139.512113"
"サンマルクカフェ 人形町店","〒103-0013  東京都中央区日本橋人形町3-4-14 FORECAST人形町PLACE","35.6860663","139.781462"
"サンマルクカフェ 新宿御苑前店","〒160-0022  東京都新宿区新宿1-7-10AK-O-Fビルディング","35.6888361","139.7101331"
"サンマルクカフェ 春日駅前店","〒112-0002  東京都文京区小石川1-3-23ル･ビジュービル1・2F","35.7094842","139.7529614"
"サンマルクカフェ 青山オーバルビル店","〒150-0001  東京都渋谷区神宮前5-52-2B1","35.6627385","139.7089362"
"サンマルクカフェ 阿佐ヶ谷駅前店","〒166-0004  東京都杉並区阿佐谷南2-15-2ASAGAYA南口駅前ビル","35.7043099","139.6369034"
"サンマルクカフェ 京成立石店","〒124-0012  東京都葛飾区立石7-1-2三富士堂ビル","35.7387254","139.8493075"
"サンマルクカフェ 名古屋名鉄メンズ館店","〒453-0002  愛知県名古屋市中村区名駅1-2-4名鉄バスターミナルビル本館B1","35.1685909","136.8842147"
"サンマルクカフェ　イオンモール豊川店","〒442-0048  愛知県豊川市開運通2-31区画1F110","34.8274843","137.3844581"
"サンマルクカフェ サンマルクカフェくずはモール店","〒573-1121  大阪府枚方市楠葉花園町10-85KUZUHAMALL南館2F","34.8598053","135.676705"
"サンマルクカフェ デュオこうべ店","〒650-0044  兵庫県神戸市中央区東川崎町1-2-3デュオこうべ浜の手45区画","34.6792222","135.1800113"
"サンマルクカフェ 奈良三条店","〒630-8244  奈良県奈良市三条町499-1F＆Fビル","34.6817762","135.8209516"
"サンマルクカフェ 熊本上通店","〒860-0845  熊本県熊本市中央区上通町7-11オモキ屋ビル1F","32.8051169","130.7113991"
"サンマルクカフェ 熊本下通り店","〒860-0808  熊本県熊本市中央区手取本町5-201～3F","32.802606","130.7100548"

