"name","address","lat","lng"
"札幌北野店","北海道 札幌市清田区 北野6条5丁目6-36","43.01540929999999","141.4515481"
"イオンモール札幌平岡店","北海道 札幌市清田区 平岡三条5丁目3-1 イオンモール札幌平岡","42.997239","141.458711"
"札幌石山店","北海道 札幌市南区 石山2条9丁目7-50 アクロスプラザ札幌南","42.9604697","141.3147666"
"イオンモール札幌苗穂店","北海道 札幌市東区 東苗穂2条3丁目1-1 イオンモール札幌苗穂","43.0798532","141.4038107"
"函館ベイサイド店","北海道 函館市 末広町24－6 函館西波止場","41.766429","140.715208"
"函館蔦屋書店","北海道 函館市 石川町85-1","41.8307065","140.7356571"
"イオンモール苫小牧店","北海道 苫小牧市 柳町3-1-20 イオンモール苫小牧","42.65633","141.642023"
"札幌グランドホテル店","北海道 札幌市中央区 北1条西4丁目 札幌グランドホテル 1F","43.06219129999999","141.3505565"
"札幌ステラプレイス イースト2階店","北海道 札幌市中央区 北5条西2丁目5","43.06827560000001","141.3524456"
"札幌紀伊國屋書店","北海道 札幌市中央区 北5条西5丁目7 sapporo55　紀伊國屋書店内2階","43.0673306","141.34825"
"札幌ステラプレイス センター1階店","北海道 札幌市中央区 北5条西2丁目5 JRタワー「ステラプレイス」","43.0681096","141.3518039"
"イオン札幌桑園店","北海道 札幌市中央区 北8条西14丁目28 イオン札幌桑園ショッピングセンター","43.0693935","141.3331756"
"札幌パルコ店","北海道 札幌市中央区 南1条西3丁目3 札幌パルコ","43.058767","141.353181"
"札幌南一条店","北海道 札幌市中央区 南1条西2丁目5 南一条Ｋビル 1F","43.0589469","141.3547749"
"札幌パセオ店","北海道 札幌市北区 北6条西4丁目3-1 パセオ","43.0684288","141.3487029"
"札幌医科大学附属病院店","北海道 札幌市中央区 南1条西16丁目 札幌医科大学附属病院","43.055142","141.333412"
"北広島大曲店","北海道 北広島市 大曲幸町6－1 インターヴィレッジ大曲","42.9691761","141.4692553"
"札幌美園店","北海道 札幌市豊平区 美園3条6丁目2-18","43.040593","141.3893135"
"札幌西町店","北海道 札幌市西区 西町南4-1-20","43.0779022","141.2904311"
"TSUTAYA 札幌琴似店","北海道 札幌市西区 琴似4条1丁目1番1号 コルテナⅠ","43.08201529999999","141.3037986"
"イオンモール札幌発寒店","北海道 札幌市西区 発寒8条12丁目1-1 イオンモール札幌発寒","43.096168","141.27692"
"札幌円山店","北海道 札幌市中央区 南1条西27丁目1-1 マルヤマクラス","43.0548526","141.3178844"
"すすきのイトーヨーカドー店","北海道 札幌市中央区 南4条西4丁目1","43.0549911","141.3531241"
"札幌旭ケ丘店","北海道 札幌市中央区 南8条西23丁目4-6","43.0496109","141.345825"
"札幌宮ケ丘店","北海道 札幌市中央区 宮ケ丘1-1-1","43.0575533","141.3130831"
"札幌環状通東店","北海道 札幌市東区 本町2条1丁目5-1","43.0825942","141.3819286"
"アリオ札幌店","北海道 札幌市東区 北７条東9丁目2-20 アリオ札幌","43.0711702","141.3702553"
"新千歳空港店","北海道 千歳市 美々　 新千歳空港連絡施設 3F","42.7875093","141.6789909"
"イオンモール旭川駅前店","北海道 旭川市 宮下通7-2-5","43.7639638","142.3574173"
"イオンモール旭川西店","北海道 旭川市 緑町23丁目2161-3 イオンモール旭川西","43.793938","142.326353"
"旭川東光店","北海道 旭川市 東光13条6丁目2-6","43.7426656","142.4071545"
"旭川医科大学病院店","北海道 旭川市 緑が丘東2条1丁目1-1 旭川医科大学病院","43.7299203","142.3841988"
"帯広稲田店","北海道 帯広市 稲田町南8線西10-7","42.89134749999999","143.1995848"
"帯広白樺通り店","北海道 帯広市 西21条南3丁目1-6","42.9173809","143.1433886"
"青森中央店","青森県 青森市 荒川藤戸134-2","40.79721019999999","140.7392938"
"八戸田向店","青森県 八戸市 田向毘沙門平18","40.4940088","141.5109745"
"八戸城下店","青森県 八戸市 城下4-2-1","40.5209298","141.4895205"
"弘前公園前店","青森県 弘前市 上白銀町1-1","40.6031549","140.4636779"
"青森ELM店","青森県 五所川原市 唐笠柳517-1 ELM","40.7987369","140.4538322"
"青森西バイパス店","青森県 青森市 三好2-2-36","40.83167539999999","140.7030061"
"青森ラビナ店","青森県 青森市 柳川1-2-3 青森駅ビル・ラビナ","40.8279211","140.7342542"
"イオンモール下田店","青森県 上北郡 おいらせ町中野平40-1 イオンモール下田","40.6020431","141.4182131"
"盛岡菜園店","岩手県 盛岡市 菜園1-11-11 ホテルロイヤル盛岡","39.7015389","141.146854"
"盛岡フェザン店","岩手県 盛岡市 盛岡駅前通1-44 フェザン本館2FH","39.7026985","141.1357087"
"イオンモール盛岡店","岩手県 盛岡市 前潟4－7－1","39.71156149999999","141.0986663"
"盛岡西バイパス店","岩手県 盛岡市 北飯岡4-12-20","39.6682647","141.1342645"
"イオンモール盛岡南店","岩手県 盛岡市 本宮7-1-1 イオンモール盛岡南","39.68348659999999","141.1285512"
"北上店","岩手県 北上市 北鬼柳18地割96-2","39.2916083","141.1003141"
"エスパル仙台本館店","宮城県 仙台市青葉区 中央1-1-1 エスパル仙台本館","38.2600729","140.882131"
"仙台クリスロード店","宮城県 仙台市青葉区 中央2-5-3 第二やまふくビル","38.2616531","140.876901"
"ホテルグランテラス 仙台国分町店","宮城県 仙台市青葉区 国分町2-2-2 ホテルグランテラス仙台国分町　1F","38.2623637","140.8696718"
"仙台アエル店","宮城県 仙台市青葉区 中央1-3-1 仙台ＡＥＲ","38.2626436","140.8815171"
"仙台パルコ店","宮城県 仙台市青葉区 中央1-2-3 仙台パルコ","38.2619966","140.8816366"
"エスパル仙台東館店","宮城県 仙台市青葉区 中央1-1-1 エスパル仙台東館 4階","38.2593414","140.8832271"
"仙台フォーラス店","宮城県 仙台市青葉区 一番町3-11-15 仙台フォーラス","38.26219080000001","140.8720617"
"イオンモール名取店","宮城県 名取市 杜せきのした5-3-1","38.1638265","140.8957161"
"仙台市名坂店","宮城県 仙台市泉区 高玉町3-10","38.3180928","140.8938703"
"泉中央セルバ店","宮城県 仙台市泉区 泉中央1-4-1 泉中央セルバ","38.3235835","140.8822142"
"仙台泉パークタウン タピオ店","宮城県 仙台市泉区 寺岡6-5-1 泉パークタウン タピオ","38.3426675","140.836208"
"イオンモール富谷店","宮城県 富谷市 大清水1-33-1 イオンモール富谷","38.36523","140.875161"
"ザ・モール仙台長町 Ｐａｒｔ２店","宮城県 仙台市太白区 長町7-20-3 ザ・モール仙台長町 Part2","38.2270452","140.8770489"
"仙台大野田店","宮城県 仙台市太白区 大野田4-2-1","38.2139265","140.8789177"
"TSUTAYA 東仙台店","宮城県 仙台市宮城野区 東仙台4-14-1 TSUTAYA ヤマト屋書店 東仙台店","38.2760764","140.9083956"
"仙台駅東口店","宮城県 仙台市宮城野区 榴岡1-2-10 エンドウビル 1F","38.2595049","140.8858366"
"TSUTAYA 仙台荒井店","宮城県 仙台市若林区 南小泉59-1 クロスモール仙台荒井","38.2378308","140.9310187"
"蔦屋書店 多賀城市立図書館店","宮城県 多賀城市 中央2-4-3","38.2919506","141.0047555"
"イオンモール石巻店","宮城県 石巻市 茜平4-104 イオンモール石巻","38.4477185","141.2660009"
"秋田東通店","秋田県 秋田市 東通4-5-20","39.7130491","140.1431304"
"イオンモール秋田店","秋田県 秋田市 御所野地蔵田1-1-1","39.66315","140.1612697"
"秋田アルス店","秋田県 秋田市 中通7-2-1 おしゃれかんアルス","39.7178856","140.1288681"
"秋田大学医学部附属病院店","秋田県 秋田市 広面蓮沼44-2 秋田大学医学部附属病院","39.7307148","140.1494768"
"イオンモール大曲店","秋田県 大仙市 和合坪立177 イオンモール大曲","39.4370045","140.5095731"
"山形エスパル店","山形県 山形市 香澄町1-1-1 エスパル山形","38.248298","140.327692"
"山形馬見ヶ崎店","山形県 山形市 馬見ヶ崎2-7-28","38.2815027","140.3312714"
"山形県立中央病院店","山形県 山形市 青柳1800 山形県立中央病院","38.3001893","140.3459896"
"山形白山店","山形県 山形市 白山3-9-24","38.2254163","140.3201016"
"イオンモール天童店","山形県 天童市芳賀土地区 画整理事業地内34街区 イオンモール天童","38.3434125","140.3633183"
"酒田みずほ店","山形県 酒田市 みずほ1-20-6","38.90334","139.8501204"
"福島県立医科大学附属病院店","福島県 福島市 光が丘1 福島県立医科大学附属病院","37.6899366","140.471247"
"福島エスパル店","福島県 福島市 栄町１-１ エスパル福島","37.7551174","140.4600629"
"郡山安積店","福島県 郡山市 安積町荒井南千保8-2","37.3695576","140.3710281"
"郡山コスモス通り店","福島県 郡山市 堤2-41","37.3975425","140.3340251"
"郡山モルティ店","福島県 郡山市 駅前2-11-1 ビッグアイ モルティ 2F","37.3998493","140.3882256"
"郡山駅店","福島県 郡山市 燧田195 エキナカ","37.39675","140.388065"
"いわき鹿島街道店","福島県 いわき市 常磐上矢田町戸石9-1","37.0165859","140.902814"
"土浦店","茨城県 土浦市 真鍋新町19-17","36.09122869999999","140.2082321"
"イオンモール土浦店","茨城県 土浦市 上高津367 イオンモール土浦","36.0800989","140.1809686"
"ひたち野うしく店","茨城県 牛久市 ひたち野東2-7-1 アクロスプラザひたち野うしく","36.0071606","140.1639342"
"龍ケ崎店","茨城県 龍ケ崎市 中根台4-1-13","35.9314169","140.1748973"
"取手ボックスヒル店","茨城県 取手市 中央町2-5 取手ボックスヒル 3F","35.8965768","140.0631959"
"守谷サービスエリア（上り線）店","茨城県 守谷市 大柏166","35.9390665","139.9701145"
"守谷サービスエリア(下り線）店","茨城県 守谷市 野木崎97-3 Pasar守谷(下り線）","35.9403072","139.96683"
"西友楽市守谷店","茨城県 守谷市 けやき台4-1-5 西友楽市 守谷","35.936399","139.9959557"
"イオンモール下妻店","茨城県 下妻市 堀篭972－1 イオンモール下妻","36.19035179999999","139.9897943"
"つくばキュート店","茨城県 つくば市 吾妻1-6-1 Q't 2F","36.0820588","140.1111545"
"つくば駅店","茨城県 つくば市 吾妻2-128","36.0893214","140.1110924"
"つくば店","茨城県 つくば市 稲荷前12－2","36.0482853","140.1285034"
"イオンモールつくば店","茨城県 つくば市 稲岡66-1","36.0349817","140.1329673"
"イーアスつくば店","茨城県 つくば市 研究学園5-19 イーアスつくば","36.0863829","140.0839801"
"つくば研究学園店","茨城県 つくば市 学園南3-20-6","36.0725817","140.0852223"
"筑波大学中央図書館店","茨城県 つくば市 天王台1-1-1 筑波大学中央図書館","36.109328","140.101346"
"筑波大学附属病院店","茨城県 つくば市 天久保2-1-1 筑波大学附属病院","36.0924823","140.1017263"
"友部サービスエリア（上り線）店","茨城県 笠間市 長兎路梶山久保1059-6 友部サービスエリア（上り線）","36.3101378","140.343168"
"友部サービスエリア（下り線）店","茨城県 笠間市 長兎路梶山久保1051-3 友部サービスエリア（下り線）","36.3101378","140.343168"
"水戸エクセル5階店","茨城県 水戸市 宮町1-1-1 水戸エクセル5階","36.371064","140.4756483"
"水戸エクセル店","茨城県 水戸市 宮町1-1-1 エクセル","36.3701262","140.4766123"
"水戸駅南中央通り店","茨城県 水戸市 元吉田町303-1","36.3561151","140.4737187"
"水戸　県庁前店","茨城県 水戸市 笠原町978-40","36.3388588","140.4504543"
"水戸赤塚店","茨城県 水戸市 姫子2-751-16","36.3786671","140.4247999"
"ひたちなか店","茨城県 ひたちなか市 馬渡砂久保542－3","36.401246","140.5813541"
"ひたちなか西光地店","茨城県 ひたちなか市 西光地2-17-2","36.4163964","140.531259"
"神栖店","茨城県 神栖市 平泉281-22","35.9158982","140.6369566"
"常陸多賀店","茨城県 日立市 桜川町1-2-15","36.5572638","140.6288762"
"日立総合病院店","茨城県 日立市 城南町2-1-1","36.5906492","140.6441678"
"イオンモール水戸内原店","茨城県 水戸市 内原2-1","36.37474419999999","140.3593079"
"宇都宮上戸祭店","栃木県 宇都宮市 上戸祭町欠ノ上366－7","36.587758","139.865057"
"宇都宮鶴田店","栃木県 宇都宮市 鶴田2-12-12","36.5627273","139.8555143"
"宇都宮パルコ店","栃木県 宇都宮市 馬場通り3-1-1 宇都宮パルコ 1F","36.560783","139.8863023"
"ＦＫＤ宇都宮インターパーク店","栃木県 宇都宮市 インターパーク6-1-1 FKDショッピングモール宇都宮インターパーク","36.490642","139.9064856"
"宇都宮インターパークステージ店","栃木県 宇都宮市 インターパーク4-2-3 インターパークステージ","36.4939166","139.9086484"
"獨協医科大学病院店","栃木県 下都賀郡 壬生町北小林880","36.4723622","139.8252955"
"宇都宮城東店","栃木県 宇都宮市 城東2-24-11","36.5495195","139.9050191"
"宇都宮福田屋店","栃木県 宇都宮市 今泉町237 福田屋ショッピングプラザ宇都宮店","36.5737017","139.9003735"
"宇都宮パセオ店","栃木県 宇都宮市 川向町1-23 パセオ　1F","36.5595785","139.898254"
"宇都宮ゆいの杜店","栃木県 宇都宮市 ゆいの杜4-12-17","36.5679816","139.9918053"
"真岡店","栃木県 真岡市 下高間木1-14-4","36.4327161","139.9866194"
"宇都宮イトーヨーカドー店","栃木県 宇都宮市 陽東6-2-1 イトーヨーカドー宇都宮店","36.554916","139.928381"
"鹿沼店","栃木県 鹿沼市 西茂呂3-12-3","36.55086319999999","139.7667724"
"おやまゆうえんハーヴェストウォーク店","栃木県 小山市 喜沢1475 おやまゆうえんハーヴェストウォーク","36.3353192","139.8078506"
"ヴァル小山店","栃木県 小山市 城山町3-3-22 VAL小山","36.3125104","139.805946"
"小山店","栃木県 小山市 東城南1-27-１","36.2969323","139.808161"
"イオンモール佐野新都市店","栃木県 佐野市 高萩町1324-1 イオンモール佐野新都市","36.299644","139.6066444"
"佐野プレミアム・アウトレット店","栃木県 佐野市 越名町2058番地 佐野プレミアム・アウトレット370区","36.2930358","139.6048824"
"佐野プレミアム・アウトレット プレイグラウンド店","栃木県 佐野市 越名町2058 佐野プレミアム・アウトレット7020区","36.29392259999999","139.6049884"
"自治医科大学附属病院店","栃木県 下野市 薬師寺3311-1 自治医科大学附属病院","36.3989826","139.8603255"
"西那須野店","栃木県 那須塩原市 五軒町5-19","36.8916221","139.9793942"
"高崎貝沢店","群馬県 高崎市 貝沢町1327-3","36.339228","139.0272467"
"高崎駅ビル モントレー店","群馬県 高崎市 八島町222 高崎駅ビル モントレー 2F","36.3225034","139.0126012"
"イーサイト高崎店","群馬県 高崎市 八島町222 E'site 高崎","36.3224491","139.0133187"
"高崎上中居店","群馬県 高崎市 上中居町1379","36.3215317","139.0337439"
"イオンモール高崎店","群馬県 高崎市 棟高町1400","36.3904993","139.0066913"
"カインズホーム前橋吉岡店","群馬県 北群馬郡 吉岡町大久保821 カインズスーパーセンター前橋吉岡店","36.4216012","139.0236033"
"けやきウォーク前橋店","群馬県 前橋市 文京町2-1-1 けやきウォーク前橋","36.3791391","139.0780839"
"ベイシア西部モール店","群馬県 伊勢崎市 宮子町3430‐6","36.332586","139.1512746"
"イオンモール太田店","群馬県 太田市 石原町81","36.2940446","139.400463"
"太田西矢島店","群馬県 太田市 西矢島町718-1","36.2644944","139.376469"
"横川サービスエリア(上り線)店","群馬県 安中市 松井田町横川917 上信越自動車道　横川サービスエリア（上り線）内","36.3417107","138.7401108"
"パワーモール前橋みなみ店","群馬県 前橋市 新堀町938 パワーモール前橋みなみ","36.3300911","139.0955353"
"伊勢崎SMARK店","群馬県 伊勢崎市 西小保方町368 伊勢崎SMARK","36.3394881","139.2328287"
"浦和パルコ店","埼玉県 さいたま市浦和区 東高砂町11-1 浦和パルコ","35.858679","139.659107"
"浦和 蔦屋書店","埼玉県 さいたま市浦和区 高砂1-16-12 アトレ浦和","35.8582554","139.657684"
"さいたま新都心店","埼玉県 さいたま市中央区 新都心10 けやきひろば(013区画）","35.893567","139.631563"
"コクーンシティ さいたま新都心店","埼玉県 さいたま市大宮区 吉敷町4-263-1","35.896594","139.6353983"
"ルミネ大宮店","埼玉県 さいたま市大宮区 錦町630 ルミネ大宮２ 3F","35.9057467","139.6234735"
"大宮西口店","埼玉県 さいたま市大宮区 桜木町1-1-12 NYビル","35.9055689","139.6215613"
"大宮マルイ店","埼玉県 さいたま市大宮区 桜木町2－3 大宮マルイ","35.9069506","139.6218254"
"大宮宮原ステラタウン店","埼玉県 さいたま市北区 宮原町1-854-1 ステラタウン","35.9327191","139.6225141"
"川口店","埼玉県 川口市 栄町3-13-3 マツマルビル","35.8035322","139.7204393"
"ララガーデン川口店","埼玉県 川口市 宮町18-9 ララガーデン川口","35.8051109","139.6984486"
"アリオ川口店","埼玉県 川口市 並木元町1-79 アリオ川口1F","35.8075439","139.7139197"
"イオンモール川口前川店","埼玉県 川口市 前川1-1-11","35.8341858","139.707058"
"蕨 イトーヨーカドー錦町店","埼玉県 蕨市 錦町1-12-1 イトーヨーカドー錦町店","35.821847","139.677769"
"ビーンズ戸田公園店","埼玉県 戸田市 本町4-15-1 ビーンズ戸田公園","35.807887","139.678006"
"イオンモール北戸田店","埼玉県 戸田市 美女木東1-3-1 イオンモール北戸田","35.8263997","139.6528927"
"武蔵浦和ＢＥＡＮＳ店","埼玉県 さいたま市南区 別所7-12-1 武蔵浦和ビーンズ 1F","35.8456913","139.6468414"
"浦和別所店","埼玉県 さいたま市南区 別所3-2-2","35.8551937","139.6472461"
"北浦和駅前店","埼玉県 さいたま市浦和区 北浦和4-5-2 伊吹ビル","35.8720859","139.6453885"
"イオンモール浦和美園店","埼玉県 さいたま市緑区 美園五丁目50-1 イオンモール浦和美園","35.890175","139.731854"
"さいたま大和田店","埼玉県 さいたま市見沼区 大和田町1-1931","35.9292537","139.6499186"
"イオンモール与野店","埼玉県 さいたま市中央区 本町西5-2-9 イオンモール与野","35.8913915","139.6145973"
"草加ヴァリエ店","埼玉県 草加市 高砂2-5-25 ヴァリエ","35.8281472","139.8035866"
"三郷イトーヨーカドー店","埼玉県 三郷市 ピアラシティ1-1-1 イトーヨーカドー三郷店","35.843342","139.854243"
"越谷イオンレイクタウン mori 1階店","埼玉県 越谷市 レイクタウン3-1-1 イオンレイクタウン mori","35.881322","139.8279441"
"越谷イオンレイクタウン mori ガーデンウォーク店","埼玉県 越谷市 レイクタウン3-1-1 イオンレイクタウン mori","35.881322","139.8279441"
"越谷イオンレイクタウン mori 3階店","埼玉県 越谷市 レイクタウン3-1-1 イオンレイクタウン mori","35.881322","139.8279441"
"越谷イオンレイクタウン kaze店","埼玉県 越谷市 レイクタウン4-2-2 イオンレイクタウン kaze","35.8776271","139.8250107"
"越谷レイクタウン アウトレット店","埼玉県 越谷市 レイクタウン4-1-1 レイクタウンアウトレット","35.8804169","139.8249215"
"東武新越谷駅店","埼玉県 越谷市 南越谷1-11-4 東武新越谷駅ビル","35.8749003","139.7899771"
"獨協医科大学越谷病院店","埼玉県 越谷市 南越谷2-1-50 獨協医科大学越谷病院","35.8777555","139.7899132"
"ララガーデン春日部店","埼玉県 春日部市 南1-1-1(店舗番号1230) ララガーデン春日部","35.977137","139.7554199"
"イオンモール春日部店","埼玉県 春日部市 下柳420-1","35.9876784","139.7880785"
"東武久喜駅店","埼玉県 久喜市 中央2-1-1 東武久喜駅","36.065342","139.677398"
"モラージュ菖蒲店","埼玉県 久喜市 菖蒲町菖蒲6005-1 モラージュ菖蒲","36.0751125","139.6119526"
"羽生パーキングエリア（下り線）店","埼玉県 羽生市 弥勒三新田824 Pasar羽生","36.180629","139.585006"
"イオンモール羽生店","埼玉県 羽生市 川崎2-281-3 イオンモール羽生","36.1428893","139.5418351"
"蓮田サービスエリア（上り線）店","埼玉県 蓮田市 黒浜3475-3 東北自動車道 蓮田サービスエリア（上り線）内","36.0008755","139.666752"
"西武本川越駅店","埼玉県 川越市 新富町1-22 本川越駅構内","35.915122","139.481892"
"カインズスーパーモールかわじま店","埼玉県 比企郡 川島町上伊草210 カインズスーパーモールかわじま","35.9771554","139.4669671"
"TSUTAYA 坂戸八幡店","埼玉県 坂戸市 八幡1-3-21","35.9589445","139.4032166"
"ルミネ川越店","埼玉県 川越市 脇田本町39-19 ルミネ川越","35.9069","139.482994"
"埼玉医科大学国際医療センター店","埼玉県 日高市 山根稲荷山1397-1 埼玉医科大学国際医療センター","35.921582","139.32334"
"カインズホーム鶴ヶ島店","埼玉県 鶴ヶ島市 三ツ木奥仲580-1","35.927019","139.39215"
"朝霞駅前店","埼玉県 朝霞市 本町2-4-18 バモスビル","35.7966849","139.599359"
"志木駅前店","埼玉県 新座市 東北2-39-1 井下田第２ビル 1F","35.822877","139.575029"
"ららぽーと富士見店","埼玉県 富士見市 山室1-1313","35.8597471","139.5483014"
"三芳パーキングエリア(下り線）店","埼玉県 入間郡 三芳町上富2218-1 三芳パーキングエリア(下り線）","35.8410267","139.5020326"
"ピオニウォーク東松山店","埼玉県 東松山市 あずま町4-3","36.0056302","139.4107368"
"なめがわ森林モール店","埼玉県 比企郡 滑川町羽尾2806－1","36.0585491","139.3705635"
"ふじみ野店","埼玉県 ふじみ野市 ふじみ野4-9-1","35.8577381","139.5164457"
"飯能ＰｅＰｅ店","埼玉県 飯能市 仲町11-21 飯能ＰｅＰｅ 2F","35.85119660000001","139.3196064"
"イオン入間店","埼玉県 入間市 上藤沢下原462 イオン入間ショッピングセンター","35.822048","139.394978"
"新所沢パルコ店","埼玉県 所沢市 緑町1-2-1 新所沢パルコ","35.8051096","139.455174"
"所沢けやき台店","埼玉県 所沢市 けやき台2-17-10","35.7969076","139.4549003"
"所沢ステーションビル店","埼玉県 所沢市 日吉町1-11 所沢ステーションビル 1F","35.7863691","139.4730189"
"所沢小手指バイパス店","埼玉県 所沢市 北野１-2-67","35.796588","139.4284638"
"アズ熊谷店","埼玉県 熊谷市 筑波2-115 熊谷駅ビルＡＺ２","36.139854","139.3902902"
"上尾二ツ宮店","埼玉県 上尾市 二ツ宮957-1","35.9813915","139.6027323"
"上里サービスエリア(上り線）店","埼玉県 児玉郡 上里町五明849-1 上里サービスエリア(上り線）","36.2561867","139.1199555"
"上里サービスエリア（下り線）店","埼玉県 児玉郡 上里町五明820 上里サービスエリア（下り線）","36.2539717","139.1203838"
"千葉中央駅店","千葉県 千葉市中央区 本千葉町15-1 ミラマーレショッピングセンターミーオ2","35.60780099999999","140.117365"
"千葉オーロラモールジュンヌ店","千葉県 千葉市中央区 新町1001 オーロラモールジュンヌ","35.6107772","140.1152236"
"千葉センシティタワー店","千葉県 千葉市中央区 新町1000 千葉センシティタワー","35.6114695","140.1133065"
"アリオ蘇我店","千葉県 千葉市中央区 川崎町52-7 アリオ蘇我","35.5882283","140.1224557"
"千葉県がんセンター店","千葉県 千葉市中央区 仁戸名町666-2 千葉県がんセンター","35.5814934","140.1624853"
"千葉美浜店","千葉県 千葉市美浜区 幸町2-20-1","35.6264819","140.0895912"
"イオン幕張店","千葉県 千葉市美浜区 ひび野1-3 イオン幕張 1F","35.6516828","140.0453998"
"湾岸幕張パーキングエリア（下り線）店","千葉県 千葉市美浜区 浜田2-102 湾岸幕張パーキングエリア（下り線）","35.6605464","140.028877"
"湾岸幕張パーキングエリア（上り線）店","千葉県 千葉市美浜区 浜田2-102 湾岸幕張パーキングエリア（上り線）","35.65973839999999","140.0283903"
"幕張ＷＢＧ店","千葉県 千葉市美浜区 中瀬2-6-1 WBG","35.6484997","140.03916"
"イオンモール幕張新都心ファミリーモール店","千葉県 千葉市美浜区 豊砂1-5 イオンモール幕張新都心ファミリーモール","35.6571095","140.0261983"
"イオンモール幕張新都心グランドモール店","千葉県 千葉市美浜区 豊砂1-1 イオンモール幕張新都心グランドモール","35.6537689","140.031482"
"千葉長沼店","千葉県 千葉市稲毛区 長沼町333-10","35.6582512","140.1190872"
"千葉若松店","千葉県 千葉市若葉区 若松町1-1","35.6393905","140.1728337"
"千葉おゆみ野店","千葉県 千葉市緑区 おゆみ野南1-1-1","35.5527985","140.1580031"
"南流山店","千葉県 流山市 木384-1","35.8320103","139.8960915"
"千葉ニュータウン店","千葉県 印西市 泉野3-1186-5","35.8045576","140.1283554"
"イオンモール千葉ニュータウン店","千葉県 印西市 中央北3-2","35.8026106","140.1111848"
"アトレ松戸店","千葉県 松戸市 松戸1181 アトレ松戸","35.7850361","139.9005287"
"プラーレ松戸店","千葉県 松戸市 松戸1149-1 プラーレ松戸","35.78381299999999","139.902422"
"ダイエーいちかわコルトンプラザ店","千葉県 市川市 鬼高1-1-1　 ニッケコルトンプラザ","35.716674","139.934985"
"シャポー船橋店","千葉県 船橋市 本町7-1-1 シャポー船橋 1F","35.7016433","139.9845349"
"ららぽーとTOKYO-BAY　北館店","千葉県 船橋市 浜町2-1-1 ららぽーとTOKYO-BAY北館１Ｆ","35.685882","139.989963"
"ららぽーとTOKYO-BAY　南館店","千葉県 船橋市 浜町2-1-1 ららぽーとTOKYO-BAY南館２Ｆ","35.6856706","139.9901567"
"西船橋メトロピア店","千葉県 船橋市 西船4-27-7 東京地下鉄東西線西船橋駅構内","35.7075271","139.9590218"
"イオンモール船橋店","千葉県 船橋市 山手1-1-8","35.7125926","139.9783872"
"新鎌ケ谷店","千葉県 鎌ケ谷市 新鎌ケ谷3-1-5","35.7747642","140.0011543"
"津田沼パルコ店","千葉県 船橋市 前原西2-18-1 津田沼パルコ Ｂ館 1F","35.6921238","140.0217071"
"ミーナ津田沼店","千葉県 習志野市 津田沼1-3-1 mina津田沼","35.6897611","140.022913"
"TSUTAYA モリシア津田沼店","千葉県 習志野市 谷津1-16-1 モリシア津田沼","35.6898479","140.0191567"
"フルルガーデン八千代店","千葉県 八千代市 村上南1-4-1 フルルガーデン八千代","35.72108","140.117698"
"イオンモール八千代緑が丘店","千葉県 八千代市 緑が丘2-1-3 イオンモール八千代緑が丘","35.7280282","140.0731666"
"柏マルイ店","千葉県 柏市 柏1-1-11 柏マルイ 2F","35.8614582","139.9708805"
"モラージュ柏店","千葉県 柏市 大山台2-3 モラージュ柏","35.882415","139.9690996"
"柏 高島屋ステーションモール店","千葉県 柏市 末広町1-1 柏高島屋ステーションモールＳ館 1F","35.8625812","139.970733"
"柏 高島屋ステーションモール 6階店","千葉県 柏市 末広町1-1 柏高島屋ステーションモールＳ館","35.862433","139.970821"
"イオンモール柏店","千葉県 柏市 豊町2-5-25 イオンモール柏","35.8517387","139.9615902"
"柏の葉 蔦屋書店","千葉県 柏市 若柴227-1","35.887795","139.9598509"
"セブンパーク　アリオ柏店","千葉県 柏市 大島田950-1 セブンパーク　アリオ柏","35.8334268","140.013182"
"浦安店","千葉県 浦安市 北栄1-15-9 寿ビル","35.6655302","139.8938133"
"アトレ新浦安店","千葉県 浦安市 入船1-1-1 アトレ新浦安","35.6498103","139.9127896"
"舞浜　イクスピアリ店","千葉県 浦安市 舞浜1-4 イクスピアリ (店舗番号169)","35.634688","139.885167"
"成田空港第２ターミナル店","千葉県 成田市 古込1-1 成田空港第２旅客ターミナルビル","35.77366","140.3884214"
"成田空港店","千葉県 成田市 三里塚御料牧場1-1 成田空港第１旅客ターミナルビル","35.76390120000001","140.3844135"
"成田空港第１ターミナル店","千葉県 成田市 三里塚御料牧場1-1 成田空港第１旅客ターミナル中央ビル","35.7642099","140.3836442"
"四街道イトーヨーカドー店","千葉県 四街道市 中央5番地 イトーヨーカドー四街道店","35.6674764","140.1653428"
"ベイシア佐倉店","千葉県 佐倉市 寺崎北6-1-2","35.7136648","140.2163566"
"酒々井プレミアム・アウトレット店","千葉県 印旛郡 酒々井町飯積2-4-1","35.714309","140.294092"
"酒々井パーキングエリア(下り線）店","千葉県 印旛郡 酒々井町墨1420-11 酒々井パーキングエリア(下り線）","35.7092355","140.2847621"
"成田ボンベルタ店","千葉県 成田市 赤坂2-1-10 ボンベルタ成田","35.7780498","140.2904833"
"イオンモール成田店","千葉県 成田市 ウイング土屋24","35.795833","140.3176162"
"ベイシア富里店","千葉県 富里市 七栄532 ベイシア富里","35.75108","140.309805"
"香取佐原店","千葉県 香取市 佐原ホ1238-3","35.9009569","140.4901084"
"市原店","千葉県 市原市 更級4-1-32","35.5093719","140.0995521"
"三井アウトレットパーク木更津店","千葉県 木更津市 金田東3-1-1 三井アウトレットパーク木更津","35.43481999999999","139.9352502"
"木更津店","千葉県 木更津市 ほたる野1-15-2","35.3770994","139.9624289"
"海ほたるパーキングエリア店","千葉県 木更津市 中島地先 海ほたる 海ほたるパーキングエリア","35.46443","139.874265"
"イオンモール木更津店","千葉県 木更津市 築地1-4","35.3641787","139.9095782"
"イオンモール富津店","千葉県 富津市 青木1-5-1","35.3304664","139.8454571"
"竹橋パレスサイド店","東京都 千代田区 一ツ橋1-1-1 竹橋パレスサイドビルディング 1F","35.6908838","139.757545"
"ＫＤＤＩ大手町ビル店","東京都 千代田区 大手町1-8-1 ＫＤＤＩ大手町ビル 1F","35.6877121","139.7644892"
"大手町東京サンケイビル店","東京都 千代田区 大手町1-7-2 東京サンケイビル　B1階","35.6869486","139.7654476"
"大手町ビル店","東京都 千代田区 大手町1-6-1 大手町ビル","35.6863734","139.7647808"
"新大手町ビル店","東京都 千代田区 大手町2-2-1 新大手町ビル","35.6853286","139.7666855"
"丸の内三菱ビル店","東京都 千代田区 丸の内2-5-2 三菱ビル","35.6799425","139.763604"
"丸の内新東京ビル店","東京都 千代田区 丸の内3-3-1 丸の内新東京ビル","35.6775371","139.76266"
"東京ステーションシティ サピアタワー店","東京都 千代田区 丸の内1-7-12","35.6838377","139.7684723"
"新丸ビル店","東京都 千代田区 丸の内1-5-1 新丸の内ビル","35.6825698","139.764303"
"JR東京駅 八重洲北口店","東京都 千代田区 丸の内1-9-1 東京駅","35.6812529","139.7660004"
"ＪＲ東海 東京駅新幹線南ラチ内店","東京都 千代田区 丸の内1-9-1　 東京駅構内南部高架下 JRCP東京支店","35.6804923","139.7675623"
"有楽町ビル 地下1階店","東京都 千代田区 有楽町1-10-1 有楽町ビル　地下１階","35.6749233","139.7618269"
"有楽町ビル1階店","東京都 千代田区 有楽町1-10-1 有楽町ビル 1階","35.6750873","139.7617502"
"日比谷シャンテ店","東京都 千代田区 有楽町1-2-2 日比谷シャンテ","35.6730837","139.7599029"
"TSUTAYA 有楽町マルイ店","東京都 千代田区 有楽町2-7-1 有楽町マルイ","35.6741828","139.7637757"
"JR有楽町駅京橋口店","東京都 千代田区 有楽町2-9","35.67465809999999","139.7627563"
"日比谷シティ店","東京都 千代田区 内幸町2-2-3 日比谷国際ビルヂング B1F(B132)","35.6703615","139.7547635"
"NBF日比谷ビル店","東京都 千代田区 内幸町1-1-7 NBF日比谷ビル","35.6717726","139.757836"
"山王パークタワー店","東京都 千代田区 永田町2-11-1 山王パークタワー","35.6735714","139.7403941"
"赤坂プルデンシャルタワー店","東京都 千代田区 永田町2-13-10 プルデンシャルタワー","35.67604499999999","139.7386181"
"霞ダイニング店","東京都 千代田区 霞が関3丁目2-5 霞が関ビルディング","35.671183","139.7472406"
"大手町カンファレンスセンター店","東京都 千代田区 大手町1-3-1 JAビル","35.6887292","139.7627321"
"丸の内パークビル店","東京都 千代田区 丸の内2-6-1 丸の内パークビルディング","35.683357","139.766589"
"アトレ秋葉原1店","東京都 千代田区 外神田1-17-6 アトレ秋葉原１","35.6984426","139.7724317"
"秋葉原駅前店","東京都 千代田区 神田佐久間町1-6-5 AKIBA・TOLIM","35.6978763","139.7736815"
"神田駅前店","東京都 千代田区 神田鍛冶町3-2 神田サンミビル","35.693387","139.771252"
"神保町１丁目店","東京都 千代田区 神田神保町1-2 アイピー第一ビル","35.6962142","139.7601566"
"神田小川町２丁目店","東京都 千代田区 神田小川町2-5-5 紀陽東京ビル 1F","35.6941852","139.7630117"
"お茶の水村田ビル店","東京都 千代田区 神田駿河台2-5 村田ビルディング 1F","35.700394","139.760836"
"お茶の水サンクレール店","東京都 千代田区 神田駿河台4-3","35.6987747","139.7650165"
"淡路町駅前店","東京都 千代田区 神田淡路町1-2 クリスタルビル","35.6957288","139.7676679"
"飯田橋サクラテラス店","東京都 千代田区 富士見2-10-2","35.6990352","139.7437623"
"飯田橋サクラテラス 2階店","東京都 千代田区 富士見2-10-2 飯田橋グラン・ブルーム　サクラテラス","35.6989399","139.7437773"
"飯田橋アイガーデンテラス店","東京都 千代田区 飯田橋3-10-9 アイガーデンテラス","35.7010776","139.7502246"
"九段下店","東京都 千代田区 九段北1-2-1 九段北1丁目ビル 1F","35.697377","139.751701"
"北の丸スクエア店","東京都 千代田区 九段北1-13-12 北の丸スクエア","35.6957677","139.7505941"
"市ヶ谷駅前店","東京都 千代田区 五番町2 市ヶ谷ストア 2F","35.6911081","139.7355854"
"麹町店","東京都 千代田区 麹町3-2-5 垣見麹町ビル別館 1F","35.68429","139.7390572"
"東京ガーデンテラス紀尾井町店","東京都 千代田区 紀尾井町1-2 東京ガーデンテラス紀尾井町","35.6796721","139.7374038"
"人形町店","東京都 中央区 日本橋人形町3-6-7 人形町共同ビル 1F","35.6869724","139.7814832"
"日本橋スルガビル店","東京都 中央区 日本橋室町1-7-1 スルガビル 1F","35.684711","139.7748361"
"日本橋本町店","東京都 中央区 日本橋本町2-4-5 扶桑日本橋ビル 1F","35.687198","139.775332"
"茅場町店","東京都 中央区 日本橋茅場町1-12-2 樋口本店ビル 1F","35.6793699","139.7806843"
"八重洲さくら通り店","東京都 中央区 八重洲1-6-3 小鉄ビル","35.6814429","139.7704595"
"八重洲地下街店","東京都 中央区 八重洲2-1 八重洲地下街 中3号","35.6798047","139.7704539"
"東京駅八重洲南口店","東京都 中央区 八重洲2-4-13 ユニゾ八重洲二丁目ビル","35.6781442","139.7689419"
"京橋駅前店","東京都 中央区 京橋2-4-12 京橋第一生命ビルディング 1F","35.6766128","139.7696408"
"京橋エドグラン店","東京都 中央区 京橋2-2-1 京橋エドグラン","35.6773801","139.7696273"
"築地駅前店","東京都 中央区 築地2-12-8 喜津禰ビル 1F","35.6679485","139.772057"
"晴海 トリトンスクエア店","東京都 中央区 晴海1-8-10 晴海アイランド トリトンスクエア オフィスタワーX","35.6574706","139.7823685"
"銀座マロニエ通り店","東京都 中央区 銀座3-7-3 銀座オーミビル 1F","35.6721611","139.7674842"
"銀座松屋通り店","東京都 中央区 銀座3-7-14 ＥＳＫビル 1F","35.6717086","139.7666256"
"銀座コリドー通り店","東京都 中央区 銀座7-2-22 銀座同和ビル","35.6710658","139.7604561"
"東銀座店","東京都 中央区 銀座5-15-8 時事通信ビル","35.6680592","139.7673644"
"銀座ファイブ店","東京都 中央区 銀座5丁目1番先 GINZA FIVE","35.6727111","139.761948"
"エチカフィット銀座店","東京都 中央区 銀座4-1-2 東京メトロ銀座駅構内","35.6714054","139.7653555"
"聖路加国際病院店","東京都 中央区 明石町9-1 聖路加国際病院","35.667344","139.777139"
"虎ノ門２丁目タワー店","東京都 港区 虎ノ門2-3-17 虎ノ門２丁目タワー","35.6684084","139.7467615"
"虎ノ門駅前店","東京都 港区 虎ノ門1-1-23 ウンピン虎ノ門ビル 1F","35.6704249","139.7501349"
"TSUTAYA 神谷町駅前店","東京都 港区 虎ノ門5-2-5 神谷町MTコート","35.6631721","139.7448852"
"新橋駅前店","東京都 港区 新橋2-19-3 カシケイビル 1F","35.66676760000001","139.7595776"
"TSUTAYA 新橋店","東京都 港区 新橋4-11-1 TK新橋ビル","35.6648091","139.7565653"
"芝大門店","東京都 港区 芝公園2-3-4 ホテルコンソレイユ芝・東京","35.6568849","139.7522186"
"ゆりかもめ新橋駅店","東京都 港区 東新橋1-1-8","35.6615484","139.7567209"
"浜松町東芝ビル店","東京都 港区 芝浦1-1-1 東芝ビルディングプラザ","35.6510021","139.7574315"
"城山ガーデン店","東京都 港区 虎ノ門4-3-1 城山トラストタワー","35.6647037","139.7432485"
"愛宕グリーンヒルズ店","東京都 港区 愛宕2-5-1 ＭＯＲＩ タワー（愛宕グリーンヒルズ）","35.6621365","139.7488803"
"カレッタ汐留店","東京都 港区 東新橋1-8-2 カレッタ汐留","35.66488","139.762487"
"汐留シティセンター店","東京都 港区 東新橋1-5-2 汐留シティセンター","35.6656575","139.7610263"
"ペディ汐留店","東京都 港区 東新橋1-9-1 東京汐留ビルディング内　Pedi汐留","35.6629868","139.7609791"
"慈恵大学病院店","東京都 港区 西新橋3-19-18 東京慈恵会医科大学附属病院","35.6636096","139.7515282"
"六本木７丁目店","東京都 港区 六本木7-14-1 東李閣ビル 1F","35.6640549","139.7311297"
"六本木ヒルズ メトロハット／ハリウッドプラザ店","東京都 港区 六本木6-4-1 メトロハット/ハリウッドプラザ","35.6614257","139.7293705"
"六本木ヒルズ ウエストウォーク店","東京都 港区 六本木6-10-1 森タワー","35.6604638","139.7292487"
"TSUTAYA TOKYO ROPPONGI店","東京都 港区 六本木6-11-1 ゲートタワー","35.6590926","139.7318045"
"アークヒルズサウスタワー店","東京都 港区 六本木1-4-5 アークヒルズサウスタワー","35.6656699","139.7394596"
"麻布十番店","東京都 港区 麻布十番1-11-14 ＳＢＳビル","35.6557087","139.7360258"
"六本木ヒルズ ウエストウォーク ラウンジ店","東京都 港区 六本木6-10-1 森タワー","35.6604638","139.7292487"
"赤坂見附店","東京都 港区 赤坂3-21-20 赤坂ロングビーチビル 1F","35.6772069","139.7357044"
"赤坂溜池タワー店","東京都 港区 赤坂2-17-1 赤坂溜池タワー","35.6712306","139.7392682"
"フォーシーズ溜池山王ビル店","東京都 港区 赤坂2-10-11 フォーシーズ溜池山王ビル","35.6700311","139.741552"
"国際新赤坂ビル店","東京都 港区 赤坂2-14-2７ 国際新赤坂ビル","35.672169","139.7371812"
"アクセス表参道店","東京都 港区 北青山3-6-17 アクセス表参道ビル","35.6646866","139.7117943"
"青山外苑西通り店","東京都 港区 北青山3-2-2 ＡＹビル 1F","35.6691832","139.7154915"
"南青山２丁目店","東京都 港区 南青山2-26-37 VORT外苑前Ⅰ1F","35.6700599","139.7173528"
"青山骨董通り店","東京都 港区 南青山5-10-1 H2 AOYAMA BUILDING","35.662747","139.710989"
"南青山骨董通り店","東京都 港区 南青山5-4-27 Barbizon104","35.66133","139.7145538"
"アークヒルズ店","東京都 港区 赤坂1-12-32 アーク森ビル 1F","35.6671134","139.740135"
"赤坂Bizタワー店","東京都 港区 赤坂5-3-1 赤坂Bizタワー(区画番号206)","35.6729274","139.7367163"
"田町駅西口店","東京都 港区 芝5-33-8 第一田町ビル 1F","35.6470273","139.7483087"
"白金高輪店","東京都 港区 白金1-17-2-102 白金アエルシティ","35.6443214","139.7342406"
"品川インターシティ店","東京都 港区 港南2-15-2 品川インターシティ 2F (206)","35.6262656","139.742051"
"ＪＲ東海 品川駅店","東京都 港区 港南2-1-78 東海道新幹線品川駅","35.6284713","139.7387597"
"ＪＲ東海 品川駅ラチ内店","東京都 港区 港南2-1-78 ＪＲＣＰ品川営業所","35.6286685","139.7395669"
"上野マルイ店","東京都 台東区 上野6-15-1 上野マルイ店 B1F","35.7112384","139.7758409"
"御徒町春日通り店","東京都 台東区 上野6-2-1 ヨシダビル","35.707871","139.775593"
"アトレ上野店","東京都 台東区 上野7-1-1 アトレ上野 1F","35.7122684","139.7758273"
"上野恩賜公園店","東京都 台東区 上野公園8-22","35.7161759","139.7739764"
"浅草駅前店","東京都 台東区 花川戸1-5-1","35.7119547","139.7979526"
"浅草雷門通り店","東京都 台東区 雷門2-16-7 グランコピエ浅草雷門","35.7109444","139.7947374"
"東京ドームシティ ラクーア店","東京都 文京区 春日1-1-1 ラクーア","35.7068133","139.7533408"
"水道橋後楽森ビル店","東京都 文京区 後楽1-4-14 後楽森ビル 1F","35.7035588","139.7496359"
"東京ドームシティ ミーツポート店","東京都 文京区 後楽1-3-61 ミーツポート","35.7030303","139.7548046"
"本郷東大前店","東京都 文京区 本郷4-1-4 ユニゾ本郷四丁目ビル 1F","35.70812069999999","139.7607776"
"順天堂医院店","東京都 文京区 本郷3-1-3 順天堂大学医学部附属順天堂医院 (1号館）","35.7020709","139.762362"
"東京医科歯科大学店","東京都 文京区 湯島1-5-45 東京医科歯科大学","35.7012897","139.764451"
"東京大学工学部店","東京都 文京区 本郷7-3-1 工学部11号館","35.71373579999999","139.7594578"
"王子駅前店","東京都 北区 王子1-9-5 京徳ビル 1F","35.7541377","139.7378597"
"アトレヴィ田端店","東京都 北区 東田端1-17-2 アトレヴィ田端","35.73825","139.760852"
"ビーンズ赤羽店","東京都 北区 赤羽1-1-1 ビーンズ赤羽","35.7786268","139.720309"
"東武北千住駅店","東京都 足立区 千住旭町42-1 東武北千住駅","35.749787","139.805694"
"ルミネ北千住店","東京都 足立区 千住旭町42-2 ルミネ北千住","35.7500323","139.8048476"
"北千住マルイ店","東京都 足立区 千住3-92 北千住マルイ","35.7508219","139.80462"
"金町駅南口店","東京都 葛飾区 金町6-4-2 ラヴィクレール金町","35.7690988","139.8723665"
"アリオ亀有店","東京都 葛飾区 亀有3-49-3 アリオ亀有","35.7644807","139.8526549"
"錦糸町テルミナ2店","東京都 墨田区 錦糸1-2-47 テルミナ2","35.697004","139.8147228"
"錦糸町 丸井店","東京都 墨田区 江東橋3-9-10 丸井 錦糸町店","35.6950335","139.8137764"
"東京スカイツリー・ソラマチ東6階店","東京都 墨田区 押上1-1-2 東京スカイツリータウン","35.710067","139.8128059"
"東京スカイツリー・ソラマチ西1階店","東京都 墨田区 押上1-1-2 東京スカイツリータウン","35.710067","139.8128059"
"シャポー小岩店","東京都 江戸川区 南小岩7-24-15","35.7329706","139.881688"
"木場イトーヨーカドー店","東京都 江東区 木場1-5-30 イトーヨーカドー木場店 1F","35.6668822","139.8041557"
"豊洲フォレシア店","東京都 江東区 豊洲3-2-24 豊洲フォレシア","35.6575322","139.7950196"
"東京ビッグサイト店","東京都 江東区 有明3-11-1 東京ビッグサイト　レストラン街","35.62982","139.7942416"
"ヴィーナスフォート ファミリー店","東京都 江東区 青海1-3-15 ヴィーナスフォート ファミリー","35.6250467","139.7797907"
"ヴィーナスフォート グランド店","東京都 江東区 青海1-3-15 ヴィーナスフォート","35.6248726","139.7799373"
"ダイバーシティ東京 プラザ店","東京都 江東区 青海1-1-10 ダイバーシティ東京 プラザ 2階","35.6245151","139.7754542"
"アクアシティお台場店","東京都 港区 台場1-7-1（区番R301） アクアシティお台場","35.6278663","139.7730611"
"豊洲センタービル店","東京都 江東区 豊洲3-3-3 豊洲センタービル 1F","35.6558163","139.7962845"
"ららぽーと豊洲 サウスポート2階店","東京都 江東区 豊洲2-4-9 ららぽーと豊洲","35.6558598","139.7925668"
"ららぽーと豊洲 シーサイドデッキ店","東京都 江東区 豊洲2-4-9 アーバンドック　ららぽーと豊洲","35.6558598","139.7925668"
"アトレ亀戸店","東京都 江東区 亀戸5-1-1 アトレ亀戸 1F","35.6976666","139.8263486"
"アリオ北砂店","東京都 江東区 北砂2-17-1 アリオ北砂","35.6825025","139.8257786"
"イオン南砂店","東京都 江東区 南砂6-7-15 イオン南砂店 1F","35.6716851","139.8357416"
"天王洲店","東京都 品川区 東品川2-2-4 天王洲ファーストタワー","35.6234775","139.7492752"
"エトモ大井町店","東京都 品川区 大井1-1-1 エトモ大井町","35.606212","139.734828"
"阪急大井町ガーデン店","東京都 品川区 大井1-50-5 新阪急大井町ビル","35.6056062","139.7342873"
"大崎ブライトタワー店","東京都 品川区 北品川5-6-1 大崎ブライトタワー","35.621661","139.730506"
"目黒店","東京都 品川区 上大崎2-25-2 新目黒東急ビル","35.6343141","139.7143543"
"アトレ目黒1店","東京都 品川区 上大崎2-16-9 アトレ目黒1","35.6340819","139.7158836"
"レミィ五反田店","東京都 品川区 東五反田2-1-2 レミィ五反田","35.625585","139.724578"
"西五反田店","東京都 品川区 西五反田1-18-1 ゴタンダ エクス 1F","35.6236892","139.7228604"
"ゲートシティ大崎店","東京都 品川区 大崎1-11-1 ゲートシティ大崎","35.6188486","139.7313854"
"TSUTAYA 大崎駅前店","東京都 品川区 大崎2-10-1","35.61745","139.7283221"
"アトレ大森店","東京都 大田区 大森北1-6-16 アトレ大森","35.5884005","139.7282054"
"羽田空港第２ターミナル南ピア店","東京都 大田区 羽田空港3-4-2 東京国際空港第２旅客ターミナルビル","35.5493932","139.7798386"
"羽田空港第1ターミナル　マーケットプレイス3階店","東京都 大田区 羽田空港3-3-2 東京国際空港第１ターミナルビル","35.5493932","139.7798386"
"羽田空港第2ターミナル北ピア店","東京都 大田区 羽田空港3-4-2 東京国際空港第２旅客ターミナルビル","35.5493932","139.7798386"
"グランデュオ蒲田店","東京都 大田区 西蒲田7-68-1 グランデュオ蒲田　西館","35.5625344","139.7165446"
"田園調布 東急スクエアガーデンサイト店","東京都 大田区 田園調布2-62-3 東急スクエアガーデンサイト　アネックス","35.597359","139.667425"
"表参道B-SIDE店","東京都 渋谷区 神宮前5-11-2 Ｂ－ＳＩＤＥ","35.6669564","139.7068195"
"原宿店","東京都 渋谷区 神宮前1-8-6 玉上ビル 1F","35.6701313","139.7064225"
"表参道 神宮前4丁目店","東京都 渋谷区 神宮前4-3-4 東京ソワール表参道ビル","35.6665889","139.7109061"
"神宮前6丁目店","東京都 渋谷区 神宮前6-17-11 JPR原宿ビル","35.6654821","139.7034628"
"東急プラザ 表参道原宿店","東京都 渋谷区 神宮前4-30-3 東急プラザ 表参道原宿","35.6687127","139.7059808"
"明治神宮前メトロピア店","東京都 渋谷区 神宮前1-18-22駅事務室 千代田線　明治神宮前駅","35.6696315","139.7028153"
"渋谷３丁目店","東京都 渋谷区 渋谷3-11-7 第２ミネギシビル","35.6564532","139.7054674"
"渋谷クロスタワー店","東京都 渋谷区 渋谷2-15-1 クロスタワー 3F","35.6587806","139.705258"
"広尾店","東京都 渋谷区 広尾5-14-5 ノースゲートビル","35.650465","139.72176"
"恵比寿ファーストスクエア店","東京都 渋谷区 恵比寿1-18-14 恵比寿ファーストスクエア","35.6472544","139.7146286"
"東京都立広尾病院店","東京都 渋谷区 恵比寿2-34-10","35.646638","139.7212356"
"恵比寿ユニオンビル店","東京都 渋谷区 恵比寿南1-2-10 エビス ユニオンビル １F","35.646113","139.707984"
"アトレ恵比寿店(2F)","東京都 渋谷区 恵比寿南1-5-5 アトレ恵比寿","35.64718","139.709845"
"アトレ恵比寿店(5F)","東京都 渋谷区 恵比寿南1-5-5 アトレ恵比寿店　5階","35.64666620000001","139.710307"
"代官山 蔦屋書店","東京都 渋谷区 猿楽町17-5 蔦屋書店3号館1F","35.6488531","139.6997908"
"渋谷公園通り店","東京都 渋谷区 神南1-7-5 渋谷公園通りＪＮビル 1F","35.6640235","139.6991708"
"渋谷ファイヤー通り店","東京都 渋谷区 神南1-12-10","35.663452","139.7009397"
"渋谷モディ店","東京都 渋谷区 神南1-21-3","35.6616411","139.700487"
"SHIBUYA TSUTAYA店","東京都 渋谷区 宇田川町21-6 QFRONT 1F","35.6598578","139.7003513"
"渋谷文化村通り店","東京都 渋谷区 道玄坂2-25-6 ホリウチビル 1F","35.6602618","139.6965818"
"渋谷マークシティ店","東京都 渋谷区 道玄坂1-12-3 渋谷マークシティ イースト 3F","35.6581538","139.6988079"
"恵比寿ガーデンプレイス店","東京都 渋谷区 恵比寿4-20-3 恵比寿ガーデンプレイスタワー","35.642145","139.713487"
"北参道店","東京都 渋谷区 千駄ケ谷3-39-9 IBF-PLANNING ビル","35.6779676","139.7060484"
"新宿サザンテラス店","東京都 渋谷区 代々木2-2-1 新宿サザンテラス内","35.6886093","139.6999444"
"新宿マインズタワー店","東京都 渋谷区 代々木2-1-1 新宿マインズタワー 1F","35.6865412","139.6988507"
"新宿南口店","東京都 渋谷区 代々木2-13-8 エスト新宿ビル","35.6871493","139.6965818"
"代々木店","東京都 渋谷区 代々木1-38-7 川本ビル","35.6827959","139.7014483"
"初台1丁目店","東京都 渋谷区 初台1-11-1","35.6796413","139.6869599"
"アコルデ代々木上原店","東京都 渋谷区 西原3-8-5 アコルデ代々木上原","35.6694392","139.6805951"
"イオンスタイル碑文谷店","東京都 目黒区 碑文谷4-1-1","35.6223648","139.6840341"
"学芸大駅前店","東京都 目黒区 鷹番3-15-25 鳥芳ビル 1F","35.6292047","139.6842579"
"自由が丘店","東京都 目黒区 自由が丘2-10-18 栗山ビルⅡ 1F","35.6087264","139.6673914"
"自由が丘駅前店","東京都 目黒区 自由が丘1-11-6 YG自由が丘ビル 1F","35.607916","139.669208"
"中目黒山手通り店","東京都 目黒区 上目黒3-1-3 プライムアーバン中目黒Ⅱ","35.6453248","139.6975591"
"中目黒駅前店","東京都 目黒区 上目黒2-1-1 中目黒ゲートタウンタワー B1F","35.6434847","139.6987305"
"中目黒 蔦屋書店","東京都 目黒区 上目黒1-22-10","35.6408657","139.6958103"
"目黒権之助坂店","東京都 目黒区 下目黒1-2-19 ホテルミッドイン目黒駅前","35.63417099999999","139.7134167"
"池尻2丁目店","東京都 世田谷区 池尻2-27-7 アリビエ池尻","35.6490168","139.6831413"
"三軒茶屋店","東京都 世田谷区 太子堂4-20-25 海津ビル 1F","35.6444801","139.6697533"
"駒沢1丁目店","東京都 世田谷区 駒沢1-24-5","35.6288299","139.6565725"
"下北沢店","東京都 世田谷区 北沢2-30-6 下北沢ＵＣビル 1F","35.662965","139.667207"
"代沢5丁目店","東京都 世田谷区 代沢5-8-13 クリークス代沢","35.6571214","139.6677531"
"芦花公園店","東京都 世田谷区 南烏山1-2-17","35.6680961","139.613016"
"成城店","東京都 世田谷区 成城2-40-25 パレブラン成城","35.6398828","139.599038"
"奥沢2丁目店","東京都 世田谷区 奥沢2-38-9","35.6073579","139.6711691"
"玉川3丁目店","東京都 世田谷区 玉川3-34-2 リオ・ヴェルテ","35.6159646","139.6236528"
"二子玉川ライズ　ドッグウッドプラザ店","東京都 世田谷区 玉川2-23-1 二子玉川ライズショッピングセンター　ドッグウッドプラザ","35.612891","139.627451"
"二子玉川公園店","東京都 世田谷区 玉川1-16-1","35.6089161","139.6329064"
"二子玉川 蔦屋家電店","東京都 世田谷区 玉川1-14-1 二子玉川ライズ　S.C.　テラスマーケット","35.611018","139.629675"
"用賀店","東京都 世田谷区 瀬田5-39-22","35.6264331","139.6264145"
"世田谷ビジネススクエア店","東京都 世田谷区 用賀4-10-1","35.6267441","139.6329332"
"TSUTAYA 馬事公苑店","東京都 世田谷区 上用賀2-4-18 コリーヌ馬事公苑1F","35.639527","139.6318491"
"玉川高島屋Ｓ・Ｃ店","東京都 世田谷区 玉川3-17-1 玉川高島屋Ｓ・Ｃ (南館７階)","35.6133511","139.6265751"
"四谷３丁目店","東京都 新宿区 四谷2-14-4 ミツヤ四谷ビル 1F","35.6875781","139.7233523"
"アトレ四谷店","東京都 新宿区 四谷1-5-25 アトレ四谷","35.6861625","139.7301605"
"西武新宿ＰｅＰｅ店","東京都 新宿区 歌舞伎町1-30-1 西武新宿ペペ","35.6944427","139.7002606"
"新宿サブナード店","東京都 新宿区 歌舞伎町1丁目サブナード1 新宿サブナード","35.6938095","139.7010902"
"新宿３丁目店","東京都 新宿区 新宿3-11-6 エクレ新宿 1F","35.6918093","139.7063949"
"新宿ダイアンビル店","東京都 新宿区 新宿3-36-6 大安ビル 1F","35.6903665","139.7018671"
"新宿新南口店","東京都 新宿区 新宿4-1-9 新宿ユースビル 1F","35.6889085","139.7025652"
"ルミネエスト新宿店","東京都 新宿区 新宿3-38-1 ルミネエスト ２Ｆ","35.691324","139.701144"
"新宿マルイ本館2階店","東京都 新宿区 新宿3-30-13 新宿マルイ本館","35.690947","139.70401"
"新宿マルイ本館8階店","東京都 新宿区 新宿3-30-13 新宿マルイ本館","35.690947","139.70401"
"新宿TSUTAYA店","東京都 新宿区 新宿3-26-14","35.691757","139.7024607"
"西新宿三井ビル店","東京都 新宿区 西新宿6-24-1 西新宿三井ビル","35.6950565","139.6889816"
"新宿グリーンタワービル店","東京都 新宿区 西新宿6-14-1 新宿グリーンタワー","35.6923627","139.6896219"
"新宿西口店","東京都 新宿区 西新宿1-12-1 高倉第一ビル","35.6898295","139.6973197"
"新宿ミロード店","東京都 新宿区 西新宿1-1-3","35.6913264","139.6995166"
"ルミネ新宿店","東京都 新宿区 西新宿1-1-5 ルミネ新宿１","35.689207","139.6993"
"小田急新宿店","東京都 新宿区 西新宿1-1-3 小田急百貨店","35.6913217","139.6995582"
"慶應義塾大学病院店","東京都 新宿区 信濃町35","35.6816754","139.7181206"
"飯田橋軽子坂店","東京都 新宿区 揚場町2-1 軽子坂ＭＮビル 1F","35.701887","139.7426098"
"飯田橋メトロピア店","東京都 新宿区 神楽坂1-13 南北線飯田橋駅構内","35.7019157","139.7439065"
"神楽坂下店","東京都 新宿区 神楽坂1-9-2 秀永ビル","35.7004195","139.7424641"
"新宿三井ビル店","東京都 新宿区 西新宿2-1-1 新宿三井ビルディング","35.6918716","139.6938522"
"新宿野村ビル店","東京都 新宿区 西新宿1-26-2 新宿野村ビル B1F","35.6926866","139.6950423"
"新宿エルタワー店","東京都 新宿区 西新宿1-6-1 新宿エルタワー","35.6921374","139.6972612"
"中野通り店","東京都 中野区 中野5-64-5 中野サンピオーネビル 1F","35.706887","139.665433"
"阿佐ヶ谷駅前店","東京都 杉並区 阿佐谷南3-58-1","35.7047068","139.6351517"
"ルミネ荻窪店","東京都 杉並区 上荻1-7-1 ルミネ荻窪店","35.7046234","139.6198476"
"TSUTAYA 浜田山店","東京都 杉並区 浜田山3-37-15","35.6851559","139.6252477"
"西武高田馬場駅店","東京都 新宿区 高田馬場1-35-2 高田馬場西武ラチ内コンコース","35.7126769","139.7038735"
"高田馬場早稲田通り店","東京都 新宿区 高田馬場1-25-32 １０８ビル 1F","35.7121782","139.706734"
"大塚駅前店","東京都 豊島区 北大塚2-13-1 Ｇ.Ｈ.Ｙ.ビル","35.7323192","139.7286799"
"アトレヴィ大塚店","東京都 豊島区 南大塚3-33-1 アトレヴィ大塚","35.731413","139.7282773"
"池袋サンシャイン通り店","東京都 豊島区 東池袋1-20-5 七富久ビル","35.7308215","139.7154516"
"池袋サンシャインシティ アルパ店","東京都 豊島区 東池袋3-1-1 サンシャインシティ アルパ 2F","35.7291819","139.7187462"
"池袋西口店","東京都 豊島区 西池袋1-17-10 エキニア池袋","35.7310402","139.7087288"
"ルミネ池袋店","東京都 豊島区 西池袋1-11-1 ルミネ池袋","35.728845","139.709308"
"エチカ池袋店","東京都 豊島区 西池袋3-28-14","35.7320808","139.7102748"
"池袋明治通り店","東京都 豊島区 南池袋1-18-17 Ｉ＆Ｋビル 1F","35.727933","139.711741"
"南池袋店","東京都 豊島区 南池袋2-16-4 ＳＫビル","35.727028","139.7124093"
"池袋ショッピングパーク店","東京都 豊島区 南池袋1-29-1 池袋ショッピングパーク","35.730711","139.712887"
"東武池袋店","東京都 豊島区 西池袋1-1-25 東武百貨店　池袋店","35.7297141","139.7102444"
"日本大学板橋病院店","東京都 板橋区 大谷口上町30-1 日本大学医学部附属板橋病院","35.7497532","139.6915286"
"イオン板橋店","東京都 板橋区 徳丸2-6-1 イオン板橋","35.769988","139.66081"
"東武成増駅店","東京都 板橋区 成増2-13-1 EQUiA成増 2階","35.777699","139.632638"
"豊島園駅前店","東京都 練馬区 練馬4-18-8 ティーズガーデン","35.7431486","139.647979"
"大泉学園ゆめりあフェンテ店","東京都 練馬区 東大泉5-43-1 ゆめりあフェンテ","35.748831","139.585499"
"井の頭公園店","東京都 武蔵野市 吉祥寺南町1-15-7 重川ビル","35.7008698","139.5782153"
"アトレ吉祥寺店","東京都 武蔵野市 吉祥寺南町1-1-24　 アトレ吉祥寺","35.7031145","139.5788053"
"キラリナ京王吉祥寺店","東京都 武蔵野市 吉祥寺南町2-1-25","35.7027613","139.5802428"
"吉祥寺東急店","東京都 武蔵野市 吉祥寺本町2-3-1 東急百貨店吉祥寺店 1F","35.7049287","139.5777324"
"吉祥寺駅前店","東京都 武蔵野市 吉祥寺本町1-15-9 吉祥寺岩崎ビル","35.7039973","139.5804045"
"武蔵境イトーヨーカドー店","東京都 武蔵野市 境南町2-3-6 イトーヨーカドー武蔵境店西館","35.7012596","139.5448"
"三鷹武蔵境通り店","東京都 三鷹市 井口2-1-2","35.6887982","139.5503098"
"アトレヴィ三鷹店","東京都 三鷹市 下連雀3-46-4","35.7024969","139.5609668"
"杏林大学病院店","東京都 三鷹市 新川6-20-2","35.6774804","139.5665032"
"仙川駅前店","東京都 調布市 仙川町1-49-2 パール仙川 1F","35.6612782","139.5858187"
"調布パルコ店","東京都 調布市 小島町1-38-1","35.6530225","139.5436847"
"府中くるる店","東京都 府中市 宮町1-50 くるる","35.6714741","139.4810332"
"nonowa東小金井店","東京都 小金井市 梶野町5-1-1 nonowa東小金井","35.7015523","139.5233259"
"nonowa武蔵小金井店","東京都 小金井市 本町6-14-29","35.7011677","139.506169"
"国分寺店","東京都 国分寺市 本町2-10-2 ハタマンビル 1F","35.700921","139.4813472"
"国立店","東京都 国立市 東1-6","35.6976276","139.4471985"
"立川若葉店","東京都 立川市 若葉町1-11-7","35.7202249","139.4367376"
"立川伊勢丹店","東京都 立川市 曙町2-5-1 伊勢丹立川店 1F","35.6995488","139.4130881"
"ルミネ立川店","東京都 立川市 曙町2-1-1 ルミネ立川店　1階","35.698361","139.4138573"
"ららぽーと立川立飛店","東京都 立川市 泉町935-1","35.7123868","139.414987"
"エキュート立川店","東京都 立川市 柴崎町3-1-1 エキュート立川","35.6977979","139.413588"
"イオンモール日の出店","東京都 西多摩郡 日の出町平井237-3 イオンモール日の出","35.7348728","139.2746001"
"イオンモール日の出パブリックコート店","東京都 西多摩郡 日の出町平井237-3 イオンモール日の出","35.7348728","139.2746001"
"ザ・モールみずほ１６店","東京都 西多摩郡 瑞穂町高根623 ザ・モールみずほ１６","35.786204","139.349751"
"グランデュオ立川店","東京都 立川市 柴崎町3-2-1","35.6973884","139.414818"
"日野万願寺店","東京都 日野市 万願寺4－24－6","35.6701963","139.4112136"
"イオンモール多摩平の森店","東京都 日野市 多摩平2-4-1","35.6622105","139.380864"
"京王八王子駅ビル店","東京都 八王子市 明神町3-27-1 京王八王子ショッピングセンター","35.657872","139.343162"
"八王子東急スクエア店","東京都 八王子市 旭町9-1 八王子東急スクエア　1F","35.657419","139.338768"
"セレオ八王子北館店","東京都 八王子市 旭町1-1 セレオ八王子","35.6560541","139.3392618"
"多摩野猿街道店","東京都 八王子市 堀之内2-12-1","35.6288204","139.4010806"
"フレンテ南大沢店","東京都 八王子市 南大沢2-1-6 フレンテ南大沢","35.6138281","139.3793473"
"サザンスカイタワー八王子店","東京都 八王子市 子安町4-7-1 サザンスカイタワー八王子","35.654613","139.337548"
"元八王子店","東京都 八王子市 元八王子町1-409-2","35.6648499","139.2878249"
"町田金森店","東京都 町田市 金森3-1-10","35.5298646","139.4620647"
"ぽっぽ町田店","東京都 町田市 原町田4-10-20","35.5423538","139.4490511"
"ルミネ町田店","東京都 町田市 原町田6-1-11","35.5423204","139.4456709"
"町田パリオ店","東京都 町田市 森野1-15-13 パリオビル","35.543414","139.4440173"
"多摩境店","東京都 町田市 小山ヶ丘3-2-8","35.6000792","139.3795723"
"町田東急ツインズ店","東京都 町田市 原町田6-4-1 町田東急ツインズ　ウエスト３階　W306","35.5424523","139.446605"
"小田急町田駅店","東京都 町田市 原町田6-12-20","35.5444313","139.4458264"
"鶴川店","東京都 町田市 能ヶ谷1-5-1 小田急マルシェ鶴川２","35.583246","139.480409"
"昭島モリタウン店","東京都 昭島市 田中町562-1 モリタウン","35.7141035","139.3621549"
"福生西友店","東京都 福生市 東町5-1 福生西友","35.7430849","139.3281275"
"カインズホーム青梅店","東京都 青梅市 新町6-9-4","35.7929186","139.3150259"
"清瀬駅前店","東京都 清瀬市 元町1-8-1 三福ビル","35.7725672","139.5198039"
"聖蹟桜ヶ丘オーパ店","東京都 多摩市 関戸4-72 聖蹟桜ヶ丘ＯＰＡ 1F","35.649689","139.446684"
"稲城東長沼店","東京都 稲城市 東長沼1711-6","35.6384851","139.5081305"
"ココリア多摩センター店","東京都 多摩市 落合1-46-1 ココリア多摩センター店","35.6223843","139.4248905"
"むさし村山新青梅街道店","東京都 武蔵村山市 榎3-2-3","35.7510341","139.3877161"
"イオンモールむさし村山店","東京都 武蔵村山市 榎1-1-3","35.7467457","139.3849914"
"JR東京駅日本橋口店","東京都 千代田区 丸の内1-9-1 丸の内中央ビル","35.6831579","139.7691071"
"丸の内ビル店","東京都 千代田区 丸の内2-4-1 丸の内ビルディング","35.68123509999999","139.7639949"
"明大前店","東京都 世田谷区 松原2-46-5 Ｒｙｕ’ｓビル 1F","35.6690246","139.650009"
"本厚木店","神奈川県 厚木市 中町2-6-20 相模興業本厚木中町ビル １F","35.4410044","139.3645276"
"東急プラザ戸塚店","神奈川県 横浜市戸塚区 戸塚町16-1 (区画番号Ｄ-101）","35.4015817","139.5332185"
"川崎モアーズ店","神奈川県 川崎市川崎区 駅前本町7 川崎モアーズ 2F","35.53053330000001","139.6996205"
"アトレ川崎店","神奈川県 川崎市川崎区 駅前本町26-1 アトレ川崎","35.5311414","139.6978074"
"川崎 ラ チッタデッラ店","神奈川県 川崎市川崎区 小川町4-1 LA CITTADELLA","35.5280701","139.6980493"
"川崎 丸井店","神奈川県 川崎市川崎区 日進町1-11 丸井 川崎店","35.5295751","139.6967383"
"武蔵小杉北口店","神奈川県 川崎市中原区 小杉町1-403 STMビル","35.577484","139.6593188"
"武蔵小杉東急スクエア店","神奈川県 川崎市中原区 小杉町3-472","35.5756767","139.6595783"
"ラゾーナ川崎店","神奈川県 川崎市幸区 堀川町72-1 ラゾーナ川崎プラザ","35.5331505","139.6958814"
"Qiz溝の口店","神奈川県 川崎市高津区 溝口1-13-1 Qiz溝の口","35.5998999","139.6131365"
"新百合ヶ丘エルミロード店","神奈川県 川崎市麻生区 上麻生1-4-1 小田急新百合ケ丘エルミロード","35.6031112","139.5092814"
"横浜北幸店","神奈川県 横浜市西区 北幸2-6-1 横浜APビル","35.4669603","139.6169604"
"横浜西口店","神奈川県 横浜市西区 南幸1-9-13 葉山ビル","35.46560729999999","139.6196691"
"横浜ジョイナス店","神奈川県 横浜市西区 南幸1-4 ジョイナス　B1F","35.466692","139.6211062"
"横浜スカイビル店","神奈川県 横浜市西区 高島2-19-12 スカイビル","35.464561","139.6246864"
"ルミネ横浜店","神奈川県 横浜市西区 高島2-16-1 ルミネ横浜 2F","35.465422","139.622921"
"横浜［アット！］店","神奈川県 横浜市西区 みなとみらい2-3-9 クイーンズスクエア横浜［アット！］１Ｆ","35.4560791","139.6338668"
"横浜ランドマークプラザ店","神奈川県 横浜市西区 みなとみらい2-2-1 横浜ランドマークタワー","35.45495400000001","139.6313859"
"TSUTAYA 横浜みなとみらい店","神奈川県 横浜市西区 みなとみらい4-7-1 ミッドスクウェア","35.459064","139.6304655"
"横浜アイマークプレイス店","神奈川県 横浜市西区 みなとみらい4-4-5","35.4601003","139.6281895"
"横浜モアーズ店","神奈川県 横浜市西区 南幸1-3-1 横浜モアーズ 2F","35.4671922","139.6220956"
"横浜モアーズ8階店","神奈川県 横浜市西区 南幸1-3-1 横浜モアーズ　8階","35.4670715","139.621962"
"横浜ビブレ店","神奈川県 横浜市西区 南幸2-15-13 横浜ビブレ 2F","35.4648747","139.6180265"
"日産グローバル本社ギャラリー店","神奈川県 横浜市西区 高島1-1-1 NISSAN GLOBAL　HEADQUARTERS　GALLERY","35.463495","139.626172"
"横浜ベイクォーター店","神奈川県 横浜市神奈川区 金港町1-10 横浜ベイクォーター　ANNEX ３階","35.4665051","139.6266506"
"キュービックプラザ新横浜3階店","神奈川県 横浜市港北区 新横浜2-100-45 キュービックプラザ新横浜 3F","35.5076604","139.617866"
"トレッサ横浜店","神奈川県 横浜市港北区 師岡町700 トレッサ横浜 北棟2階","35.5256405","139.6453816"
"大倉山駅前店","神奈川県 横浜市港北区 大倉山1－2－10","35.5216574","139.6301329"
"新横浜店","神奈川県 横浜市港北区 新横浜2-5-1 日総第１３ビル 1F","35.5088453","139.6151081"
"新横浜３丁目店","神奈川県 横浜市港北区 新横浜3-17-2 友泉新横浜ビル","35.5109412","139.6175977"
"キュービックプラザ新横浜2階店","神奈川県 横浜市港北区 新横浜2-100-45 キュービックプラザ新横浜　2Ｆ","35.5076604","139.617866"
"都筑パーキングエリア（上り線）店","神奈川県 横浜市港北区 新吉田町5203-1 第三京浜道路　都筑パーキングエリア（上り線）内","35.5437934","139.6028491"
"日吉店","神奈川県 横浜市港北区 日吉2-2-3 山村ビル 1F","35.55389359999999","139.6464646"
"モザイクモール港北店","神奈川県 横浜市都筑区 中川中央1-31-1 モザイクモール港北　（区画番号2193)","35.5550964","139.5780482"
"港北ノースポート・モール店","神奈川県 横浜市都筑区 中川中央1-25-1 ノースポート・モール","35.5520445","139.5792907"
"蔦屋書店 港北ミナモ店","神奈川県 横浜市都筑区 中川中央2-7-1 港北ミナモ","35.5505416","139.5755408"
"ららぽーと横浜店","神奈川県 横浜市都筑区 池辺町4035-1 ららぽーと横浜　(店舗番号35010)","35.5179093","139.5663144"
"東戸塚オーロラシティ店","神奈川県 横浜市戸塚区 品濃町537-1 オーロラシティ３４街区","35.430289","139.558749"
"たまプラーザテラス店","神奈川県 横浜市青葉区 美しが丘1-1-2 たまプラーザテラスゲートプラザ","35.5775672","139.5588061"
"新石川2丁目店","神奈川県 横浜市青葉区 新石川2-2-1 たまプラーザテラス サウスプラザ1F","35.5758673","139.5587731"
"あざみ野みすずが丘店","神奈川県 横浜市青葉区 あざみ野南4-5-7","35.5605342","139.5417293"
"アピタ長津田店","神奈川県 横浜市緑区 長津田みなみ台4-7-1 アピタ長津田","35.518482","139.498866"
"青葉台東急スクエア店","神奈川県 横浜市青葉区 青葉台2-1-1 青葉台東急スクエア Ｓｏｕｔｈ 1F","35.5420693","139.5159342"
"横浜鶴見店","神奈川県 横浜市鶴見区 諏訪坂5-27","35.515014","139.6655188"
"CIAL鶴見店","神奈川県 横浜市鶴見区 鶴見中央1-1-2 CIAL鶴見","35.507957","139.676807"
"横浜ワールドポーターズ店","神奈川県 横浜市中区 新港2-2-1 横浜ワールドポーターズ","35.4540281","139.6387606"
"関内馬車道店","神奈川県 横浜市中区 常盤町4-45 アートビル 1F","35.4467571","139.6356852"
"横浜公園店","神奈川県 横浜市中区 日本大通り60 朝日生命横浜ビル 1F","35.445516","139.6404669"
"横浜チャイナタウン店","神奈川県 横浜市中区 山下町79-1 イーストハイム 1F","35.4440338","139.6476702"
"桜木町駅前店","神奈川県 横浜市中区 桜木町1-101-1 クロスゲート 2F","35.4507062","139.6326364"
"CIAL桜木町店","神奈川県 横浜市中区 桜木町1-1","35.4502431","139.6315035"
"横浜元町店","神奈川県 横浜市中区 元町1-13-5 ラヴィ元町 1F","35.441611","139.650672"
"ウィング上大岡店","神奈川県 横浜市港南区 上大岡西1-6-1 ウィング上大岡 2F","35.4085067","139.5963938"
"港南台バーズ店","神奈川県 横浜市港南区 港南台3-1-3 港南台バーズ","35.375082","139.5774908"
"らびすた新杉田店","神奈川県 横浜市磯子区 杉田1-1-1 らびすた新杉田","35.3860701","139.618888"
"横浜ベイサイドマリーナ店","神奈川県 横浜市金沢区 白帆4-2 マリーナプラザ 1F","35.3796157","139.6446114"
"イオン金沢八景店","神奈川県 横浜市金沢区 泥亀1-27-1 イオン金沢八景","35.333712","139.6224178"
"ショッパーズプラザ横須賀シーサイドビレッジ店","神奈川県 横須賀市 本町2-1-12 ショッパーズプラザ横須賀","35.282436","139.661274"
"横須賀モアーズシティ店","神奈川県 横須賀市 若松町2-30 横須賀モアーズシティ 2F","35.2782445","139.6701893"
"横浜ビジネスパーク店","神奈川県 横浜市保土ヶ谷区 神戸町134 横浜ビジネスパーク/プレッツォ","35.4540727","139.5970814"
"葉山海岸通り店","神奈川県 三浦郡 葉山町堀内980 葉山館","35.274999","139.573173"
"二俣川西友店","神奈川県 横浜市旭区 二俣川2-52-1 西友二俣川店","35.4609403","139.5335985"
"大和オークシティ店","神奈川県 大和市 下鶴間1-2-1 イオン大和ショッピングセンター","35.4889071","139.4581892"
"YAMATO文化森店","神奈川県 大和市 大和南1-8-1 YAMATO文化森","35.4694225","139.4652923"
"厚木及川店","神奈川県 厚木市 及川1101-1","35.4700141","139.3404432"
"EXPASA海老名サービスエリア（上り線）店","神奈川県 海老名市 大谷南5-1-1 東名高速道路　海老名サービスエリア(上り線）内","35.4321431","139.3987527"
"海老名店","神奈川県 海老名市 中央1-4-1 ビナウォーク５番館","35.4521358","139.3926582"
"海老名中央店","神奈川県 海老名市 中央2-2-8","35.4483262","139.3919502"
"ららぽーと海老名店","神奈川県 海老名市 扇町13-1　 ららぽーと海老名　2F","35.4561009","139.3890181"
"蔦屋書店 海老名市立中央図書館店","神奈川県 海老名市 上めぐみ町7ー1","35.467299","139.421392"
"戸塚店","神奈川県 横浜市戸塚区 戸塚町10 ラピス戸塚１ 1F","35.4013976","139.5346023"
"大船ルミネウィング店","神奈川県 鎌倉市 大船1-4-1 ルミネウィング","35.3531863","139.531098"
"鎌倉店","神奈川県 鎌倉市 小町1-2-7 鎌倉とうきゅう","35.318228","139.550997"
"鎌倉御成町店","神奈川県 鎌倉市 御成町15-11","35.3196226","139.5478117"
"逗子駅前店","神奈川県 逗子市 逗子1-4-1 菊池ビルディング","35.296861","139.579256"
"ＪＲ東海 小田原駅店","神奈川県 小田原市 城山1-1-1 JR小田原駅構内","35.2560761","139.1557863"
"南足柄店","神奈川県 南足柄市 竹松1003","35.32619529999999","139.1174228"
"小田原飯泉店","神奈川県 小田原市 飯泉374-1","35.2895359","139.1739942"
"小田原Ｄｙｎａｃｉｔｙ ＷＥＳＴ店","神奈川県 小田原市 中里208 Ｄｙｎａｃｉｔｙ ＷＥＳＴ 1F","35.2839661","139.1855282"
"江ノ島店","神奈川県 藤沢市 片瀬海岸2-18-21 江ノ島テラス","35.3104528","139.479993"
"テラスモール湘南店","神奈川県 藤沢市 辻堂神台1-3-1 テラスモール湘南","35.3382315","139.4463897"
"ミスターマックス湘南藤沢ショッピングセンター店","神奈川県 藤沢市 辻堂新町4-3-5 ミスターマックス湘南藤沢ショッピングセンター","35.3398337","139.4647401"
"湘南 蔦屋書店","神奈川県 藤沢市 辻堂元町6-20-1","35.3343701","139.4642355"
"ルミネ藤沢店","神奈川県 藤沢市 藤沢438-1 ルミネ藤沢","35.3390852","139.4870559"
"イオン橋本店","神奈川県 相模原市緑区 橋本6-2-1 イオン橋本","35.5962416","139.3449311"
"アリオ橋本店","神奈川県 相模原市緑区 大山町1-22 アリオ橋本","35.5909158","139.3497595"
"相模原共和店","神奈川県 相模原市中央区 共和4-19-20","35.5625571","139.3968302"
"相模大野レガロ店","神奈川県 相模原市南区 相模大野3-16-1 レガロ 1F","35.53252750000001","139.4354408"
"小田急相模大野ステーションスクエア店","神奈川県 相模原市南区 相模大野3-8-1","35.5312888","139.437047"
"北里大学病院店","神奈川県 相模原市南区 北里1-15-1 北里大学病院本館1階","35.5383573","139.3927379"
"湘南台駅ビル店","神奈川県 藤沢市 湘南台2-15 小田急マルシェ湘南台２","35.396207","139.4668347"
"湘南台イトーヨーカドー店","神奈川県 藤沢市 石川6-2-1 イトーヨーカドー湘南台店","35.392371","139.446713"
"茅ヶ崎スルガビル店","神奈川県 茅ヶ崎市 元町2-3 Ｇ．Ｃ．ＣＨＩＧＡＳＡＫＩ 3F","35.3312164","139.406646"
"平塚田村店","神奈川県 平塚市 田村1-5-7 クロスガーデン平塚","35.3662934","139.3612964"
"ららぽーと湘南平塚店","神奈川県 平塚市 天沼10-1","35.3379406","139.3560477"
"平塚ラスカ店","神奈川県 平塚市 宝町1-1 ラスカステーションビル 3F","35.3281691","139.3506014"
"イオン秦野店","神奈川県 秦野市 入船町12-1 イオン秦野","35.3780608","139.2281582"
"伊勢原成瀬店","神奈川県 伊勢原市 下糟屋2008-1","35.4083876","139.3243385"
"東海大学医学部付属病院店","神奈川県 伊勢原市 下糟屋143 東海大学医学部付属病院","35.4067513","139.3152096"
"CoCoLo長岡店","新潟県 長岡市 城内町1-611-1 CoCoLo長岡","37.4466736","138.8534103"
"長岡リバーサイド千秋店","新潟県 長岡市 千秋2-278 リバーサイド千秋","37.4611094","138.8269185"
"上越店","新潟県 上越市 下門前1766","37.1579692","138.2532835"
"新潟松崎店","新潟県 新潟市東区 松崎862","37.9338877","139.1132502"
"新潟万代シテイ店","新潟県 新潟市中央区 万代1-6-1","37.9162733","139.0553363"
"イオンモール新潟南店","新潟県 新潟市江南区 下早通柳田1-1-1 イオンモール新潟南","37.8760671","139.0812391"
"新潟紫竹山店","新潟県 新潟市中央区 紫竹山5-2-19","37.897312","139.0680337"
"新潟女池店","新潟県 新潟市中央区 女池上山2-9-19","37.8922728","139.0259422"
"黒埼パーキングエリア（下り線）店","新潟県 新潟市西区 木場1206-3 黒埼パーキングエリア（下り線）","37.8237858","138.9830298"
"アピタ新潟西店","新潟県 新潟市西区 小新5-7-21 アピタ 新潟西店","37.88041800000001","139.003319"
"イオンモール新発田店","新潟県 新発田市 住吉町5-11-5 イオンモール新発田","37.9425743","139.3092687"
"マリエとやま店","富山県 富山市 桜町1-1-61 マリエとやま 1階","36.7005747","137.2139211"
"富山総曲輪フェリオ店","富山県 富山市 総曲輪3-8-6 総曲輪フェリオ","36.6893886","137.2130305"
"富山環水公園店","富山県 富山市 湊入船町5 富山富岩運河環水公園","36.709414","137.2124899"
"富山藤の木店","富山県 富山市 開1330","36.6816214","137.2599095"
"三井アウトレットパーク北陸小矢部店","富山県 小矢部市 西中野972-1","36.6894706","136.8812873"
"イオンモール高岡店","富山県 高岡市 下伏間江383","36.7239137","137.0168282"
"イオンモール高岡 2階 セントラルコート店","富山県 高岡市 下伏間江383 イオンモール高岡","36.7238444","137.0167389"
"富山ファボーレ店","富山県 富山市 婦中町下轡田165-1 フューチャーシティ　ファボーレ","36.6630155","137.1713662"
"富山けやき通り店","富山県 富山市 布瀬町南3-6-7","36.67341589999999","137.2014573"
"金沢フォーラス6Fクーゴ店","石川県 金沢市 堀川新町3-1 金沢フォーラス 6F","36.578789","136.6491646"
"金沢フォーラス店","石川県 金沢市 堀川新町3-1 金沢フォーラス","36.57934789999999","136.6498105"
"香林坊東急スクエア店","石川県 金沢市 香林坊2-1-1 香林坊東急スクエア","36.5623545","136.6532496"
"金沢鞍月店","石川県 金沢市 戸水1-429","36.6020195","136.6207116"
"武蔵ヶ辻めいてつエムザ店","石川県 金沢市 武蔵町15-1 めいてつ・エムザ","36.5727184","136.6549409"
"金沢大桑店","石川県 金沢市 大桑2-394","36.5347314","136.6758685"
"金沢野々市店","石川県 野々市市 三納1-46","36.51839349999999","136.6084407"
"フェアモール松任店","石川県 白山市 幸明町232-1 フェアモール松任","36.51761279999999","136.5776229"
"イオンモールかほく店","石川県 かほく市 内日角タ25 イオンモールかほく","36.7091024","136.7009917"
"福井二の宮 藤島通り店","福井県 福井市 二の宮3-2-11","36.0834395","136.2186663"
"フェアモール福井店","福井県 福井市 大和田2-1230 フェアモール福井","36.095129","136.250793"
"福井西環状　やしろ店","福井県 福井市 渕2-1717","36.0455021","136.182073"
"福井県済生会病院店","福井県 福井市 和田中町舟橋7-1 福井県済生会病院","36.047254","136.252198"
"南条サービスエリア（上り線）店","福井県 南条郡 南越前町牧谷39 南条サービスエリア（上り線）","35.8303246","136.2009412"
"甲府山交百貨店","山梨県 甲府市 丸の内1-3-3 山交百貨店","35.6660573","138.5695067"
"ラザウォーク甲斐双葉店","山梨県 甲斐市 志田柿木645-1 ラザウォーク甲斐双葉","35.6845096","138.4838395"
"甲府和戸通り店","山梨県 甲府市 向町172-4","35.6486322","138.6125041"
"富士吉田店","山梨県 富士吉田市 上吉田3381-1","35.47516470000001","138.8078015"
"談合坂サービスエリア(上り線）店","山梨県 上野原市 大野4943 談合坂サービスエリア(上り線）","35.6281203","139.0458878"
"EXPASA談合坂サービスエリア（下り線）店","山梨県 上野原市 野田尻710 中央自動車道　談合坂サービスエリア(下り線）内","35.6324062","139.0637418"
"甲府リバーシティ店","山梨県 中央市 山ノ神1122 リバーシティショッピングセンター","35.61473","138.513389"
"イオンモール甲府昭和店","山梨県 中巨摩郡 昭和町飯喰1505-1 イオンモール甲府昭和","35.62322700000001","138.527211"
"甲府アルプス通り店","山梨県 中巨摩郡 昭和町清水新居59-12","35.6510835","138.5433518"
"山梨大学医学部附属病院店","山梨県 中央市 下河東1110 山梨大学医学部附属病院","35.6089484","138.5393585"
"長野駅前店","長野県 長野市 南千歳町826 C-one","36.6449331","138.1879412"
"MIDORI長野店","長野県 長野市 南千歳1-22-6","36.64393889999999","138.1889383"
"長野南高田店","長野県 長野市 南高田1-16-7","36.6428603","138.2229231"
"長野川中島店","長野県 長野市 稲里町中氷鉋963-1","36.61008710000001","138.1705435"
"イオンモール佐久平店","長野県 佐久市 佐久平駅南11－10 イオンモール佐久平","36.27577640000001","138.4641994"
"イオン上田店","長野県 上田市 常田2-12-18 イオン上田ショッピングセンター","36.3921441","138.257705"
"アリオ上田店","長野県 上田市 天神3-5-1 アリオ上田","36.3994343","138.2444176"
"軽井沢・プリンスショッピングプラザ店","長野県 北佐久郡 軽井沢町軽井沢 軽井沢・プリンスショッピングプラザ・ニューイースト","36.3414309","138.6380481"
"TSUTAYA 東松本店","長野県 松本市 元町1-2-1","36.2398967","137.9807108"
"MIDORI松本店","長野県 松本市 深志1-1-1 MIDORI松本店","36.231296","137.9645105"
"TSUTAYA 松本庄内店","長野県 松本市 出川1-1-3","36.2199852","137.9768205"
"松本なぎさライフサイト店","長野県 松本市 渚１-7-1 なぎさライフサイト","36.2338242","137.9551507"
"諏訪湖サービスエリア（上り線）店","長野県 諏訪市 豊田所久保3171 中央自動車道　諏訪湖サービスエリア(上り線）内","36.0269926","138.0778445"
"諏訪城南店","長野県 諏訪市 城南2-2312-1","36.0303458","138.1207702"
"レイクウォーク岡谷店","長野県 岡谷市 銀座1-1-5 レイクウォーク岡谷","36.0659745","138.0517822"
"松本平田店","長野県 松本市 平田東2-18-14","36.1899025","137.9638368"
"梓川サービスエリア(上り線)店","長野県 安曇野市 豊科高家961-1 梓川サービスエリア(上り線)","36.2704636","137.932108"
"みんなの森 ぎふメディアコスモス店","岐阜県 岐阜市 司町40-5 みんなの森 ぎふメディアコスモス","35.42744340000001","136.7598439"
"岐阜茜部店","岐阜県 岐阜市 茜部野瀬2-14-1","35.3769817","136.7464297"
"ASTY岐阜店","岐阜県 岐阜市 橋本町1-10-1 ASTY岐阜3F","35.4094298","136.7578999"
"モレラ岐阜店","岐阜県 本巣市 三橋1100 モレラ岐阜","35.454937","136.6726465"
"関 マーゴ店","岐阜県 関市 倉知516 サンサンシティ　マーゴ","35.4786761","136.9002741"
"羽島福寿店","岐阜県 羽島市 福寿町本郷千代田72","35.3193246","136.6836537"
"岐阜正木店","岐阜県 岐阜市 正木中2-3-8","35.4492195","136.741908"
"イオンモール大垣店","岐阜県 大垣市 外野2-100 イオンモール大垣","35.3367469","136.6140344"
"イオンモール各務原店","岐阜県 各務原市 那加萱場町3-8 イオンモール各務原","35.3924119","136.8231806"
"高山岡本店","岐阜県 高山市 岡本町2-47","36.1415491","137.2464985"
"恵那峡サービスエリア（下り線）店","岐阜県 恵那市 大井町2194-82 恵那峡サービスエリア（下り線）","35.4541162","137.4386895"
"TSUTAYA 駿河湾沼津サービスエリア(上り線)店","静岡県 沼津市 根古屋998-27 新東名高速道路　駿河湾沼津サービスエリア上り線","35.144329","138.80832"
"EXPASA足柄サービスエリア（下り線）店","静岡県 駿東郡 小山町桑木599 東名高速道路　EXPASA足柄（下り線）","35.3132577","138.9673111"
"三島玉川店","静岡県 三島市 玉川247-1","35.1089978","138.9140383"
"EXPASA足柄サービスエリア（上り線）店","静岡県 御殿場市 深沢1801-1 東名高速道路　EXPASA足柄（上り線）","35.3142451","138.9629135"
"イオンタウン富士南店","静岡県 富士市 鮫島118-10 イオンタウン富士南","35.1402074","138.6756481"
"富士高島店","静岡県 富士市 高島町68","35.1579211","138.6729508"
"イオンモール富士宮店","静岡県 富士宮市 浅間町1-8　 イオンモール富士宮","35.2209351","138.6117145"
"静岡呉服町通り店","静岡県 静岡市葵区 呉服町2-8-9 アクロス辻源ビル 1F","34.973565","138.3842972"
"TSUTAYA すみや静岡本店","静岡県 静岡市葵区 呉服町1-20","34.9758675","138.3804375"
"MARK IS 静岡店","静岡県 静岡市葵区 柚木191 MARK IS 静岡","34.984281","138.40946"
"ＡＳＴＹ静岡店","静岡県 静岡市葵区 黒金町47 ＡＳＴＹ静岡","34.9715548","138.3880158"
"静岡駅 新幹線ラチ内店","静岡県 静岡市葵区 黒金町39-1 JRCP静岡営業所","34.9718125","138.3895563"
"静岡マルイ店","静岡県 静岡市葵区 伝馬町5-4 静岡マルイ店","34.9740662","138.3878357"
"富士川サービスエリア（下り線）店","静岡県 富士市 岩淵1348－3 東名高速道路 富士川サービスエリア（下り線）","35.1590504","138.6202405"
"アピタ静岡店","静岡県 静岡市駿河区 石田1-5-1 アピタ静岡店","34.9596447","138.4016897"
"藤枝蓮華寺池公園店","静岡県 藤枝市 本町1-2","34.8735777","138.2585693"
"浜松新津町店","静岡県 浜松市中区 新津町682-1","34.7201504","137.7393746"
"浜松 メイワン エキマチウエスト店","静岡県 浜松市中区 砂山町6-2 EKIMACHI WEST","34.70379940000001","137.7352363"
"浜松 メイワン 2階店","静岡県 浜松市中区 砂山町6-1","34.7041825","137.7344534"
"ザザシティ浜松店","静岡県 浜松市中区 鍛冶町15 ザザシティ浜松 西館","34.70473090000001","137.7293139"
"浜松イズム店","静岡県 浜松市中区 鍛冶町140 イズム・ハママツ","34.7040169","137.7317357"
"浜松駅 新幹線ラチ内店","静岡県 浜松市中区 鍛冶町140 イズム・ハママツ（浜松イズム店）","34.7040169","137.7317357"
"浜名湖サービスエリア店","静岡県 浜松市北区 三ケ日町佐久米61-2 東名高速道路 浜名湖サービスエリア内","34.7814548","137.6074122"
"浜松半田山店","静岡県 浜松市東区 半田山4-4-25","34.7729088","137.7437936"
"浜松佐鳴台店","静岡県 浜松市中区 佐鳴台3-52-34","34.7096732","137.69707"
"TSUTAYA 佐鳴台店","静岡県 浜松市西区 入野町621-1","34.7007853","137.6989202"
"イオンモール浜松志都呂店","静岡県 浜松市西区 志都呂2-37-1","34.6968318","137.6510942"
"プレ葉ウォーク浜北店","静岡県 浜松市浜北区 貴布祢1200","34.7975881","137.7794703"
"イオンモール浜松市野店","静岡県 浜松市東区 天王町諏訪1981-3 イオンモール浜松市野","34.740058","137.7631059"
"ららぽーと磐田店","静岡県 磐田市 高見丘1200 ららぽーと磐田","34.7503444","137.8419446"
"豊橋ココラフロント店","愛知県 豊橋市 駅前大通1-55 ココラフロント","34.7621834","137.383956"
"ホリデイ・スクエア豊橋店","愛知県 豊橋市 藤沢町141","34.7440186","137.371641"
"豊川正岡店","愛知県 豊川市 正岡町流田506","34.8017445","137.3866324"
"イオンモール岡崎店","愛知県 岡崎市 戸崎町外山38-5","34.9374382","137.1640585"
"岡崎竜美店","愛知県 岡崎市 竜美西2-9-13","34.9389631","137.1668554"
"NEOPASA岡崎サービスエリア店","愛知県 岡崎市 宮石町六ツ田10－4　 新東名高速道路　岡崎サービスエリア内","35.0341663","137.2223272"
"ヴェルサウォーク西尾店","愛知県 西尾市 高畠町3-23-9 ヴェルサウォーク西尾","34.863351","137.059236"
"安城百石店","愛知県 安城市 百石町１-5-9","34.9528254","137.0778835"
"安城篠目店","愛知県 安城市 篠目町肥田59-1","34.9790996","137.065548"
"碧南城山店","愛知県 碧南市 城山町1-81-3","34.893111","137.0073947"
"名駅地下街 サンロード店","愛知県 名古屋市中村区 名駅4-7-25 名駅地下街サンロード","35.1694724","136.8847193"
"名駅地下街 ユニモール店","愛知県 名古屋市中村区 名駅4-5-26先 ユニモール","35.1716246","136.8863118"
"ＪＲ名古屋駅 太閤通南口店","愛知県 名古屋市中村区 名駅1-1-4","35.170711","136.8825448"
"名古屋ＪＲセントラルタワーズ店","愛知県 名古屋市中村区 名駅1-1-4 ＪＲセントラルタワーズ 13F","35.1708497","136.8828823"
"KITTE名古屋店","愛知県 名古屋市中村区 名駅1-1-1","35.1730412","136.882417"
"名古屋 JRゲートタワー店","愛知県 名古屋市中村区 名駅1-1-3 JRゲートタワー 15F","35.17180930000001","136.883164"
"名鉄百貨店名古屋店","愛知県 名古屋市中村区 名駅1-2-1 名鉄百貨店本店本館","35.1696223","136.8839585"
"上小田井mozoワンダーシティ店","愛知県 名古屋市西区 二方町40 mozo ワンダーシティ","35.2246989","136.8829572"
"JR名古屋駅　広小路口店","愛知県 名古屋市中村区 太閤1-3-16 ＪＲＣＰ　名古屋支店","35.1697568","136.8814301"
"JR名古屋駅 新幹線南ラチ内店","愛知県 名古屋市中村区 太閤1-3-16 ＪＲＣＰ　名古屋支店","35.1697568","136.8814301"
"イオンモール名古屋みなと店","愛知県 名古屋市港区 品川町2-1-6 イオンモール名古屋みなと","35.103266","136.8633403"
"イオンモール名古屋茶屋店","愛知県 名古屋市港区 西茶屋2-11 イオンモール名古屋茶屋","35.1034299","136.8250536"
"金山駅南口店","愛知県 名古屋市熱田区 金山町1-2-26 ヤガミ金山ビル","35.142092","136.9011322"
"名鉄 神宮前駅店","愛知県 名古屋市熱田区 神宮3-6-34 パレマルシェ神宮店","35.1257268","136.9117062"
"イオンモール熱田店","愛知県 名古屋市熱田区 六野1-201 イオンモール熱田","35.13722","136.908937"
"名古屋滝ノ水店","愛知県 名古屋市緑区 上旭2-201","35.0918545","136.9737804"
"アピタ鳴海店","愛知県 名古屋市緑区 鳴海町伝治山3-9 アピタ鳴海店","35.0939966","136.959521"
"ヒルズウォーク徳重ガーデンズ店","愛知県 名古屋市緑区 鳴海町徳重18-44 ヒルズウォーク徳重ガーデンズ","35.094327","136.999283"
"イオンモール大高オレンジコート店","愛知県 名古屋市緑区 南大高2-450 イオンモール大高","35.0526398","136.9478246"
"イオンモール大高店","愛知県 名古屋市緑区 南大高2-450 イオンモール大高","35.0526398","136.9478246"
"桜通り大津店","愛知県 名古屋市中区 丸の内3-20-17 KDX桜通ビル 1F","35.1740715","136.9057936"
"三井住友銀行名古屋ビル店","愛知県 名古屋市中区 錦2-18-19 三井住友銀行名古屋ビル 1F","35.1688811","136.8994269"
"栄広小路店","愛知県 名古屋市中区 錦3-24-24 錦324ビル","35.1691052","136.9059073"
"名古屋インターシティ伏見店","愛知県 名古屋市中区 錦1-11-11 名古屋インターシティ B1F","35.169709","136.896777"
"栄 チェリープラザ店","愛知県 名古屋市中区 栄3-19-8 栄ミナミ平和ビル","35.1656276","136.9045429"
"ベストウェスタンホテル名古屋栄4丁目店","愛知県 名古屋市中区 栄4-6-1 ベストウェスタンホテル名古屋","35.169057","136.913125"
"栄ラシック店","愛知県 名古屋市中区 栄3-6-1","35.1674678","136.9075704"
"名古屋久屋南店","愛知県 名古屋市中区 栄3-31-10 松坂屋久屋南パークテラス","35.163596","136.908431"
"栄広小路七間町店","愛知県 名古屋市中区 栄3-1-8 名古屋栄東急REIホテル 1F","35.168317","136.903121"
"栄大津通店","愛知県 名古屋市中区 栄3-27-7 サンサカエビル","35.1650823","136.9069685"
"名古屋大須万松寺店","愛知県 名古屋市中区 大須3-31-14 山惣第２ビル","35.15816230000001","136.9055675"
"アスナル金山店","愛知県 名古屋市中区 金山1-17-1","35.1436873","136.9005078"
"名古屋 伏見 ＡＴビル店","愛知県 名古屋市中区 錦1-18-22 名古屋ATビル","35.168501","136.8944251"
"新栄葵町店","愛知県 名古屋市東区 葵1-21-4","35.17064","136.9212218"
"栄公園 オアシス２１店","愛知県 名古屋市東区 東桜1-11-1 オアシス21","35.1709007","136.909673"
"イオンモールナゴヤドーム前店","愛知県 名古屋市東区 矢田南4-102-3 イオンモールナゴヤドーム前","35.1871751","136.9440943"
"イオンモールナゴヤドーム前フードコート店","愛知県 名古屋市東区 矢田南4-102-3","35.1871751","136.9440943"
"草叢BOOKS 新守山店","愛知県 名古屋市守山区 新守山2830 アピタ新守山","35.2048283","136.9486822"
"アピタ千代田橋店","愛知県 名古屋市千種区 千代田橋2-1-1 アピタ千代田橋店","35.1873","136.969541"
"名古屋自由ヶ丘店","愛知県 名古屋市千種区 鹿子殿14-8","35.178927","136.9756062"
"星が丘テラス店","愛知県 名古屋市千種区 星が丘元町14-25 星が丘テラスWEST","35.160778","136.9849512"
"本山駅前店","愛知県 名古屋市千種区 東山通1-1-1","35.1613266","136.9710707"
"覚王山店","愛知県 名古屋市千種区 末盛通1-1 末盛ビル","35.1667091","136.9521828"
"イオンタウン千種店","愛知県 名古屋市千種区 千種2-16-13 イオンタウン千種","35.1618857","136.9238262"
"名古屋大学附属図書館店","愛知県 名古屋市千種区 不老町 名古屋大学附属中央図書館","35.1551063","136.9637311"
"藤が丘effe店","愛知県 名古屋市名東区 藤が丘170-4 effe","35.182068","137.0216195"
"御器所駅前店","愛知県 名古屋市昭和区 阿由知通4-2-1","35.1493075","136.9332714"
"名古屋市立大学病院店","愛知県 名古屋市瑞穂区 瑞穂町川澄1 名古屋市立大学病院　外来診療棟","35.1397687","136.9356798"
"日進竹の山店","愛知県 日進市 竹の山二丁目2306番地","35.15699250000001","137.0339284"
"豊田上原店","愛知県 豊田市 上原町一丁田74-１","35.1157827","137.1673656"
"TSUTAYA 東浦店","愛知県 知多郡 東浦町緒川上家左川123-1 エイデン東浦店内","34.9842298","136.9711959"
"イオンモール東浦店","愛知県 知多郡 東浦町緒川旭13-2","34.97952","136.974064"
"松坂屋 豊田店","愛知県 豊田市 西町6-85-1 松坂屋 豊田店","35.08670499999999","137.155014"
"アピタ豊田元町店","愛知県 豊田市 土橋町1-21 アピタ豊田元町店","35.0624956","137.1312996"
"ギャラリエアピタ知立店","愛知県 知立市 長篠町大山18-1 ギャラリエアピタ知立","34.9978054","137.0530352"
"大府柊山店","愛知県 大府市 柊山町3-401","35.0198164","136.9530048"
"ラスパ太田川店","愛知県 東海市 大田町下浜田102-1 ラスパ太田川ショッピングセンター (南館1F)","35.0208124","136.8923786"
"中部国際空港セントレア店","愛知県 常滑市 セントレア１－１ 中部国際空港セントレア(4F)","34.8590935","136.8146005"
"中部国際空港出発ターミナル内店","愛知県 常滑市 セントレア１－１ 中部国際空港セントレア(3F)","34.8605389","136.8148471"
"中部国際空港第２セントレアビル店","愛知県 常滑市 セントレア1-1 第2セントレアビル","34.860817","136.8149097"
"イオンモール扶桑店","愛知県 丹羽郡 扶桑町南山名高塚5-1 イオンモール扶桑","35.361248","136.8998416"
"名古屋 アピタ長久手店","愛知県 長久手市 戸田谷901-1 アピタ長久手店","35.1725289","137.0383841"
"VIA MALL アピタ江南西店","愛知県 江南市 松竹町上野205 VIA MALL アピタ江南西","35.3428998","136.8566506"
"春日井南下原店","愛知県 春日井市 南下原町3-12-4","35.2678468","136.97092"
"ザ・モール春日井店","愛知県 春日井市 六軒屋町東丘22 ザ・モール春日井","35.2592334","136.982816"
"アピタ高蔵寺店","愛知県 春日井市 中央台2-5 アピタ高蔵寺店","35.282763","137.048889"
"テラスウォーク一宮店","愛知県 一宮市 両郷町1-2 テラスウォーク一宮","35.3106231","136.8167754"
"尾張一宮パーキングエリア（下り線）店","愛知県 一宮市 千秋町塩尻14-2 尾張一宮パーキングエリア（下り線）","35.280658","136.8546772"
"尾張一宮パーキングエリア（上り線）店","愛知県 一宮市 丹陽町三ツ井2709-6 尾張一宮パーキングエリア（上り線）","35.2780802","136.8459305"
"ASTY一宮店","愛知県 一宮市 栄3-1-1 ASTY一宮","35.302768","136.797184"
"リーフウォーク稲沢店","愛知県 稲沢市 長野7-1-2 リーフウォーク稲沢","35.2607152","136.8190237"
"イオンモール木曽川店","愛知県 一宮市 木曽川町黒田南八ツヶ池25-1","35.3484964","136.7735494"
"津島大坪店","愛知県 津島市 大坪町蛤田28-1","35.1616138","136.775611"
"アピタ四日市店","三重県 四日市市 安島1-3-31 LaLaスクエア四日市店","34.9683943","136.616618"
"イオンモール四日市北店","三重県 四日市市 富州原町2-40 イオンモール四日市北","35.0077893","136.6566478"
"イオンモール東員店","三重県 員弁郡 東員町長深510-1 イオンモール東員","35.06141","136.579509"
"イオンモール桑名店","三重県 桑名市 新西方1-22 イオンモール桑名","35.0723505","136.66268"
"桑名サンシパーク店","三重県 桑名市 大仲新田111-1 桑名サンシパーク","35.0805656","136.6067673"
"ジャズドリーム長島店","三重県 桑名市 長島町浦安368 三井アウトレットパーク　ジャズドリーム長島","35.0294155","136.7257579"
"EXPASA御在所サービスエリア（下り線）店","三重県 四日市市 山之一色町乱取口1491-2　 東名阪自動車道　EXPASA御在所(下り線）","35.0192541","136.5907128"
"EXPASA御在所サービスエリア（上り線)店","三重県 四日市市 山之一色町池の谷口1569-2 東名阪自動車道　EXPASA御在所(上り線）","35.018833","136.5911681"
"四日市尾平店","三重県 四日市市 尾平町天王川原1863-1","34.976493","136.58936"
"TSUTAYA 鈴鹿中央通店","三重県 鈴鹿市 算所町417-1","34.8739324","136.5523777"
"イオンモール鈴鹿店","三重県 鈴鹿市 庄野羽山4-1-2","34.8718303","136.5316485"
"ベイスクエア津店","三重県 津市 藤方716 BAY SQUARE Tsu","34.6830634","136.518871"
"久居インターガーデン店","三重県 津市 久居明神町風早2533 久居インターガーデン","34.683355","136.465032"
"イオンモール明和店","三重県 多気郡 明和町中村1223 イオンモール明和","34.5814391","136.6137919"
"イオンタウン伊勢ララパーク店","三重県 伊勢市 小木町538 イオンタウンイセララパーク","34.5066005","136.7222867"
"ビエラ大津店","滋賀県 大津市 春日町1-3","35.0033863","135.8646625"
"大津堅田店","滋賀県 大津市 今堅田2-12-7","35.1226784","135.9188204"
"大津パルコ店","滋賀県 大津市 打出浜14-30 大津パルコ 1F","35.0044388","135.8793744"
"三井アウトレットパーク滋賀竜王店","滋賀県 蒲生郡 竜王町薬師砂山1178-694 三井アウトレットパーク滋賀竜王","35.06084","136.100301"
"カインズモール彦根店","滋賀県 彦根市 馬場2-1-1","35.2791818","136.2444572"
"EXPASA多賀サービスエリア（下り線）店","滋賀県 犬上郡 多賀町敏満寺66-11 名神高速道路　EXPASA多賀（下り線）","35.2191153","136.2853271"
"多賀サービスエリア（上り線）店","滋賀県 犬上郡 多賀町敏満寺62-2 多賀サービスエリア（上り線）","35.2183834","136.2831971"
"近江八幡店","滋賀県 近江八幡市 鷹飼町北2-3-11","35.1276056","136.1055558"
"草津A・SQUARE店","滋賀県 草津市 西渋川1-23-23","35.0242214","135.9597829"
"草津国道１号店","滋賀県 草津市 草津１-20-20","35.01522","135.9658631"
"イオンモール草津店","滋賀県 草津市 新浜町300 イオンモール草津","34.997868","135.91321"
"滋賀長浜店","滋賀県 長浜市 川崎町265","35.3934521","136.2822687"
"東近江八日市店","滋賀県 東近江市八日市 上之町7-40","35.1131418","136.2031541"
"甲賀水口店","滋賀県 甲賀市 水口町水口6004-1","34.9661198","136.1680475"
"京都四条河原町店","京都府 京都市下京区 四条通寺町東入二丁目御旅町30番地 京都セントラルイン","35.0039642","135.7682076"
"京都四条通ヤサカビル店","京都府 京都市下京区 四条通柳馬場西入ル 立売中之町106 ヤサカ四条ビル","35.0038028","135.763925"
"ＬＡＱＵＥ四条烏丸店","京都府 京都市下京区 四条通室町東入函谷鉾町101 アーバンネット四条烏丸ビル","35.0040811","135.7592807"
"京都Porta店","京都府 京都市下京区 烏丸通塩小路下ル 東塩小路町902 駅前地下街ポルタ","34.9866169","135.7578092"
"京都Porta ウエスト店","京都府 京都市下京区 烏丸通塩小路下ル東塩小路町902 京都駅前地下街ポルタ312区画","34.9866334","135.7576273"
"京都タワー店","京都府 京都市下京区 烏丸通七条下ル 東塩小路町721-1　京都タワービル","34.9875617","135.7593496"
"からすま京都ホテル店","京都府 京都市下京区 烏丸通綾小路下ル 二帖半敷町652 からすま京都ホテル","35.0019035","135.7592767"
"京都マルイ店","京都府 京都市下京区 四条通河原町東入真町68番地","35.0034844","135.7697363"
"京都リサーチパーク店","京都府 京都市下京区 中堂寺粟田町91 KRPアメニティプラザ","34.9958472","135.7385504"
"TSUTAYA 京都リサーチパーク店","京都府 京都市下京区 中堂寺粟田町91　 京都リサーチパーク 9号館","34.9958039","135.7374784"
"イオンモールKYOTO店","京都府 京都市南区 西九条鳥居口町１","34.9828501","135.7558278"
"イオンモール京都桂川店","京都府 京都市南区 久世高田町376-1 イオンモール京都桂川　1階","34.963739","135.707946"
"北大路関西電力ビル店","京都府 京都市北区 小山北上総町50-1","35.0440082","135.7579517"
"京都三条大橋店","京都府 京都市中京区 三条通河原町東入ル中島町113 近江屋ビル 1F","35.0092197","135.7711964"
"京都新京極店","京都府 京都市中京区 新京極通三条下ル 桜之町421　小町ビル","35.007645","135.7672823"
"京都烏丸六角店","京都府 京都市中京区 六角通東洞院西入 堂之前町254","35.00761","135.7598822"
"京都錦小路店","京都府 京都市中京区 東洞院通蛸薬師下ル 元竹田町651","35.00507899999999","135.761261"
"京都三条烏丸ビル店","京都府 京都市中京区 三条通烏丸西入ル 御倉町85-1 ＫＤＸ京都烏丸ビル 1F","35.0087532","135.7594075"
"コトチカ烏丸御池店","京都府 京都市中京区 虎屋町地先","35.010662","135.759671"
"京都祇園ホテル店","京都府 京都市東山区 祇園町南側555 祇園ホテル 1F","35.0036793","135.7760898"
"京阪祇園四条駅店","京都府 京都市東山区 四条大橋東詰 「京阪祇園四条駅」構内 103区画","35.0037963","135.7724789"
"カナート洛北店","京都府 京都市左京区 高野西開町36 カナート洛北 1F","35.041084","135.778945"
"京都岡崎 蔦屋書店","京都府 京都市左京区 岡崎最勝寺町13 ロームシアター京都","35.0143818","135.7806701"
"山科駅前店","京都府 京都市山科区 安朱中小路町5 山科駅NKビル","34.9923189","135.8174367"
"松井山手店","京都府 京田辺市 松井ケ丘3-2－1","34.8320545","135.7290979"
"龍谷大学店","京都府 京都市伏見区 深草塚本町67","34.9639855","135.7679127"
"イオンモール久御山店","京都府 久世郡 久御山町森南大内156-1","34.8928562","135.7461795"
"イオンモール京都五条店","京都府 京都市右京区 西院追分町25-1-043","34.9973618","135.7272443"
"京都四条葛野大路店","京都府 京都市右京区 山ノ内池尻町8-2","35.0038499","135.7199116"
"イオンモール高の原店","京都府 木津川市 相楽台１-1-1 イオンモール高の原","34.7250828","135.7908004"
"TSUTAYA 福知山店","京都府 福知山市 東羽合町149 アビタウン福知山","35.294218","135.114816"
"大阪マルビル店","大阪府 大阪市北区 梅田1-9-20 大阪マルビル 1F","34.6999647","135.4968987"
"大阪ガーデンシティ店","大阪府 大阪市北区 梅田3-3-20 明治安田生命大阪ビル","34.6986975","135.4915368"
"エキマルシェ大阪店","大阪府 大阪市北区 梅田3-1-1","34.7025644","135.4957571"
"桜橋プラザビル店","大阪府 大阪市北区 曽根崎新地1-4-12 桜橋プラザビル","34.698148","135.495935"
"中之島三井ビル店","大阪府 大阪市北区 中之島3-3-3 中之島三井ビルディング","34.6931799","135.4940403"
"グランフロント大阪店","大阪府 大阪市北区 大深町4-20 グランフロント大阪 ショップ＆レストラン 南館","34.7041131","135.4948306"
"ちゃやまちアプローズタワー店","大阪府 大阪市北区 茶屋町19-19 アプローズタワー 1F","34.7082629","135.4988694"
"NU茶屋町プラス店","大阪府 大阪市北区 茶屋町8-26 NU茶屋町プラス 区画番号109","34.707139","135.499662"
"TSUTAYA 梅田 MeRISE店","大阪府 大阪市北区 鶴野町1-5","34.7077334","135.5008871"
"梅田ＨＥＰ ＦＩＶＥ店","大阪府 大阪市北区 角田町5-15 阪急ファイブ (701)","34.704014","135.500482"
"大丸梅田店","大阪府 大阪市北区 梅田3-1-1 大丸大阪梅田店","34.7017277","135.4964581"
"LUCUA 9階店","大阪府 大阪市北区 梅田3-1-3 LUCUA　9階","34.703213","135.4962713"
"LUCUA 1100 2階 グランマルシェ店","大阪府 大阪市北区 梅田3-1-3","34.7031143","135.494996"
"LUCUA 1100 2階 アトリウムガーデン店","大阪府 大阪市北区 梅田3-1-3","34.7031143","135.494996"
"梅田 蔦屋書店","大阪府 大阪市北区 梅田3-1-3 LUCUA 1100 9階","34.7027678","135.4948963"
"新大阪ニッセイビル店","大阪府 大阪市淀川区 宮原3-4-30 ニッセイ新大阪ビル","34.733769","135.496874"
"ＪＲ東海 新大阪駅新幹線ラチ内店","大阪府 大阪市淀川区 西中島5-16-1　新大阪駅1階 JRCP大阪支店","34.7338156","135.5002404"
"JR新大阪アルデ店","大阪府 大阪市淀川区 西中島5-16-1 アルデ新大阪　（arde）","34.7333074","135.4998789"
"エキマルシェ新大阪店","大阪府 大阪市淀川区 西中島5-16-1","34.7334581","135.5007844"
"京橋 京阪モール店","大阪府 大阪市都島区 東野田町2-1-38","34.6969574","135.5321709"
"イオン京橋店","大阪府 大阪市都島区 片町2-3-51 イオン京橋","34.696213","135.5327897"
"谷町筋ＮＳビル店","大阪府 大阪市中央区 谷町2-2-22 ＮＳビル 1F","34.686383","135.5177199"
"天満橋京阪シティモール店","大阪府 大阪市中央区 天満橋京町1-1 京阪シティモール","34.690203","135.5165"
"ＯＢＰ松下ＩＭＰビル店","大阪府 大阪市中央区 城見1-3-7 松下IMPビル","34.6918634","135.5309877"
"淀屋橋odona店","大阪府 大阪市中央区 今橋4-1-1 淀屋橋odona B1F","34.6910047","135.5002349"
"御堂筋本町東芝ビル店","大阪府 大阪市中央区 本町4-2-12 東芝大阪ビル","34.6833793","135.5002261"
"堺筋本町店","大阪府 大阪市中央区 本町1-8-12 オーク堺筋本町ビル1F","34.6837828","135.5071492"
"TSUTAYA EBISUBASHI店","大阪府 大阪市中央区 道頓堀1-8-19","34.6685433","135.5014742"
"なんばウォーク店","大阪府 大阪市中央区 千日前1 なんばウォーク5-1","34.6672474","135.5031797"
"なんば南海通店","大阪府 大阪市中央区 難波千日前12-30 難波長和ビル","34.6650634","135.5020304"
"なんば 御堂筋グランドビル店","大阪府 大阪市中央区 難波2-2-3 御堂筋グランドビル B1F","34.6676517","135.4996689"
"なんばCITY店","大阪府 大阪市中央区 難波5-1-60 なんばCITY","34.6638616","135.5016628"
"クリスタ長堀店","大阪府 大阪市中央区 南船場3丁目 長堀地下街4号　CRYSTA","34.6751844","135.5024211"
"北心斎橋店","大阪府 大阪市中央区 南船場3-11-10","34.6761924","135.5011018"
"心斎橋BIG STEP店","大阪府 大阪市中央区 西心斎橋1-6-14 BIG STEP","34.6723234","135.4988084"
"心斎橋オーパ店","大阪府 大阪市中央区 西心斎橋1-4-3 心斎橋OPA 本館 2階","34.673314","135.499799"
"JR桃谷駅店","大阪府 大阪市天王寺区 堂ケ芝1-8-27","34.658478","135.5278722"
"天王寺ミオ店","大阪府 大阪市天王寺区 悲田院町10-39 天王寺MIO","34.6467658","135.5145607"
"天王寺ミオ プラザ館店","大阪府 大阪市天王寺区 悲田院町10-48","34.6484818","135.5151014"
"あべのHoop店","大阪府 大阪市阿倍野区 阿倍野筋1-2-30 あべのHoop","34.6451015","135.5137604"
"あべのsolaha店","大阪府 大阪市阿倍野区 阿倍野筋1-1-43 あべのハルカス近鉄本店ウィング館3F","34.6460807","135.5139523"
"関西国際空港エアサイド店","大阪府 泉佐野市 泉州空港北1 関西国際空港旅客ターミナルビル　3階","34.4352111","135.2446576"
"関西国際空港国内線ゲートエリア店","大阪府 泉佐野市 泉州空港北1 関西国際空港旅客ターミナルビル2階","34.4320024","135.2303939"
"関西国際空港4階ノースゲート店","大阪府 泉南郡 田尻町泉州空港中1 関西国際空港旅客ターミナルビル4階","34.4320024","135.2303939"
"関西国際空港2階到着ロビー店","大阪府 泉南郡 田尻町泉州空港中1 関西国際空港旅客ターミナルビル2階","34.4344394","135.244003"
"関西国際空港1階サウスゲート店","大阪府 泉南郡 田尻町泉州空港中1 関西国際空港旅客ターミナルビル1階","34.4346836","135.2438331"
"肥後橋南店","大阪府 大阪市西区 江戸堀1-2-16 肥後橋南山下ビル","34.6917373","135.4964784"
"西本町店","大阪府 大阪市西区 阿波座1-3-18 エッグビル本町","34.6811668","135.4971147"
"四ツ橋店","大阪府 大阪市西区 北堀江1-1-18 四ツ橋イーストビル","34.673827","135.496952"
"イオンモール大阪ドームシティ店","大阪府 大阪市西区 千代崎3-13-1","34.6704094","135.4778957"
"ホテル京阪　ユニバーサル・タワー店","大阪府 大阪市此花区 島屋6-2-45 ホテル京阪 ユニバーサル・タワー","34.6674879","135.4379296"
"なんばパークス店","大阪府 大阪市浪速区 難波中2-10-70 なんばパークス Tーterrace 2階","34.6612679","135.5026306"
"蛍池ルシオーレ店","大阪府 豊中市 蛍池中町3-2-1 ルシオーレ（310)","34.794125","135.448929"
"大阪空港店","大阪府 豊中市 蛍池西町3-555 大阪国際空港ターミナルビル 3F","34.7894258","135.4429825"
"豊中ロマンチック街道店","大阪府 豊中市 向丘2-10-22","34.8092931","135.4727241"
"千里中央店","大阪府 豊中市 新千里東町1-1-3 SENRITOよみうり","34.808541","135.494067"
"豊中緑地公園店","大阪府 豊中市 東寺内町12-38","34.7754751","135.495781"
"箕面小野原店","大阪府 箕面市 小野原西5-5-19","34.8304914","135.5122704"
"みのおキューズモール店","大阪府 箕面市 西宿1-17-22 みのおキューズモール","34.8324775","135.4912361"
"阪急池田駅店","大阪府 池田市 栄町1-1 阪急池田ブランマルシェ２番館","34.8220348","135.4249704"
"江坂オッツ店","大阪府 吹田市 豊津町14-8 江坂オッツ","34.7581167","135.4956235"
"吹田山田店","大阪府 吹田市 山田東2-17-5","34.7984287","135.5259061"
"ららぽーとEXPOCITY店","大阪府 吹田市 千里万博公園2-1　 ららぽーとEXPOCITY 2階 20340(店舗番号)","34.8054029","135.5354552"
"関西大学 千里山店","大阪府 吹田市 千里山東3-10-1","34.7735674","135.5107797"
"阪急南千里店","大阪府 吹田市 津雲台1-1-2","34.7932845","135.510002"
"大阪大学医学部附属病院店","大阪府 吹田市 山田丘2-15 大阪大学医学部附属病院内","34.8193578","135.5284905"
"イオン北千里店","大阪府 吹田市 古江台4-2-50 ディオス北千里7番館","34.8201539","135.5102045"
"イオンモール茨木店","大阪府 茨木市 松ケ本町8-30","34.8107525","135.5582891"
"茨木真砂店","大阪府 茨木市 真砂玉島台1-5","34.7997682","135.5824843"
"立命館大学大阪いばらき店","大阪府 茨木市 岩倉町2-150","34.8099416","135.5624387"
"ＪＲ高槻駅南店","大阪府 高槻市 紺屋町7‐12 寺本ビル","34.8499909","135.6187588"
"ＪＲ高槻駅北店","大阪府 高槻市 芥川町1-2 B-0202号 アクトアモーレ","34.8519764","135.6163813"
"イオンモール大日店","大阪府 守口市 大日東町1-18 イオンモール大日","34.749439","135.580529"
"TSUTAYA 香里園店","大阪府 寝屋川市 香里新町31番17号","34.7847462","135.6300769"
"ビバモール寝屋川店","大阪府 寝屋川市 寝屋南2-22-2 ビバモール寝屋川","34.7664012","135.650695"
"枚方市駅北口店","大阪府 枚方市 岡本町2-22 枚方デパートメントビル","34.8158797","135.6480045"
"枚方 蔦屋書店","大阪府 枚方市 岡東町12-2","34.8160567","135.6495695"
"東香里店","大阪府 枚方市 高田1-15-10","34.7811246","135.6605579"
"くずは美咲店","大阪府 枚方市 楠葉朝日2-20","34.8593445","135.6874621"
"くずはモール店","大阪府 枚方市 楠葉花園町15-1-112 くずはモール","34.861344","135.677499"
"アルビ住道店","大阪府 大東市 住道 2-3-1 アルビ住道内","34.7062481","135.6211147"
"イオンモール四條畷店","大阪府 四條畷市 砂4-3-2","34.7458814","135.629292"
"イオン東大阪店","大阪府 東大阪市 荒本北2-3-22 イオン東大阪ショッピングモール　1階","34.67982170000001","135.6024066"
"近鉄東大阪店","大阪府 東大阪市 長堂1-1-1 近鉄東大阪店","34.664323","135.563555"
"東大阪宝持店","大阪府 東大阪市 宝持4-2-18","34.65601300000001","135.5900305"
"アリオ八尾店","大阪府 八尾市 光町2-3 アリオ八尾","34.6324874","135.6057224"
"堺 泉ヶ丘駅前店","大阪府 堺市南区 茶山台1-2-3 泉ヶ丘ひろば専門店街","34.496815","135.512377"
"泉北槇塚台店","大阪府 堺市南区 釜室1000-1","34.4841141","135.5149402"
"イオンモールりんくう泉南店","大阪府 泉南市 りんくう南浜3-12","34.3814057","135.2682838"
"堺フェニックス通り 利晶の杜店","大阪府 堺市堺区 宿院町西2丁1-41","34.5764141","135.4702044"
"堺プラットプラット店","大阪府 堺市堺区 戎島町3-22-1","34.5817719","135.4691071"
"イオンモール堺北花田店","大阪府 堺市北区 東浅香山町4丁1-12","34.5850754","135.5150386"
"アリオ鳳店","大阪府 堺市西区 鳳南町3-199-12 アリオ鳳","34.5247726","135.4593552"
"ららぽーと和泉店","大阪府 和泉市 あゆみ野4-4-7","34.43692180000001","135.4481532"
"りんくうプレミアム・アウトレット店","大阪府 泉佐野市 りんくう往来南3‐28 りんくうプレミアム・アウトレット 1F","34.4058018","135.2953778"
"神戸北野異人館店","兵庫県 神戸市中央区 北野町3-1-31 北野物語館","34.6998262","135.1902336"
"中山手通2丁目店","兵庫県 神戸市中央区 中山手通2-24-1 ワコーレ　ザ・トアロードレジデンス","34.6955427","135.1881692"
"三宮生田新道店","兵庫県 神戸市中央区 下山手通2-1-13 第１３シャルマンビル","34.6930014","135.1908576"
"神戸元町駅前店","兵庫県 神戸市中央区 三宮町3-7-6 神戸フクトクビル","34.689694","135.189545"
"神戸旧居留地店","兵庫県 神戸市中央区 栄町通1-2-1 ＭＲＳＸビル","34.6879498","135.1894128"
"PLiCO神戸店","兵庫県 神戸市中央区 相生町3-1-1 PLiCO神戸","34.6802365","135.1784189"
"神戸ハーバーランドumie MOSAIC店","兵庫県 神戸市中央区 東川崎町1-6-1 神戸ハーバーランドumie MOSAIC　2F","34.6795148","135.1846101"
"神戸ハーバーランドumie店","兵庫県 神戸市中央区 東川崎町1-7-2 A201","34.6792952","135.1826931"
"三宮磯上通店","兵庫県 神戸市中央区 磯上通7-1-19 PROGRESS KOBE","34.691996","135.196864"
"神戸国際会館ＳＯＬ店","兵庫県 神戸市中央区 御幸通8-1-6 神戸国際会館 B1F","34.692019","135.19588"
"三宮ダイエー店","兵庫県 神戸市中央区 雲井通6-1-15 三宮ダイエー","34.695123","135.196429"
"神戸上津台店","兵庫県 神戸市北区 上津台9-2-13","34.8620704","135.1999535"
"神戸三田プレミアム・アウトレット店","兵庫県 神戸市北区 上津台7-3 神戸三田プレミアム・アウトレット(120区)","34.8586288","135.1915366"
"須磨大丸店","兵庫県 神戸市須磨区 中落合2-2-4 大丸 須磨店","34.6779926","135.094667"
"PLiCO垂水店","兵庫県 神戸市垂水区 神田町1-20 プリコ垂水 西館","34.6293706","135.0533768"
"マリンピア神戸店","兵庫県 神戸市垂水区 海岸通12-6 三井アウトレットパーク　マリンピア神戸","34.6260774","135.0474464"
"神戸西舞子店","兵庫県 神戸市垂水区 西舞子1-10-4","34.6398721","135.0250763"
"神戸垂水桃山台店","兵庫県 神戸市垂水区 下畑町小川1400-12","34.661798","135.0812317"
"淡路サービスエリア（下り線）店","兵庫県 淡路市 岩屋2568 淡路サービスエリア（下り線）","34.5829398","135.0179433"
"住吉リブ店","兵庫県 神戸市東灘区 住吉本町1-2-1","34.7198776","135.2620137"
"阪神御影クラッセ店","兵庫県 神戸市東灘区 御影中町3-2-1 御影クラッセ","34.7157445","135.2554517"
"摂津本山岡本ビル店","兵庫県 神戸市東灘区 岡本1-2-17 摂津本山二楽園ビル","34.7270287","135.2765264"
"尼崎つかしん店","兵庫県 尼崎市 塚口本町4-8-1 グンゼタウンセンターつかしん","34.7616068","135.4189324"
"ビエラ塚口店","兵庫県 尼崎市 上坂部1-1-1 ビエラ塚口","34.7511445","135.4257567"
"西宮鞍掛店","兵庫県 西宮市 鞍掛町6-7","34.7291498","135.3385981"
"エビスタ西宮店","兵庫県 西宮市 田中町1-6 エビスタ西宮","34.736825","135.3381441"
"アクタ西宮店","兵庫県 西宮市 北口町1-2 ACTA西宮 東館","34.7472087","135.3582334"
"ビエラ甲子園口店","兵庫県 西宮市 甲子園口2-1-37","34.73877179999999","135.3751119"
"ららぽーと甲子園店","兵庫県 西宮市 甲子園八番町1-100 ららぽーと甲子園","34.7177736","135.3635694"
"イオンモール伊丹昆陽店","兵庫県 伊丹市 池尻4-1-1 イオンモール伊丹昆陽","34.784467","135.3813798"
"イオンモール伊丹店","兵庫県 伊丹市 藤ノ木1-1-1","34.7817621","135.4235449"
"中山寺店","兵庫県 宝塚市 中筋8-11-58","34.8137855","135.3743379"
"川西加茂店","兵庫県 川西市 加茂6-2-22","34.81204470000001","135.4113318"
"ピオレ姫路1階ヤング館店","兵庫県 姫路市 豆腐町222 ピオレ姫路ヤング館","34.8267754","134.6894799"
"ピオレ姫路4階店","兵庫県 姫路市 駅前町188-1 ピオレ姫路（本館）","34.8266546","134.6907707"
"イオンモール姫路大津店","兵庫県 姫路市大津区 大津町2-5 イオンモール姫路大津","34.8065429","134.606699"
"姫路南店","兵庫県 姫路市飾磨区 三宅3-3","34.8093802","134.6808895"
"姫路飾磨店","兵庫県 姫路市飾磨区 恵美酒236","34.8039503","134.6717155"
"イオンモール姫路リバーシティー店","兵庫県 姫路市飾磨区 細江2560","34.798387","134.668427"
"西明石店","兵庫県 明石市 明南町1-2","34.6699045","134.9707139"
"三木サービスエリア（下り線)店","兵庫県 三木市 加佐湯谷1142 三木サービスエリア（下り線）","34.815267","134.980981"
"三木サービスエリア(上り線)店","兵庫県 三木市 大村大門1067-110 三木サービスエリア(上り線)","34.8178803","134.9806966"
"ピオレ明石店","兵庫県 明石市 大明石町1-1-23 ピオレ明石","34.64925520000001","134.9932175"
"明石ビブレ店","兵庫県 明石市 大久保町ゆりのき通り 1-3-2 明石ビブレ","34.68106119999999","134.9378303"
"加古川別府店","兵庫県 加古川市 別府町朝日町11-1","34.72994730000001","134.849766"
"イオンモール加西北条店","兵庫県 加西市 北条町北条308-1","34.9304411","134.8284644"
"北生駒ならやま大通り店","奈良県 生駒市 上町3420-1","34.7242818","135.7206066"
"JR奈良駅旧駅舎店","奈良県 奈良市 三条本町1082 奈良市総合観光案内所","34.681744","135.8198032"
"奈良学園前駅店","奈良県 奈良市 学園南3-1-5 奈良西部会館 1F","34.6967123","135.7502106"
"奈良西大寺駅前店","奈良県 奈良市 西大寺東町2-1-63 サンワシティ西大寺","34.6944457","135.7835037"
"橿原中和幹線店","奈良県 橿原市 葛本町789-１","34.5207885","135.8065439"
"イオンモール橿原店","奈良県 橿原市 曲川町7-20-1-102","34.5055398","135.7624176"
"大和高田店","奈良県 大和高田市 神楽281-4","34.5284501","135.7439107"
"奈良西大和ニュータウン店","奈良県 北葛城郡 河合町薬井476-4","34.5897756","135.7117483"
"大和郡山アピタ店","奈良県 大和郡山市 田中町宮西517 アピタ大和郡山店","34.642177","135.769416"
"イオンモール大和郡山店","奈良県 大和郡山市 下三橋町741 イオンモール大和郡山","34.65098700000001","135.802431"
"和歌山昭和通り店","和歌山県 和歌山市 神前174-5","34.2155206","135.2012006"
"ガーデンパーク和歌山店","和歌山県 和歌山市 松江向鵜ノ島1469-1 ガーデンパーク和歌山","34.2393496","135.1534106"
"イオンモール和歌山店","和歌山県 和歌山市 中楠谷573 イオンモール和歌山","34.2764882","135.1487468"
"和歌山パームシティ店","和歌山県 和歌山市 中野長差31-1 パームシティ和歌山","34.2542491","135.1388077"
"和歌山県立医科大学附属病院店","和歌山県 和歌山市 紀三井寺811-1 和歌山県立医科大学附属病院","34.1887249","135.1825163"
"TSUTAYA 和歌山高松店","和歌山県 和歌山市 西高松1丁目7-87","34.2089111","135.1692892"
"和歌山岩出店","和歌山県 岩出市 大町9-3","34.2580334","135.3209996"
"シャミネ鳥取店","鳥取県 鳥取市 東品治町112-13","35.4946667","134.2232288"
"イオンモール鳥取北店","鳥取県 鳥取市 晩稲348","35.5246763","134.2015356"
"米子 TSUTAYA角盤町店","鳥取県 米子市 角盤町4-41","35.4372901","133.3280888"
"イオンモール日吉津店","鳥取県 西伯郡 日吉津村日吉津1160-1 イオンモール日吉津","35.445858","133.387223"
"シャミネ松江店","島根県 松江市 朝日町472-2","35.4639688","133.0628767"
"ゆめタウン出雲店","島根県 出雲市 大塚町650-1 ゆめタウン出雲","35.377139","132.755009"
"出雲大社店","島根県 出雲市 大社町杵築南841","35.3964055","132.6858506"
"岡山一番街店","岡山県 岡山市北区 駅元町一番街地下３号 岡山一番街","34.66526330000001","133.9185387"
"岡山大安寺店","岡山県 岡山市北区 野殿西町329-1 ハピーズ大安寺","34.659716","133.880606"
"岡山ロッツ店","岡山県 岡山市北区 中山下1-11-54 ロッツ 1F","34.6628388","133.9284022"
"イオンモール岡山店","岡山県 岡山市北区 下石井1-2-1","34.6620947","133.9177824"
"岡山大学病院店","岡山県 岡山市北区 鹿田町2-5-1 岡山大学病院","34.6507211","133.9206519"
"岡山シネマタウン岡南店","岡山県 岡山市南区 築港新町1-25-1 シネマタウン岡南","34.6028469","133.9405538"
"岡山けやき通り店","岡山県 岡山市中区 西川原124-1","34.6806464","133.942002"
"倉敷天満屋店","岡山県 倉敷市 阿知1-7-1 天満屋　倉敷店","34.6018778","133.7670611"
"イオンモール倉敷店","岡山県 倉敷市 水江1 イオンモール倉敷","34.6033539","133.7456596"
"倉敷中島店","岡山県 倉敷市 中島2236-102 ハピーズ倉敷中島","34.5812691","133.7415587"
"三井アウトレットパーク倉敷店","岡山県 倉敷市 寿町12-3 三井アウトレットパーク倉敷","34.6035907","133.7619934"
"蔦屋書店 高梁市図書館店","岡山県 高梁市 旭町1306","34.787948","133.614844"
"福山ポートプラザ天満屋店","広島県 福山市 入船町3-1-25 福山ポートプラザ","34.4869859","133.3770386"
"福山蔵王店","広島県 福山市 南蔵王町6-2-14","34.5002758","133.4008401"
"紙屋町シャレオ店","広島県 広島市中区 紙屋町 地下街シャレオ202","34.3945105","132.4572626"
"広島本通り店","広島県 広島市中区 本通り9-1","34.3923707","132.4615185"
"ＮＨＫ広島ビル店","広島県 広島市中区 大手町2-11-10 ＮＨＫ広島放送センター 2F","34.390683","132.455342"
"イオンモール広島祇園店","広島県 広島市安佐南区 祇園3-2-1 イオンモール広島祇園","34.44409419999999","132.4615589"
"広島段原店","広島県 広島市南区 段原日出2-3-1","34.3872087","132.4846094"
"広島駅アッセ店","広島県 広島市南区 松原町2-37 広島ステーションビル（アッセ）","34.396915","132.47567"
"広島アルパーク店","広島県 広島市西区 草津新町2-26-1 アルパーク","34.3735927","132.3945758"
"イオン宇品店","広島県 広島市南区 宇品東6-1-15 イオン宇品ショッピングセンター","34.3627306","132.4683782"
"ゆめタウン広島店","広島県 広島市南区 皆実町2-224-7 ゆめタウン広島","34.3760805","132.4637693"
"広島大学病院店","広島県 広島市南区 霞1-2-3 広島大学病院・（財）緑風会内","34.3806538","132.4786685"
"イオンモール広島府中店","広島県 安芸郡 府中町大須2-1-1","34.3949859","132.4991412"
"呉医療センター店","広島県 呉市 青山町3-1 呉医療センター","34.239492","132.565652"
"ゆめタウン呉店","広島県 呉市 宝町5-10 ゆめタウン呉","34.2423579","132.5564925"
"ゆめタウン廿日市店","広島県 廿日市市 下平良2-2-1","34.3461858","132.3355021"
"宮島サービスエリア(下り線)店","広島県 廿日市市 上平良293 宮島サービスエリア(下り線)","34.3656362","132.3182734"
"小谷サービスエリア(上り線)店","広島県 東広島市 高屋町小谷5661 小谷サービスエリア(上り線)","34.4321265","132.8359897"
"下関あるかぽーと店","山口県 下関市 あるかぽーと2-28","33.953534","130.9403702"
"下関大丸店","山口県 下関市 竹崎町4-4-10 下関大丸","33.949156","130.923186"
"ゆめシティ新下関店","山口県 下関市 伊倉新町3-1-1 ゆめシティ","34.006773","130.934033"
"おのだサンパーク店","山口県 山陽小野田市 中川6-4-1 おのだサンパーク","33.9850265","131.1710445"
"徳島駅クレメントプラザ店","徳島県 徳島市 寺島本町西1-61 徳島駅クレメントプラザ","34.0744613","134.5511024"
"徳島沖浜店","徳島県 徳島市 沖浜2-5","34.0532496","134.5525357"
"ゆめタウン徳島店","徳島県 板野郡 藍住町奥野東中須88-1 ゆめタウン徳島","34.1192731","134.5010259"
"高松丸亀町フェスタ店","香川県 高松市 丸亀町6-1 フェスタ河野１","34.343046","134.049649"
"高松瓦町駅店","香川県 高松市 常磐町1-3-1 琴電瓦町ビル","34.339002","134.052393"
"香川大学病院店","香川県 木田郡 三木町池戸1750-1 香川大学医学部付属病院","34.2926276","134.1235806"
"イオンモール高松店","香川県 高松市 香西本町１－１ イオンモール高松","34.3525934","134.0053716"
"高松レインボーロード店","香川県 高松市 伏石町2084-5 ヤマダ電機テックランドNew高松","34.3110367","134.0599208"
"高松ゆめタウン店","香川県 高松市 三条町中所608-1 ゆめタウン高松","34.31676","134.041928"
"高松サン・フラワー通り店","香川県 高松市 太田下町3010-3","34.304086","134.0518398"
"TSUTAYA 宇多津店","香川県 綾歌郡 宇多津町浜3-21-2","34.3113062","133.813017"
"松山いよてつ会館ビル店","愛媛県 松山市 大街道3-1-1 いよてつ会館ビル","33.841435","132.770511"
"松山湊町店","愛媛県 松山市 湊町7-1-29","33.835416","132.7583537"
"松山市駅前店","愛媛県 松山市 湊町4-4-1","33.8358078","132.7645003"
"松山はなみずき通り店","愛媛県 松山市 古川北3-7-28","33.8105636","132.7653813"
"TSUTAYA BOOK STORE 重信店","愛媛県 東温市 野田3-1-13 フジグラン重信","33.7955836","132.8335268"
"TSUTAYA エミフルMASAKI店","愛媛県 伊予郡 松前町筒井850 エミフルＭＡＳＡＫＩ　エミモール１F","33.7897159","132.7160747"
"松山中央店","愛媛県 松山市 中央1-4-12","33.8541025","132.7534124"
"イオンモール新居浜店","愛媛県 新居浜市 前田町8-8 イオンモール新居浜","33.954518","133.2680389"
"イオンモール今治新都市店","愛媛県 今治市 にぎわい広場1-1","34.0437778","132.9623899"
"イオンモール高知店","高知県 高知市 秦南町1-4-8 イオンモール高知","33.5760079","133.5425486"
"高知帯屋町店","高知県 高知市 帯屋町2-2-14 岡村帯屋町ビル","33.56031","133.53679"
"高知潮江店","高知県 高知市 潮新町2-13-28","33.5486803","133.5507466"
"高知あぞの店","高知県 高知市 薊野北町1-9-39","33.5790348","133.5540429"
"サンリブシティ小倉店","福岡県 北九州市小倉南区 上葛原2-14-１ サンリブシティ小倉","33.838845","130.908007"
"小倉京町店","福岡県 北九州市小倉北区 京町2-7-3 ユニバース京町ビル","33.885712","130.881205"
"リバーウォーク北九州デコシティ店","福岡県 北九州市小倉北区 室町1-1-1 リバーウォーク北九州　デコシティ1F","33.885809","130.8754882"
"イオンモール八幡東店","福岡県 北九州市八幡東区 東田3-2-102 イオンモール八幡東","33.870454","130.8112522"
"イオン若松店","福岡県 北九州市若松区 二島1-3-1 イオン若松ショッピングセンター","33.8920304","130.7427947"
"天神地下街店","福岡県 福岡市中央区 天神2丁目地下０号 天神地下街","33.5880611","130.4011381"
"メディアモール天神店","福岡県 福岡市中央区 天神1-10-13 天神ＭＭＴビル 1F","33.59075900000001","130.400581"
"福岡パルコ店","福岡県 福岡市中央区 天神2-11-1 福岡パルコ新館","33.5909632","130.3979037"
"天神ソラリアステージ店","福岡県 福岡市中央区 天神2-11-3 ソラリアステージ","33.5900117","130.3989652"
"天神VIORO店","福岡県 福岡市中央区 天神2-10-3 天神VIORO","33.589682","130.398393"
"IWATAYA本店本館店","福岡県 福岡市中央区 天神2-5-35 岩田屋本店本館１Ｆ","33.588811","130.397679"
"ミーナ天神店","福岡県 福岡市中央区 天神4-3-8 ミーナ天神","33.592758","130.3984754"
"西鉄天神高速バスターミナル店","福岡県 福岡市中央区 天神2-1-1 ソラリアターミナルビル　3階","33.5886887","130.3999665"
"天神南渡辺通り店","福岡県 福岡市中央区 渡辺通4-9-18 福酒ビル","33.5873313","130.4012806"
"TSUTAYA 福岡天神店","福岡県 福岡市中央区 今泉1-20-17","33.5864161","130.3980797"
"福岡赤坂門店","福岡県 福岡市中央区 大名2-4-22 新日本ビル 1F","33.5887561","130.3909261"
"天神西通り店","福岡県 福岡市中央区 大名1-13-25","33.5878993","130.3966714"
"福岡大濠公園店","福岡県 福岡市中央区 大濠公園1-8","33.5866936","130.3783117"
"福岡新宮店","福岡県 糟屋郡 新宮町中央駅前2-5-15","33.7088322","130.4549908"
"イオンモール福岡店","福岡県 糟屋郡 粕屋町酒殿老ノ木192-1","33.596798","130.48029"
"イオンモール福津店","福岡県 福津市 日蒔野6-16-1 イオンモール福津","33.7534128","130.4939746"
"福岡朝日ビル店","福岡県 福岡市博多区 博多駅前2-1-1 福岡朝日ビル 1F","33.5907269","130.4182818"
"アミュプラザ博多店","福岡県 福岡市博多区 博多駅中央街1-1 アミュプラザ博多","33.5902766","130.4199145"
"KITTE博多店","福岡県 福岡市博多区 博多駅中央街9-1","33.5888968","130.419378"
"JRJP博多ビル店","福岡県 福岡市博多区 博多駅中央街8-1","33.5890273","130.4189253"
"ホテルセントラーザ博多店","福岡県 福岡市博多区 博多駅中央街4-23 ホテル セントラーザ博多 1F","33.5907824","130.4220576"
"キャナルシティ博多店","福岡県 福岡市博多区 住吉1-2-22 キャナルシティＯＰＡ B1F","33.5895528","130.4112364"
"ボックスタウン箱崎店","福岡県 福岡市東区 箱崎4-6-20 ボックスタウン箱崎","33.6196494","130.4178001"
"ゆめタウン博多店","福岡県 福岡市東区 東浜1-1-1 ゆめタウン博多","33.6115467","130.411673"
"福岡空港国際線ターミナル店","福岡県 福岡市博多区 青木739","33.5852808","130.4434044"
"博多の森店","福岡県 福岡市博多区 東平尾1-71-9","33.5894766","130.4578611"
"イオンモール香椎浜店","福岡県 福岡市東区 香椎浜3‐12‐1 イオンモール香椎浜","33.657806","130.4304188"
"福岡大学病院店","福岡県 福岡市城南区 七隈7-45-1 福岡大学病院新館","33.5473302","130.3617779"
"福岡次郎丸店","福岡県 福岡市早良区 次郎丸2-10-10","33.5530107","130.3288744"
"TSUTAYA コマーシャルモール博多店","福岡県 福岡市博多区 東光寺2-6-40 コマーシャルモール博多","33.5769923","130.4361139"
"福岡春日店","福岡県 春日市 春日6-14","33.5184667","130.4693307"
"イオンモール筑紫野店","福岡県 筑紫野市 立明寺434-1 イオンモール筑紫野","33.48111859999999","130.5268214"
"太宰府天満宮表参道店","福岡県 太宰府市 宰府3-2-43","33.5197316","130.5333864"
"太宰府向佐野店","福岡県 太宰府市 向佐野1-10-20","33.5095349","130.4950561"
"マリノアシティ福岡・ピアウォーク店","福岡県 福岡市西区 小戸2-13-16 マリノアシティ福岡","33.5948578","130.3211515"
"ウエストコート姪浜店","福岡県 福岡市西区 内浜1-7-7","33.5812058","130.3232575"
"木の葉モール橋本店","福岡県 福岡市西区 橋本2-27-2 木の葉モール橋本","33.5561364","130.3217606"
"イオンモール福岡伊都店","福岡県 福岡市西区 北原1-2-1 イオンモール福岡伊都","33.5775209","130.2582684"
"イオンモール直方店","福岡県 直方市 湯野原2-1-1","33.7690392","130.749394"
"久留米東櫛原店","福岡県 久留米市 東櫛原町413-1","33.3256835","130.5223361"
"久留米上津バイパス店","福岡県 久留米市 野伏間1-7-25","33.2855452","130.5110898"
"ゆめタウン大牟田店","福岡県 大牟田市 旭町2-28 ゆめタウン大牟田","33.0367957","130.4540984"
"ゆめタウン久留米店","福岡県 久留米市 新合川1-2-1 ゆめタウン久留米","33.3218036","130.5384316"
"佐賀南バイパス店","佐賀県 佐賀市 本庄町袋306-6","33.2387592","130.2989418"
"佐賀大学通り店","佐賀県 佐賀市 与賀町70-1 TSUTAYA積文館書店 佐大通り店","33.2482588","130.2921763"
"TSUTAYA 鳥栖店","佐賀県 鳥栖市 本鳥栖町537-1","33.3761329","130.5172688"
"鳥栖蔵上町店","佐賀県 鳥栖市 蔵上町662-5","33.3758296","130.4983501"
"基山パーキングエリア（上り線）店","佐賀県 三養基郡 基山町小倉2097-1 基山パーキングエリア（上り線）","33.440161","130.5299066"
"蔦屋書店 武雄市図書館店","佐賀県 武雄市 武雄町武雄5304-1","33.1890771","130.0236836"
"金立サービスエリア（下り線）店","佐賀県 佐賀市 金立町金立1197-57 金立サービスエリア（下り線）","33.3283072","130.3125916"
"ゆめタウン佐賀店","佐賀県 佐賀市 兵庫北5-14-1 ゆめタウン佐賀","33.2755585","130.3079054"
"長崎ゆめタウン夢彩都店","長崎県 長崎市 元船町10－1 ゆめタウン夢彩都","32.7462663","129.869937"
"アミュプラザ長崎店","長崎県 長崎市 尾上町1-1 アミュプラザ長崎","32.7516742","129.8708897"
"長崎 浜町 Ｓ東美店","長崎県 長崎市 浜町1-22 長崎松竹会館","32.7441","129.877045"
"みらい長崎ココウォーク店","長崎県 長崎市 茂里町1-55 みらい長崎ココウオーク","32.762537","129.864648"
"長崎空港店","長崎県 大村市 箕島町593 長崎空港ビルディング","32.9142827","129.9224221"
"長崎大村店","長崎県 大村市 幸町25-32","32.9015428","129.958236"
"佐世保四ヶ町店","長崎県 佐世保市 島瀬町7-14 柏田ビル","33.1720108","129.7207465"
"させぼ五番街店","長崎県 佐世保市 新港町4-10 させぼ五番街","33.1651802","129.7231088"
"蔦屋書店 熊本三年坂店","熊本県 熊本市中央区 安政町1-2 カリーノ下通 1F","32.8018898","130.7097572"
"熊本シャワー通り店","熊本県 熊本市中央区 下通2-3-1 エスキュービック","32.7986153","130.7075587"
"熊本Ｎｅｗ－Ｓ店","熊本県 熊本市中央区 上通町2-2 Ｎｅｗ－Ｓ","32.803448","130.710744"
"イオンモール熊本店","熊本県 上益城郡 嘉島町上島長池2232","32.738022","130.743676"
"熊本インターチェンジ店","熊本県 熊本市東区 神園1-1-6","32.8372061","130.778745"
"熊本大江店","熊本県 熊本市中央区 大江3-2-33","32.8042229","130.725848"
"ゆめタウン八代店","熊本県 八代市 建馬町3-1 ゆめタウン八代","32.505953","130.585527"
"熊本ゆめタウン光の森店","熊本県 菊池郡 菊陽町光の森7-39-1 ゆめタウン光の森","32.8602787","130.7844392"
"熊本光の森ロードサイド店","熊本県 菊池郡 菊陽町光の森3-22-2","32.8626371","130.7826467"
"パークプレイス大分店","大分県 大分市 公園通り西2-1 パークプレイス大分","33.1955717","131.656976"
"アミュプラザおおいた店","大分県 大分市 要町1-14","33.2333554","131.6060058"
"大分大道バイパス店","大分県 大分市 羽屋229-1","33.2125377","131.596421"
"大分下郡店","大分県 大分市 下郡北3-25-16","33.2299178","131.6350143"
"大分わさだトキハ店","大分県 大分市 玉沢楠本755-1 トキハわさだタウン 1F","33.1890474","131.5829278"
"別府トキハ店","大分県 別府市 北浜2-9-1 トキハ別府店","33.2801721","131.5056339"
"大分大学医学部附属病院店","大分県 由布市 挾間町医大ヶ丘1-1 大分大学医学部附属病院","33.2103164","131.5346751"
"イオンモール宮崎店","宮崎県 宮崎市 新別府町江口862-1 イオンモール宮崎","31.9227641","131.4563511"
"宮崎青葉町店","宮崎県 宮崎市 青葉町121-6","31.9194142","131.4360895"
"宮崎赤江店","宮崎県 宮崎市 恒久今井出916","31.8817929","131.4261725"
"宮崎山形屋店","宮崎県 宮崎市 橘通東3-4-12 宮崎山形屋","31.9161311","131.4239154"
"アミュプラザ鹿児島店","鹿児島県 鹿児島市 中央町1-1 アミュプラザ鹿児島","31.5843829","130.5428033"
"鹿児島OPSIAミスミ店","鹿児島県 鹿児島市 宇宿2-3-5 OPSIA Misumi","31.5435895","130.5443101"
"イオンモール鹿児島店","鹿児島県 鹿児島市 東開町7 イオンモール鹿児島","31.527366","130.536939"
"鹿児島天文館店","鹿児島県 鹿児島市 東千石町16-18 STYLISHビル","31.591915","130.554469"
"那覇メインプレイス店","沖縄県 那覇市 おもろまち4-4-9 サンエー那覇メインプレイス","26.225728","127.695174"
"那覇国際通り牧志店","沖縄県 那覇市 牧志2-1-1 プランタビル","26.2164265","127.6882297"
"那覇空港北ウィング店","沖縄県 那覇市 鏡水150 那覇空港国内線旅客ターミナルビル","26.2062125","127.6506256"
"イオン那覇ショッピングセンター店","沖縄県 那覇市 金城5-10-2 イオン那覇ショッピングセンター","26.1970372","127.6659602"
"沖縄アウトレットモールあしびなー店","沖縄県 豊見城市 豊崎1-1192 沖縄アウトレットモールあしびなー","26.1589459","127.6570437"
"豊見城中央病院店","沖縄県 豊見城市 上田25 豊見城中央病院","26.17603","127.676118"
"イオン南風原店","沖縄県 島尻郡 南風原町宮平264 イオン南風原ショッピングセンター","26.2008833","127.737696"
"沖縄津嘉山店","沖縄県 島尻郡 南風原町津嘉山1321-1","26.1929907","127.7129722"
"浦添バークレーズコート店","沖縄県 浦添市 当山2-2-9 バークレーズコート","26.252312","127.7374765"
"経塚シティ店","沖縄県 浦添市 経塚652 サンエー経塚シティ","26.237657","127.7227039"
"沖縄宜野湾店","沖縄県 宜野湾市 大謝名216-2","26.2695282","127.7349215"
"イオンモール沖縄ライカム店","沖縄県 中頭郡北中城村アワセ土地区 画整備事業区域内４街区","26.3142733","127.7961686"
"沖縄真嘉比店","沖縄県 那覇市 松島1-14-13","26.222626","127.7048513"
"沖縄西原シティ店","沖縄県 中頭郡 西原町嘉手苅130 サンエー西原シティ","26.2242593","127.7647885"
"沖縄国体道路店","沖縄県 中頭郡 北谷町上勢頭813－1","26.3281989","127.7704527"
"美浜アメリカンビレッジ店","沖縄県 中頭郡 北谷町美浜16-2 美浜メディアステーション","26.3161103","127.7579"
"イオン北谷店","沖縄県 中頭郡 北谷町美浜8-3 イオン北谷店","26.3144663","127.757249"
"北谷国道58号店","沖縄県 中頭郡 北谷町美浜1-5-11","26.3138419","127.760937"
"沖縄読谷店","沖縄県 中頭郡 読谷村古堅639-1 イオンタウン読谷ショッピングセンター","26.367956","127.745161"
"具志川メインシティ店","沖縄県 うるま市 江洲450-1 サンエー具志川メインシティ","26.352718","127.825642"
"石垣空港店","沖縄県 石垣市 白保1960-104-1","24.391097","124.2459713"
