"name","address","lat","lng"
"イオンモール旭川西店","北海道旭川市緑町23-2161-3 イオンモール旭川西店 1F","43.793668","142.3272859"
"イオン札幌麻生店","北海道札幌市北区北39条西4-1-5 イオン札幌麻生店1F","43.1072495","141.3397107"
"カテプリ新さっぽろ店","北海道札幌市厚別区厚別中央 2条5丁目7番 カテプリ新さっぽろ店1F","43.0376296","141.4731355"
"サッポロファクトリー店","北海道札幌市中央区北2条東4丁目","43.0656845","141.3630422"
"旭川赤十字病院店","北海道旭川市曙1条1-1-1","43.76962950000001","142.3483042"
"旭川店","北海道旭川市二条通7-227-1 マルカツデパート1F","43.7664933","142.3591702"
"釧路店","北海道釧路市末広町3-1-1 パステルパーク1F","42.9834324","144.3863168"
"札幌 IKEUCHI GATE店","北海道札幌市中央区南1条西2丁目18番地 IKEUCHI GATE 2F","43.0596156","141.3541681"
"札幌ＳＴＶ北２条店","北海道札幌市中央区北2条西2-15 STV北2条ビル1F","43.0638415","141.3541828"
"札幌ステラプレイス店","北海道札幌市中央区北5条西2-5 札幌ステラプレイス6F","43.0679604","141.3501384"
"イオンモール旭川西店","北海道旭川市緑町23-2161-3 イオンモール旭川西店 1F","43.793668","142.3272859"
"イオン札幌麻生店","北海道札幌市北区北39条西4-1-5 イオン札幌麻生店1F","43.1072495","141.3397107"
"カテプリ新さっぽろ店","北海道札幌市厚別区厚別中央 2条5丁目7番 カテプリ新さっぽろ店1F","43.0376296","141.4731355"
"サッポロファクトリー店","北海道札幌市中央区北2条東4丁目","43.0656845","141.3630422"
"旭川赤十字病院店","北海道旭川市曙1条1-1-1","43.76962950000001","142.3483042"
"旭川店","北海道旭川市二条通7-227-1 マルカツデパート1F","43.7664933","142.3591702"
"釧路店","北海道釧路市末広町3-1-1 パステルパーク1F","42.9834324","144.3863168"
"札幌 IKEUCHI GATE店","北海道札幌市中央区南1条西2丁目18番地 IKEUCHI GATE 2F","43.0596156","141.3541681"
"札幌ＳＴＶ北２条店","北海道札幌市中央区北2条西2-15 STV北2条ビル1F","43.0638415","141.3541828"
"札幌ステラプレイス店","北海道札幌市中央区北5条西2-5 札幌ステラプレイス6F","43.0679604","141.3501384"
"札幌ちえりあ店","北海道札幌市西区宮の沢1条1丁目1-10","43.0883006","141.2744234"
"札幌徳洲会病院店","北海道札幌市厚別区大谷地東1丁目1-1","43.0292161","141.4478893"
"札幌日本生命ビル店","北海道札幌市中央区北3条西4丁目1-1","43.0650314","141.3499099"
"三井アウトレットパーク札幌北広島店","北海道北広島市大曲幸町3丁目7－6 三井アウトレットパーク札幌北広島2F","42.9710051","141.4712289"
"市立釧路総合病院店","北海道釧路市春湖台1番12号 1階","42.9769812","144.40367"
"市立札幌病院店","北海道札幌市中央区北11条西13丁目1-1","43.0707969","141.3343443"
"手稲渓仁会病院店","北海道札幌市手稲区前田1条12丁目-1-40","43.1222769","141.2431129"
"千歳アウトレットモール店","北海道千歳市柏台南1-2-1 千歳アウトレットモール・レラ","42.8120565","141.6765849"
"函館五稜郭病院店","北海道函館市五稜郭町38番3号 函館五稜郭病院1F","41.792351","140.7555272"
"イオンモール旭川西店","北海道旭川市緑町23-2161-3 イオンモール旭川西店 1F","43.793668","142.3272859"
"イオン札幌麻生店","北海道札幌市北区北39条西4-1-5 イオン札幌麻生店1F","43.1072495","141.3397107"
"カテプリ新さっぽろ店","北海道札幌市厚別区厚別中央 2条5丁目7番 カテプリ新さっぽろ店1F","43.0376296","141.4731355"
"サッポロファクトリー店","北海道札幌市中央区北2条東4丁目","43.0656845","141.3630422"
"旭川赤十字病院店","北海道旭川市曙1条1-1-1","43.76962950000001","142.3483042"
"旭川店","北海道旭川市二条通7-227-1 マルカツデパート1F","43.7664933","142.3591702"
"釧路店","北海道釧路市末広町3-1-1 パステルパーク1F","42.9834324","144.3863168"
"札幌 IKEUCHI GATE店","北海道札幌市中央区南1条西2丁目18番地 IKEUCHI GATE 2F","43.0596156","141.3541681"
"札幌ＳＴＶ北２条店","北海道札幌市中央区北2条西2-15 STV北2条ビル1F","43.0638415","141.3541828"
"札幌ステラプレイス店","北海道札幌市中央区北5条西2-5 札幌ステラプレイス6F","43.0679604","141.3501384"
"札幌ちえりあ店","北海道札幌市西区宮の沢1条1丁目1-10","43.0883006","141.2744234"
"札幌徳洲会病院店","北海道札幌市厚別区大谷地東1丁目1-1","43.0292161","141.4478893"
"札幌日本生命ビル店","北海道札幌市中央区北3条西4丁目1-1","43.0650314","141.3499099"
"三井アウトレットパーク札幌北広島店","北海道北広島市大曲幸町3丁目7－6 三井アウトレットパーク札幌北広島2F","42.9710051","141.4712289"
"市立釧路総合病院店","北海道釧路市春湖台1番12号 1階","42.9769812","144.40367"
"市立札幌病院店","北海道札幌市中央区北11条西13丁目1-1","43.0707969","141.3343443"
"手稲渓仁会病院店","北海道札幌市手稲区前田1条12丁目-1-40","43.1222769","141.2431129"
"千歳アウトレットモール店","北海道千歳市柏台南1-2-1 千歳アウトレットモール・レラ","42.8120565","141.6765849"
"函館五稜郭病院店","北海道函館市五稜郭町38番3号 函館五稜郭病院1F","41.792351","140.7555272"
"北海道大学病院店","北海道札幌市北区北14条西5丁目","43.0777603","141.3458511"
"TSUTAYA弘前店","青森県弘前市大字高田2-1-1","40.6006757","140.5012833"
"イオンモールつがる市立図書館店","青森県つがる市柏稲盛幾世41 イオンモールつがる市立図書館棟1F","40.8022204","140.4178035"
"イオンモールつがる柏店","青森県つがる市 柏稲盛幾世41 イオンモールつがる柏1F","40.8020215","140.4167678"
"イオンモール下田店","青森県上北郡おいらせ町中野平40-1","40.6020537","141.4181727"
"八戸六日町店","青森県八戸市六日町16-2 Garden Terrace 1F","40.50929379999999","141.4916036"
"ナナック盛岡店","岩手県盛岡市中ノ橋通1-6-8 ナナック1F","39.6994802","141.1558494"
"盛岡駅フェザン店","岩手県盛岡市盛岡駅前通1-44 盛岡フェザン1，2階","39.7026985","141.1357087"
"tekuteながまち店","宮城県仙台市太白区長町5丁目1-1 tekuteながまち","38.2277302","140.8857403"
"ララガーデン長町店","宮城県仙台市太白区長町7-20-5","38.2252557","140.8757038"
"古川駅店","宮城県大崎市古川駅前大通1-7-35 古川駅ショッピングセンター 「古川駅食品館ピボット」","38.5717685","140.9680297"
"三井アウトレットパーク仙台港店","宮城県仙台市宮城野区中野三丁目7番地の2 三井アウトレットパーク仙台港2320","38.275162","140.989815"
"石巻赤十字病院店","宮城県石巻市蛇田字西道下71","38.45921","141.2797484"
"仙台パルコ２店","宮城県仙台市青葉区中央3丁目7番5号 仙台パルコ２ 1F","38.2589537","140.8796248"
"仙台市立病院店","宮城県仙台市太白区あすと長町一丁目1番1号仙台市立病院1F","38.231934","140.8884104"
"仙台泉プレミアム・アウトレット店","宮城県仙台市泉区寺岡6-1仙台泉プレミアム・アウトレット2385区","38.341572","140.8373581"
"仙台泉店","宮城県仙台市泉区大沢2-12-4 蔦屋書店仙台泉店内","38.3520265","140.8795076"
"仙台中央通り店","宮城県仙台市青葉区中央1丁目8-23　タイコヤビル1F","38.2617311","140.8795191"
"tekuteながまち店","宮城県仙台市太白区長町5丁目1-1 tekuteながまち","38.2277302","140.8857403"
"ララガーデン長町店","宮城県仙台市太白区長町7-20-5","38.2252557","140.8757038"
"古川駅店","宮城県大崎市古川駅前大通1-7-35 古川駅ショッピングセンター 「古川駅食品館ピボット」","38.5717685","140.9680297"
"三井アウトレットパーク仙台港店","宮城県仙台市宮城野区中野三丁目7番地の2 三井アウトレットパーク仙台港2320","38.275162","140.989815"
"石巻赤十字病院店","宮城県石巻市蛇田字西道下71","38.45921","141.2797484"
"仙台パルコ２店","宮城県仙台市青葉区中央3丁目7番5号 仙台パルコ２ 1F","38.2589537","140.8796248"
"仙台市立病院店","宮城県仙台市太白区あすと長町一丁目1番1号仙台市立病院1F","38.231934","140.8884104"
"仙台泉プレミアム・アウトレット店","宮城県仙台市泉区寺岡6-1仙台泉プレミアム・アウトレット2385区","38.341572","140.8373581"
"仙台泉店","宮城県仙台市泉区大沢2-12-4 蔦屋書店仙台泉店内","38.3520265","140.8795076"
"仙台中央通り店","宮城県仙台市青葉区中央1丁目8-23　タイコヤビル1F","38.2617311","140.8795191"
"東北大学医学部店","宮城県仙台市青葉区星陵町2-1東北大学医学部　星陵キャンパス内 星陵会館1F","38.27221979999999","140.8582872"
"東北大学病院店","宮城県仙台市青葉区星陵町1-1 東北大学病院内","38.272008","140.861253"
"フォンテＡＫＩＴＡ店","秋田県秋田市中通2－8－1　SC内2F","39.7165095","140.12766"
"大館店","秋田県大館市清水5-2-41","40.2834642","140.5472168"
"山形七日町店","山形県山形市七日町2-1-8 イイナス1階","38.2525344","140.3390615"
"山形松見町店","山形県山形市松見町21-10 ヤマザワ松見町店内","38.23125","140.340452"
"会津若松店","福島県会津若松市幕内南9-10 アピタ会津若松店1F","37.4834893","139.9043154"
"郡山駅店","福島県郡山市字燧田195 JR郡山駅構内","37.3980344","140.3881654"
"ＴＸ守谷駅店","茨城県守谷市中央4-9　TX守谷駅1F","35.9506698","139.9922675"
"イオンモールつくば店","茨城県つくば市稲岡66-1 イオンモールつくば3F","36.0345383","140.1329322"
"イオンモール水戸内原店","茨城県水戸市内原2丁目1番地　イオンモール水戸内原 2F","36.374679","140.358651"
"ニューポートひたちなか店","茨城県ひたちなか市新光町35 ニューポートひたちなかファッションクルーズ1F","36.40538050000001","140.5861003"
"ひたちなか新光町店","茨城県ひたちなか市新光町30番4号 蔦屋書店ひたちなか店内","36.4072825","140.5841125"
"水戸駅南口店","茨城県水戸市宮町1-7-44 COMBOX310 3階","36.3694663","140.4745213"
"水戸赤十字病院店","茨城県水戸市三の丸3丁目12番48号 水戸赤十字病院1F","36.37143","140.486665"
"筑波大学附属病院店","茨城県つくば市天久保2-1-1","36.0930488","140.1030514"
"土浦協同病院店","茨城県土浦市おおつ野4丁目1番1号 土浦協同病院1階","36.0838541","140.2584495"
"FKD宇都宮店","栃木県宇都宮市今泉町237 福田屋ショッピングプラザ宇都宮店2F","36.5737017","139.9003735"
"VAL小山駅店","栃木県小山市城山町3-3-22","36.3138719","139.8065387"
"ララスクエア宇都宮店","栃木県宇都宮市駅前通り1-4-6 ララスクエア宇都宮1F","36.560407","139.896997"
"宇都宮インターパークビレッジ店","栃木県宇都宮市インターパーク4-1-3 インターパークショッピングビレッジ内","36.4941238","139.9070617"
"宇都宮テクノ店","栃木県宇都宮市ゆいの杜4-1-39","36.5681871","139.9880946"
"宇都宮ベルモール店","栃木県宇都宮市陽東6-2-1 ベルモール1F","36.5550373","139.9283866"
"宇都宮駅ビルパセオ店","栃木県宇都宮市川向町1-23宇都宮駅ビルパセオ2F","36.5595785","139.898254"
"宇都宮駅東口店","栃木県宇都宮市元今泉4-19-16","36.5599544","139.9042437"
"宇都宮店","栃木県宇都宮市馬場町 2－3－12 MEGAドン・キホーテ ラパーク宇都宮1F","36.5607284","139.885329"
"作新学院前店","栃木県宇都宮市西一の沢町2-1","36.5686934","139.8619163"
"FKD宇都宮店","栃木県宇都宮市今泉町237 福田屋ショッピングプラザ宇都宮店2F","36.5737017","139.9003735"
"VAL小山駅店","栃木県小山市城山町3-3-22","36.3138719","139.8065387"
"ララスクエア宇都宮店","栃木県宇都宮市駅前通り1-4-6 ララスクエア宇都宮1F","36.560407","139.896997"
"宇都宮インターパークビレッジ店","栃木県宇都宮市インターパーク4-1-3 インターパークショッピングビレッジ内","36.4941238","139.9070617"
"宇都宮テクノ店","栃木県宇都宮市ゆいの杜4-1-39","36.5681871","139.9880946"
"宇都宮ベルモール店","栃木県宇都宮市陽東6-2-1 ベルモール1F","36.5550373","139.9283866"
"宇都宮駅ビルパセオ店","栃木県宇都宮市川向町1-23宇都宮駅ビルパセオ2F","36.5595785","139.898254"
"宇都宮駅東口店","栃木県宇都宮市元今泉4-19-16","36.5599544","139.9042437"
"宇都宮店","栃木県宇都宮市馬場町 2－3－12 MEGAドン・キホーテ ラパーク宇都宮1F","36.5607284","139.885329"
"作新学院前店","栃木県宇都宮市西一の沢町2-1","36.5686934","139.8619163"
"自治医大駅前店","栃木県下野市医大前3-1-1 TSUTAYA自治医大1F","36.395055","139.855385"
"東武宇都宮店","栃木県宇都宮市宮園町5-4　東武宇都宮百貨店5F","36.5590157","139.8802589"
"栃木城内店","栃木県栃木市城内町2-6-23","36.3725625","139.7444334"
"那須ガーデンアウトレット店","栃木県那須塩原市塩野崎184-7","36.9662257","139.9915522"
"矢板店","栃木県矢板市末広町20-1 うさぎやTSUTAYA矢板店1F","36.8055116","139.9346642"
"ウニクス高崎店","群馬県高崎市飯塚町1150-5 ウニクス高崎2F","36.3393121","139.0070888"
"横川SA下り店","群馬県安中市松井田町横川字井戸入917（横川SA下り） 1F","36.3418503","138.7400669"
"館林アゼリアモール店","群馬県館林市楠町3648-1 館林つつじの里SC内 アゼリアモール1F","36.2421733","139.5690437"
"高崎モントレー店","群馬県高崎市八島町222番地 高崎モントレー4F","36.3224536","139.0120125"
"高崎店","群馬県高崎市八島町20 淡路ビル1F","36.323034","139.010212"
"前橋みなみモール店","群馬県前橋市新堀町940","36.3315776","139.0984897"
"Emio狭山市店","埼玉県狭山市祇園4-55","35.8568805","139.4132321"
"Emio所沢店","埼玉県所沢市くすのき台1丁目14番5号 西武鉄道所沢駅改札内","35.786886","139.473287"
"TSUTAYAレイクタウン店","埼玉県越谷市レイクタウン4丁目21番地1 イオンレイクタウンKaze　A-108","35.8776271","139.8250107"
"アクロスプラザ三芳店","埼玉県入間郡三芳町大字藤久保北新埜855番403","35.8389162","139.5250047"
"アリオ上尾店","埼玉県上尾市大字壱丁目367番地","35.9616186","139.565464"
"イーサイト籠原店","埼玉県熊谷市新堀713　イーサイト籠原2F","36.174952","139.3299864"
"イオンモール与野店","埼玉県さいたま市中央区本町西5-2-9 イオンモール与野店 2F","35.8913915","139.6145973"
"イオン所沢店","埼玉県所沢市東町5-22 イオン所沢１Ｆ","35.7892369","139.4699593"
"ウニクス伊奈店","埼玉県北足立郡伊奈町学園2丁目188-1 ウニクス伊奈2F","36.0098638","139.6136382"
"ウニクス浦和美園店","埼玉県さいたま市岩槻区美園東二丁目 17番地13 ウニクス浦和美園2F","35.902617","139.7302753"
"Emio狭山市店","埼玉県狭山市祇園4-55","35.8568805","139.4132321"
"Emio所沢店","埼玉県所沢市くすのき台1丁目14番5号 西武鉄道所沢駅改札内","35.786886","139.473287"
"TSUTAYAレイクタウン店","埼玉県越谷市レイクタウン4丁目21番地1 イオンレイクタウンKaze　A-108","35.8776271","139.8250107"
"アクロスプラザ三芳店","埼玉県入間郡三芳町大字藤久保北新埜855番403","35.8389162","139.5250047"
"アリオ上尾店","埼玉県上尾市大字壱丁目367番地","35.9616186","139.565464"
"イーサイト籠原店","埼玉県熊谷市新堀713　イーサイト籠原2F","36.174952","139.3299864"
"イオンモール与野店","埼玉県さいたま市中央区本町西5-2-9 イオンモール与野店 2F","35.8913915","139.6145973"
"イオン所沢店","埼玉県所沢市東町5-22 イオン所沢１Ｆ","35.7892369","139.4699593"
"ウニクス伊奈店","埼玉県北足立郡伊奈町学園2丁目188-1 ウニクス伊奈2F","36.0098638","139.6136382"
"ウニクス浦和美園店","埼玉県さいたま市岩槻区美園東二丁目 17番地13 ウニクス浦和美園2F","35.902617","139.7302753"
"ウニクス鴻巣店","埼玉県鴻巣市北新宿225-1 ウニクス鴻巣2F","36.1124055","139.4400322"
"ウニクス上里店","埼玉県児玉郡上里町大字七本木2272-1 ウニクス上里1階","36.238642","139.153492"
"ウニクス川越店","埼玉県川越市新宿町1丁目17番地1ウニクス川越2F","35.904654","139.4799414"
"ウニクス南古谷店","埼玉県川越市泉町1-1 ウニクス南古谷店 1F","35.9033796","139.5146453"
"キューポラ川口店","埼玉県川口市川口1-1-1 キュ･ポラ本館専門店3F","35.80094100000001","139.7185914"
"コクーンシティ店","埼玉県さいたま市大宮区吉敷町4-267-2 コクーンシティ内コクーン1西館2F","35.8964547","139.6353694"
"タリーズコーヒー・ナチュラルステーション小手指駅店","埼玉県所沢市小手指町1-1-1　小手指駅1F","35.8009902","139.4383347"
"フォレオ菖蒲店","埼玉県久喜市菖蒲町大字菖蒲字寺田4900番地　　蔦屋書店フォレオ菖蒲店内","36.0708853","139.617079"
"ベニバナウォーク桶川店","埼玉県桶川都市計画事業下日出谷東特定土地区画整理事業地内42街区1画地","35.996646","139.5500264"
"Emio狭山市店","埼玉県狭山市祇園4-55","35.8568805","139.4132321"
"Emio所沢店","埼玉県所沢市くすのき台1丁目14番5号 西武鉄道所沢駅改札内","35.786886","139.473287"
"TSUTAYAレイクタウン店","埼玉県越谷市レイクタウン4丁目21番地1 イオンレイクタウンKaze　A-108","35.8776271","139.8250107"
"アクロスプラザ三芳店","埼玉県入間郡三芳町大字藤久保北新埜855番403","35.8389162","139.5250047"
"アリオ上尾店","埼玉県上尾市大字壱丁目367番地","35.9616186","139.565464"
"イーサイト籠原店","埼玉県熊谷市新堀713　イーサイト籠原2F","36.174952","139.3299864"
"イオンモール与野店","埼玉県さいたま市中央区本町西5-2-9 イオンモール与野店 2F","35.8913915","139.6145973"
"イオン所沢店","埼玉県所沢市東町5-22 イオン所沢１Ｆ","35.7892369","139.4699593"
"ウニクス伊奈店","埼玉県北足立郡伊奈町学園2丁目188-1 ウニクス伊奈2F","36.0098638","139.6136382"
"ウニクス浦和美園店","埼玉県さいたま市岩槻区美園東二丁目 17番地13 ウニクス浦和美園2F","35.902617","139.7302753"
"ウニクス鴻巣店","埼玉県鴻巣市北新宿225-1 ウニクス鴻巣2F","36.1124055","139.4400322"
"ウニクス上里店","埼玉県児玉郡上里町大字七本木2272-1 ウニクス上里1階","36.238642","139.153492"
"ウニクス川越店","埼玉県川越市新宿町1丁目17番地1ウニクス川越2F","35.904654","139.4799414"
"ウニクス南古谷店","埼玉県川越市泉町1-1 ウニクス南古谷店 1F","35.9033796","139.5146453"
"キューポラ川口店","埼玉県川口市川口1-1-1 キュ･ポラ本館専門店3F","35.80094100000001","139.7185914"
"コクーンシティ店","埼玉県さいたま市大宮区吉敷町4-267-2 コクーンシティ内コクーン1西館2F","35.8964547","139.6353694"
"タリーズコーヒー・ナチュラルステーション小手指駅店","埼玉県所沢市小手指町1-1-1　小手指駅1F","35.8009902","139.4383347"
"フォレオ菖蒲店","埼玉県久喜市菖蒲町大字菖蒲字寺田4900番地　　蔦屋書店フォレオ菖蒲店内","36.0708853","139.617079"
"ベニバナウォーク桶川店","埼玉県桶川都市計画事業下日出谷東特定土地区画整理事業地内42街区1画地","35.996646","139.5500264"
"ららぽーと新三郷店","埼玉県三郷市新三郷 ららシティ3丁目1-1","35.8601478","139.8653829"
"浦和さくら草通り店","埼玉県さいたま市浦和区高砂2丁目5番11","35.8577353","139.6534316"
"戸田中央総合病院店","埼玉県戸田市本町1-19-3　Ａ館1F","35.8112529","139.6801389"
"戸田店","埼玉県戸田市新曽662 T-FRONTE2F","35.817496","139.6687537"
"高坂ＳＡ上り店","埼玉県東松山市大字田木字立野4-5","35.9854242","139.3849355"
"埼玉医科大学病院店","埼玉県入間郡毛呂山町毛呂本郷38","35.9381312","139.3051658"
"三井アウトレットパーク入間店","埼玉県入間市宮寺3169-1","35.8101879","139.3802147"
"春日部駅西口店","埼玉県春日部市粕壁1-10-1","35.9802617","139.7525201"
"上尾中央総合病院店","埼玉県上尾市柏座1-10-10　上尾中央総合病院B館1F","35.9744","139.58554"
"川口市立医療センター店","埼玉県川口市西新井宿180　1F","35.8433182","139.7305223"
"Emio狭山市店","埼玉県狭山市祇園4-55","35.8568805","139.4132321"
"Emio所沢店","埼玉県所沢市くすのき台1丁目14番5号 西武鉄道所沢駅改札内","35.786886","139.473287"
"TSUTAYAレイクタウン店","埼玉県越谷市レイクタウン4丁目21番地1 イオンレイクタウンKaze　A-108","35.8776271","139.8250107"
"アクロスプラザ三芳店","埼玉県入間郡三芳町大字藤久保北新埜855番403","35.8389162","139.5250047"
"アリオ上尾店","埼玉県上尾市大字壱丁目367番地","35.9616186","139.565464"
"イーサイト籠原店","埼玉県熊谷市新堀713　イーサイト籠原2F","36.174952","139.3299864"
"イオンモール与野店","埼玉県さいたま市中央区本町西5-2-9 イオンモール与野店 2F","35.8913915","139.6145973"
"イオン所沢店","埼玉県所沢市東町5-22 イオン所沢１Ｆ","35.7892369","139.4699593"
"ウニクス伊奈店","埼玉県北足立郡伊奈町学園2丁目188-1 ウニクス伊奈2F","36.0098638","139.6136382"
"ウニクス浦和美園店","埼玉県さいたま市岩槻区美園東二丁目 17番地13 ウニクス浦和美園2F","35.902617","139.7302753"
"ウニクス鴻巣店","埼玉県鴻巣市北新宿225-1 ウニクス鴻巣2F","36.1124055","139.4400322"
"ウニクス上里店","埼玉県児玉郡上里町大字七本木2272-1 ウニクス上里1階","36.238642","139.153492"
"ウニクス川越店","埼玉県川越市新宿町1丁目17番地1ウニクス川越2F","35.904654","139.4799414"
"ウニクス南古谷店","埼玉県川越市泉町1-1 ウニクス南古谷店 1F","35.9033796","139.5146453"
"キューポラ川口店","埼玉県川口市川口1-1-1 キュ･ポラ本館専門店3F","35.80094100000001","139.7185914"
"コクーンシティ店","埼玉県さいたま市大宮区吉敷町4-267-2 コクーンシティ内コクーン1西館2F","35.8964547","139.6353694"
"タリーズコーヒー・ナチュラルステーション小手指駅店","埼玉県所沢市小手指町1-1-1　小手指駅1F","35.8009902","139.4383347"
"フォレオ菖蒲店","埼玉県久喜市菖蒲町大字菖蒲字寺田4900番地　　蔦屋書店フォレオ菖蒲店内","36.0708853","139.617079"
"ベニバナウォーク桶川店","埼玉県桶川都市計画事業下日出谷東特定土地区画整理事業地内42街区1画地","35.996646","139.5500264"
"ららぽーと新三郷店","埼玉県三郷市新三郷 ららシティ3丁目1-1","35.8601478","139.8653829"
"浦和さくら草通り店","埼玉県さいたま市浦和区高砂2丁目5番11","35.8577353","139.6534316"
"戸田中央総合病院店","埼玉県戸田市本町1-19-3　Ａ館1F","35.8112529","139.6801389"
"戸田店","埼玉県戸田市新曽662 T-FRONTE2F","35.817496","139.6687537"
"高坂ＳＡ上り店","埼玉県東松山市大字田木字立野4-5","35.9854242","139.3849355"
"埼玉医科大学病院店","埼玉県入間郡毛呂山町毛呂本郷38","35.9381312","139.3051658"
"三井アウトレットパーク入間店","埼玉県入間市宮寺3169-1","35.8101879","139.3802147"
"春日部駅西口店","埼玉県春日部市粕壁1-10-1","35.9802617","139.7525201"
"上尾中央総合病院店","埼玉県上尾市柏座1-10-10　上尾中央総合病院B館1F","35.9744","139.58554"
"川口市立医療センター店","埼玉県川口市西新井宿180　1F","35.8433182","139.7305223"
"大宮ソニックシティ店","埼玉県さいたま市大宮区桜木町1-7-5 大宮ソニックシティー2F","35.905198","139.619613"
"東松山店","埼玉県東松山市あずま町4丁目8-3","36.0035748","139.4131143"
"武蔵浦和駅前店","埼玉県さいたま市南区別所7丁目21番1号 プラウドタワー武蔵浦和マークス1F","35.845847","139.6454483"
"防衛医大病院店","埼玉県所沢市並木 3-2","35.80256","139.4691627"
"本庄早稲田店","埼玉県本庄市早稲田の杜2丁目1-46","36.2196221","139.1849055"
"Ｐａｓａｒ幕張店","千葉県千葉市花見川区幕張町2-2651-1 Pasar幕張（下り線）内","35.6714105","140.0537753"
"アトレ松戸店","千葉県松戸市松戸1181　アトレ松戸(旧：ボックスヒル松戸)5階","35.7850361","139.9005287"
"イオンモール成田店","千葉県成田市ウイング土屋24 イオンモール成田店","35.795727","140.318048"
"イオンモール津田沼店","千葉県習志野市津田沼1-23-1 イオンモール津田沼店2F","35.6902833","140.0251411"
"イクスピアリ店","千葉県浦安市舞浜1-4イクスピアリ１Fガーデンサイト","35.6336939","139.8869735"
"シャポー市川店","千葉県市川市市川1-1-1","35.729338","139.9095502"
"シャポー本八幡店","千葉県市川市八幡2-17-1","35.7211922","139.9270686"
"セブンパークアリオ柏店","千葉県柏市大島田950-1 セブンパーク アリオ柏2F","35.8334268","140.013182"
"ペリエ稲毛コムスクエア店","千葉県千葉市稲毛区稲毛東3丁目19番11号","35.637136","140.0922822"
"ペリエ千葉 ペリチカ店","千葉県千葉市中央区新千葉1-1-1 ペリエ千葉ペリチカB1F","35.6124144","140.114364"
"Ｐａｓａｒ幕張店","千葉県千葉市花見川区幕張町2-2651-1 Pasar幕張（下り線）内","35.6714105","140.0537753"
"アトレ松戸店","千葉県松戸市松戸1181　アトレ松戸(旧：ボックスヒル松戸)5階","35.7850361","139.9005287"
"イオンモール成田店","千葉県成田市ウイング土屋24 イオンモール成田店","35.795727","140.318048"
"イオンモール津田沼店","千葉県習志野市津田沼1-23-1 イオンモール津田沼店2F","35.6902833","140.0251411"
"イクスピアリ店","千葉県浦安市舞浜1-4イクスピアリ１Fガーデンサイト","35.6336939","139.8869735"
"シャポー市川店","千葉県市川市市川1-1-1","35.729338","139.9095502"
"シャポー本八幡店","千葉県市川市八幡2-17-1","35.7211922","139.9270686"
"セブンパークアリオ柏店","千葉県柏市大島田950-1 セブンパーク アリオ柏2F","35.8334268","140.013182"
"ペリエ稲毛コムスクエア店","千葉県千葉市稲毛区稲毛東3丁目19番11号","35.637136","140.0922822"
"ペリエ千葉 ペリチカ店","千葉県千葉市中央区新千葉1-1-1 ペリエ千葉ペリチカB1F","35.6124144","140.114364"
"ペリエ千葉カーニバル店","千葉県千葉市中央区新千葉1-1-1","35.6123889","140.1146008"
"モリシア津田沼店","千葉県習志野市谷津1丁目16-1 モリシア津田沼1F","35.6898479","140.0191567"
"ライフガーデン茂原店","千葉県茂原市六ツ野八貫野2785-1","35.4301897","140.3101356"
"ららぽーとTOKYO-BAY店","千葉県船橋市浜町2-1-1 ららぽーとTOKYO-BAY西館1F","35.685882","139.989963"
"ららぽーと柏の葉店","千葉県柏市若芝175 3F","35.8936688","139.9510486"
"ららぽーと柏の葉北館店","千葉県柏市若芝178-4　柏の葉キャンパス148街区2 ショップ&オフィスららぽーと柏の葉北館1F","35.8948232","139.9509862"
"海浜幕張店","千葉県千葉市美浜区ひび野1-8 メッセアミューズモール1F","35.6497534","140.0423506"
"亀田メディカルセンター店","千葉県鴨川市東町929 K-Tower1F","35.1204576","140.1265038"
"君津駅前店","千葉県君津市東坂田2-3-1","35.3359103","139.8948968"
"三井アウトレットパーク幕張店","千葉県千葉市美浜区ひび野2-6-1 三井アウトレットパーク 1F","35.6464564","140.0417552"
"Ｐａｓａｒ幕張店","千葉県千葉市花見川区幕張町2-2651-1 Pasar幕張（下り線）内","35.6714105","140.0537753"
"アトレ松戸店","千葉県松戸市松戸1181　アトレ松戸(旧：ボックスヒル松戸)5階","35.7850361","139.9005287"
"イオンモール成田店","千葉県成田市ウイング土屋24 イオンモール成田店","35.795727","140.318048"
"イオンモール津田沼店","千葉県習志野市津田沼1-23-1 イオンモール津田沼店2F","35.6902833","140.0251411"
"イクスピアリ店","千葉県浦安市舞浜1-4イクスピアリ１Fガーデンサイト","35.6336939","139.8869735"
"シャポー市川店","千葉県市川市市川1-1-1","35.729338","139.9095502"
"シャポー本八幡店","千葉県市川市八幡2-17-1","35.7211922","139.9270686"
"セブンパークアリオ柏店","千葉県柏市大島田950-1 セブンパーク アリオ柏2F","35.8334268","140.013182"
"ペリエ稲毛コムスクエア店","千葉県千葉市稲毛区稲毛東3丁目19番11号","35.637136","140.0922822"
"ペリエ千葉 ペリチカ店","千葉県千葉市中央区新千葉1-1-1 ペリエ千葉ペリチカB1F","35.6124144","140.114364"
"ペリエ千葉カーニバル店","千葉県千葉市中央区新千葉1-1-1","35.6123889","140.1146008"
"モリシア津田沼店","千葉県習志野市谷津1丁目16-1 モリシア津田沼1F","35.6898479","140.0191567"
"ライフガーデン茂原店","千葉県茂原市六ツ野八貫野2785-1","35.4301897","140.3101356"
"ららぽーとTOKYO-BAY店","千葉県船橋市浜町2-1-1 ららぽーとTOKYO-BAY西館1F","35.685882","139.989963"
"ららぽーと柏の葉店","千葉県柏市若芝175 3F","35.8936688","139.9510486"
"ららぽーと柏の葉北館店","千葉県柏市若芝178-4　柏の葉キャンパス148街区2 ショップ&オフィスららぽーと柏の葉北館1F","35.8948232","139.9509862"
"海浜幕張店","千葉県千葉市美浜区ひび野1-8 メッセアミューズモール1F","35.6497534","140.0423506"
"亀田メディカルセンター店","千葉県鴨川市東町929 K-Tower1F","35.1204576","140.1265038"
"君津駅前店","千葉県君津市東坂田2-3-1","35.3359103","139.8948968"
"三井アウトレットパーク幕張店","千葉県千葉市美浜区ひび野2-6-1 三井アウトレットパーク 1F","35.6464564","140.0417552"
"新松戸店","千葉県松戸市新松戸3-2-2 ダイエー新松戸店1F","35.8252823","139.9154989"
"成田空港第１ターミナル南ウイング店","千葉県成田市三里塚字御料牧場1-1 成田国際空港第一旅客ターミナル南ウイング4Ｆ","35.763155","140.3872184"
"成田空港第1ターミナル北ウイング店","千葉県成田市 成田国際空港内 第1旅客ターミナルビル 北ウイング5F","35.7657241","140.3849357"
"成田空港第2ターミナル店","千葉県成田市古込字古込1番1成田国際空港内第2旅客ターミナル本館3階制限区域","35.7726867","140.3895989"
"千葉みなと店","千葉県千葉市中央区中央港1-16-3","35.6042976","140.1031049"
"千葉西総合病院店","千葉県松戸市金ヶ作字佐野107番1","35.8085708","139.9442596"
"千葉大学病院店","千葉県千葉市中央区亥鼻1丁目8-1","35.6054491","140.1327305"
"南柏店","千葉県柏市南柏中央6-7 フィールズ南柏 MALL-1","35.844249","139.955353"
"柏モディ店","千葉県柏市柏1-2-26　柏モディ2F","35.860474","139.9705899"
"Ｐａｓａｒ幕張店","千葉県千葉市花見川区幕張町2-2651-1 Pasar幕張（下り線）内","35.6714105","140.0537753"
"アトレ松戸店","千葉県松戸市松戸1181　アトレ松戸(旧：ボックスヒル松戸)5階","35.7850361","139.9005287"
"イオンモール成田店","千葉県成田市ウイング土屋24 イオンモール成田店","35.795727","140.318048"
"イオンモール津田沼店","千葉県習志野市津田沼1-23-1 イオンモール津田沼店2F","35.6902833","140.0251411"
"イクスピアリ店","千葉県浦安市舞浜1-4イクスピアリ１Fガーデンサイト","35.6336939","139.8869735"
"シャポー市川店","千葉県市川市市川1-1-1","35.729338","139.9095502"
"シャポー本八幡店","千葉県市川市八幡2-17-1","35.7211922","139.9270686"
"セブンパークアリオ柏店","千葉県柏市大島田950-1 セブンパーク アリオ柏2F","35.8334268","140.013182"
"ペリエ稲毛コムスクエア店","千葉県千葉市稲毛区稲毛東3丁目19番11号","35.637136","140.0922822"
"ペリエ千葉 ペリチカ店","千葉県千葉市中央区新千葉1-1-1 ペリエ千葉ペリチカB1F","35.6124144","140.114364"
"ペリエ千葉カーニバル店","千葉県千葉市中央区新千葉1-1-1","35.6123889","140.1146008"
"モリシア津田沼店","千葉県習志野市谷津1丁目16-1 モリシア津田沼1F","35.6898479","140.0191567"
"ライフガーデン茂原店","千葉県茂原市六ツ野八貫野2785-1","35.4301897","140.3101356"
"ららぽーとTOKYO-BAY店","千葉県船橋市浜町2-1-1 ららぽーとTOKYO-BAY西館1F","35.685882","139.989963"
"ららぽーと柏の葉店","千葉県柏市若芝175 3F","35.8936688","139.9510486"
"ららぽーと柏の葉北館店","千葉県柏市若芝178-4　柏の葉キャンパス148街区2 ショップ&オフィスららぽーと柏の葉北館1F","35.8948232","139.9509862"
"海浜幕張店","千葉県千葉市美浜区ひび野1-8 メッセアミューズモール1F","35.6497534","140.0423506"
"亀田メディカルセンター店","千葉県鴨川市東町929 K-Tower1F","35.1204576","140.1265038"
"君津駅前店","千葉県君津市東坂田2-3-1","35.3359103","139.8948968"
"三井アウトレットパーク幕張店","千葉県千葉市美浜区ひび野2-6-1 三井アウトレットパーク 1F","35.6464564","140.0417552"
"新松戸店","千葉県松戸市新松戸3-2-2 ダイエー新松戸店1F","35.8252823","139.9154989"
"成田空港第１ターミナル南ウイング店","千葉県成田市三里塚字御料牧場1-1 成田国際空港第一旅客ターミナル南ウイング4Ｆ","35.763155","140.3872184"
"成田空港第1ターミナル北ウイング店","千葉県成田市 成田国際空港内 第1旅客ターミナルビル 北ウイング5F","35.7657241","140.3849357"
"成田空港第2ターミナル店","千葉県成田市古込字古込1番1成田国際空港内第2旅客ターミナル本館3階制限区域","35.7726867","140.3895989"
"千葉みなと店","千葉県千葉市中央区中央港1-16-3","35.6042976","140.1031049"
"千葉西総合病院店","千葉県松戸市金ヶ作字佐野107番1","35.8085708","139.9442596"
"千葉大学病院店","千葉県千葉市中央区亥鼻1丁目8-1","35.6054491","140.1327305"
"南柏店","千葉県柏市南柏中央6-7 フィールズ南柏 MALL-1","35.844249","139.955353"
"柏モディ店","千葉県柏市柏1-2-26　柏モディ2F","35.860474","139.9705899"
"八千代村上店","千葉県八千代市村上南1丁目3番地1　イトーヨーカドー八千代店2F","35.722387","140.11753"
"Ｅｍｉｏ東久留米店","東京都東久留米市東本町 1-8","35.7607724","139.5338137"
"Emio練馬高野台店","東京都練馬区高野台1-7-27 Emio練馬高野台2F","35.740165","139.6176262"
"ＩＢＭ箱崎店","東京都中央区日本橋箱崎町19-21 IBM箱崎ビル1F","35.6791594","139.7868759"
"ＭＩＮＡＮＯ分倍河原店","東京都府中市片町3-22-26","35.6670374","139.4695373"
"ＮＢＦ豊洲店","東京都江東区豊洲5-6-52","35.6505891","139.7992764"
"ｎｏｎｏｗａ西国分寺店","東京都国分寺市西恋ヶ窪2-1-18","35.6998138","139.4657165"
"nonowa武蔵境店","東京都武蔵野市境南町2丁目1番35号","35.701127","139.5411325"
"OEDO日本橋店","東京都中央区日本橋二丁目7-1東京日本橋タワーB1F","35.6818052","139.7741444"
"ＰＣＰ丸の内店","東京都千代田区丸の内1-11-1 パシフィックセンチュリープレイス丸の内B1","35.6780522","139.7668531"
"with U ルミネ池袋店","東京都豊島区西池袋1-11-1ルミネ池袋6F","35.728845","139.709307"
"Ｅｍｉｏ東久留米店","東京都東久留米市東本町 1-8","35.7607724","139.5338137"
"Emio練馬高野台店","東京都練馬区高野台1-7-27 Emio練馬高野台2F","35.740165","139.6176262"
"ＩＢＭ箱崎店","東京都中央区日本橋箱崎町19-21 IBM箱崎ビル1F","35.6791594","139.7868759"
"ＭＩＮＡＮＯ分倍河原店","東京都府中市片町3-22-26","35.6670374","139.4695373"
"ＮＢＦ豊洲店","東京都江東区豊洲5-6-52","35.6505891","139.7992764"
"ｎｏｎｏｗａ西国分寺店","東京都国分寺市西恋ヶ窪2-1-18","35.6998138","139.4657165"
"nonowa武蔵境店","東京都武蔵野市境南町2丁目1番35号","35.701127","139.5411325"
"OEDO日本橋店","東京都中央区日本橋二丁目7-1東京日本橋タワーB1F","35.6818052","139.7741444"
"ＰＣＰ丸の内店","東京都千代田区丸の内1-11-1 パシフィックセンチュリープレイス丸の内B1","35.6780522","139.7668531"
"with U ルミネ池袋店","東京都豊島区西池袋1-11-1ルミネ池袋6F","35.728845","139.709307"
"アトレヴィ巣鴨店","東京都豊島区巣鴨1丁目16番8号 アトレヴィ巣鴨4F","35.7335708","139.7393103"
"アトレ吉祥寺店","東京都武蔵野市吉祥寺南町1丁目1番24号　アトレ吉祥寺東館2F","35.7031145","139.5788053"
"アトレ秋葉原店","東京都千代田区神田花岡町1-9 アトレ秋葉原2 2F","35.698358","139.774777"
"アトレ大森店","東京都大田区大森北1-6-16　アトレ大森１Ｆ","35.5884005","139.7282054"
"アトレ目黒店","東京都品川区上大崎3-1-1 アトレ目黒2F","35.633358","139.71573"
"イーホテル東新宿店","東京都新宿区歌舞伎町2-3-15 　イーホテル東新宿1階","35.6977155","139.707133"
"イオンスタイル板橋前野町店","東京都板橋区前野町4丁目21番22号イオンスタイル板橋前野町店1F","35.7712215","139.6917478"
"エキュート立川店","東京都立川市柴崎町3-1-1 エキュート立川3F","35.697558","139.413356"
"エビススバルビル店","東京都渋谷区恵比寿1-20-8 エビススバルビル1F","35.6469854","139.7134582"
"お台場デックス店","東京都港区台場1-6-1 デックス東京ビーチ1F","35.6290929","139.775913"
"Ｅｍｉｏ東久留米店","東京都東久留米市東本町 1-8","35.7607724","139.5338137"
"Emio練馬高野台店","東京都練馬区高野台1-7-27 Emio練馬高野台2F","35.740165","139.6176262"
"ＩＢＭ箱崎店","東京都中央区日本橋箱崎町19-21 IBM箱崎ビル1F","35.6791594","139.7868759"
"ＭＩＮＡＮＯ分倍河原店","東京都府中市片町3-22-26","35.6670374","139.4695373"
"ＮＢＦ豊洲店","東京都江東区豊洲5-6-52","35.6505891","139.7992764"
"ｎｏｎｏｗａ西国分寺店","東京都国分寺市西恋ヶ窪2-1-18","35.6998138","139.4657165"
"nonowa武蔵境店","東京都武蔵野市境南町2丁目1番35号","35.701127","139.5411325"
"OEDO日本橋店","東京都中央区日本橋二丁目7-1東京日本橋タワーB1F","35.6818052","139.7741444"
"ＰＣＰ丸の内店","東京都千代田区丸の内1-11-1 パシフィックセンチュリープレイス丸の内B1","35.6780522","139.7668531"
"with U ルミネ池袋店","東京都豊島区西池袋1-11-1ルミネ池袋6F","35.728845","139.709307"
"アトレヴィ巣鴨店","東京都豊島区巣鴨1丁目16番8号 アトレヴィ巣鴨4F","35.7335708","139.7393103"
"アトレ吉祥寺店","東京都武蔵野市吉祥寺南町1丁目1番24号　アトレ吉祥寺東館2F","35.7031145","139.5788053"
"アトレ秋葉原店","東京都千代田区神田花岡町1-9 アトレ秋葉原2 2F","35.698358","139.774777"
"アトレ大森店","東京都大田区大森北1-6-16　アトレ大森１Ｆ","35.5884005","139.7282054"
"アトレ目黒店","東京都品川区上大崎3-1-1 アトレ目黒2F","35.633358","139.71573"
"イーホテル東新宿店","東京都新宿区歌舞伎町2-3-15 　イーホテル東新宿1階","35.6977155","139.707133"
"イオンスタイル板橋前野町店","東京都板橋区前野町4丁目21番22号イオンスタイル板橋前野町店1F","35.7712215","139.6917478"
"エキュート立川店","東京都立川市柴崎町3-1-1 エキュート立川3F","35.697558","139.413356"
"エビススバルビル店","東京都渋谷区恵比寿1-20-8 エビススバルビル1F","35.6469854","139.7134582"
"お台場デックス店","東京都港区台場1-6-1 デックス東京ビーチ1F","35.6290929","139.775913"
"がん研有明病院店","東京都江東区有明3-8-31 がん研有明病院内","35.6344018","139.7949996"
"グランエミオ大泉学園店","東京都練馬区東大泉一丁目28-1グランエミオ大泉学園2F","35.749628","139.587385"
"グランデュオ立川店","東京都立川市柴崎町3-2-1 6F","35.6973884","139.414818"
"グリナード永山店","東京都多摩市永山1-4 グリナード永山1号館4F","35.6294191","139.4484103"
"セレオ国分寺店","東京都国分寺市南町3-20-3　セレオ国分寺2F","35.699792","139.480346"
"セレスティン芝三井ビルディング店","東京都港区芝3-23-1 セレスティン芝三井ビルディング1F","35.6510572","139.7487576"
"ソニーシティ内店","東京都港区港南1－7－1　ソニーシティ1F","35.631165","139.743612"
"ダイバーシティ東京プラザ店","東京都江東区青海1丁目1番地1号　ダイバーシティ東京プラザ 3F","35.6248414","139.7757086"
"デンマーク・ザ・ロイヤルカフェテラス 東京スクエアガーデン店","東京都中央区京橋3丁目1-1 東京スクエアガーデンB1F","35.676097","139.768709"
"Ｅｍｉｏ東久留米店","東京都東久留米市東本町 1-8","35.7607724","139.5338137"
"Emio練馬高野台店","東京都練馬区高野台1-7-27 Emio練馬高野台2F","35.740165","139.6176262"
"ＩＢＭ箱崎店","東京都中央区日本橋箱崎町19-21 IBM箱崎ビル1F","35.6791594","139.7868759"
"ＭＩＮＡＮＯ分倍河原店","東京都府中市片町3-22-26","35.6670374","139.4695373"
"ＮＢＦ豊洲店","東京都江東区豊洲5-6-52","35.6505891","139.7992764"
"ｎｏｎｏｗａ西国分寺店","東京都国分寺市西恋ヶ窪2-1-18","35.6998138","139.4657165"
"nonowa武蔵境店","東京都武蔵野市境南町2丁目1番35号","35.701127","139.5411325"
"OEDO日本橋店","東京都中央区日本橋二丁目7-1東京日本橋タワーB1F","35.6818052","139.7741444"
"ＰＣＰ丸の内店","東京都千代田区丸の内1-11-1 パシフィックセンチュリープレイス丸の内B1","35.6780522","139.7668531"
"with U ルミネ池袋店","東京都豊島区西池袋1-11-1ルミネ池袋6F","35.728845","139.709307"
"アトレヴィ巣鴨店","東京都豊島区巣鴨1丁目16番8号 アトレヴィ巣鴨4F","35.7335708","139.7393103"
"アトレ吉祥寺店","東京都武蔵野市吉祥寺南町1丁目1番24号　アトレ吉祥寺東館2F","35.7031145","139.5788053"
"アトレ秋葉原店","東京都千代田区神田花岡町1-9 アトレ秋葉原2 2F","35.698358","139.774777"
"アトレ大森店","東京都大田区大森北1-6-16　アトレ大森１Ｆ","35.5884005","139.7282054"
"アトレ目黒店","東京都品川区上大崎3-1-1 アトレ目黒2F","35.633358","139.71573"
"イーホテル東新宿店","東京都新宿区歌舞伎町2-3-15 　イーホテル東新宿1階","35.6977155","139.707133"
"イオンスタイル板橋前野町店","東京都板橋区前野町4丁目21番22号イオンスタイル板橋前野町店1F","35.7712215","139.6917478"
"エキュート立川店","東京都立川市柴崎町3-1-1 エキュート立川3F","35.697558","139.413356"
"エビススバルビル店","東京都渋谷区恵比寿1-20-8 エビススバルビル1F","35.6469854","139.7134582"
"お台場デックス店","東京都港区台場1-6-1 デックス東京ビーチ1F","35.6290929","139.775913"
"がん研有明病院店","東京都江東区有明3-8-31 がん研有明病院内","35.6344018","139.7949996"
"グランエミオ大泉学園店","東京都練馬区東大泉一丁目28-1グランエミオ大泉学園2F","35.749628","139.587385"
"グランデュオ立川店","東京都立川市柴崎町3-2-1 6F","35.6973884","139.414818"
"グリナード永山店","東京都多摩市永山1-4 グリナード永山1号館4F","35.6294191","139.4484103"
"セレオ国分寺店","東京都国分寺市南町3-20-3　セレオ国分寺2F","35.699792","139.480346"
"セレスティン芝三井ビルディング店","東京都港区芝3-23-1 セレスティン芝三井ビルディング1F","35.6510572","139.7487576"
"ソニーシティ内店","東京都港区港南1－7－1　ソニーシティ1F","35.631165","139.743612"
"ダイバーシティ東京プラザ店","東京都江東区青海1丁目1番地1号　ダイバーシティ東京プラザ 3F","35.6248414","139.7757086"
"デンマーク・ザ・ロイヤルカフェテラス 東京スクエアガーデン店","東京都中央区京橋3丁目1-1 東京スクエアガーデンB1F","35.676097","139.768709"
"トレードピアお台場店","東京都港区台場2-3-1 トレードピアお台場1F","35.62792650000001","139.7764703"
"ニューオータニガーデンコート店","東京都千代田区紀尾井町4-1 ガーデンコート2F","35.6792602","139.7357528"
"ビリーヴ大森店","東京都品川区南大井6丁目25-3 ビリーヴ大森1F","35.5890649","139.7309947"
"ブルースカイタリーズコーヒー羽田空港第一ターミナル店","東京都大田区羽田空港3-3-2第一旅客ターミナルビルP.O.BOX26","35.5491133","139.7838439"
"フレスポ府中店","東京都府中市西原町1-6-2 蔦屋書店 フレスポ府中店内","35.6823235","139.4606338"
"マロニエゲート銀座2店","東京都中央区銀座3-2-1　マロニエゲート銀座2 B2F","35.673741","139.765233"
"みなみ野店","東京都八王子市みなみ野1-7-7","35.632494","139.3273252"
"阿佐ヶ谷ダイヤ街店","東京都杉並区阿佐ヶ谷南3-55-1　阿佐ヶ谷ダイヤ街2F","35.7049797","139.6355408"
"綾瀬駅前店","東京都足立区綾瀬3-1-2 東急ストア内","35.7622747","139.8251382"
"歌舞伎座店","東京都中央区銀座4-12-15 GINZAKABUKIZA　B2F","35.6694671","139.7678232"
"Ｅｍｉｏ東久留米店","東京都東久留米市東本町 1-8","35.7607724","139.5338137"
"Emio練馬高野台店","東京都練馬区高野台1-7-27 Emio練馬高野台2F","35.740165","139.6176262"
"ＩＢＭ箱崎店","東京都中央区日本橋箱崎町19-21 IBM箱崎ビル1F","35.6791594","139.7868759"
"ＭＩＮＡＮＯ分倍河原店","東京都府中市片町3-22-26","35.6670374","139.4695373"
"ＮＢＦ豊洲店","東京都江東区豊洲5-6-52","35.6505891","139.7992764"
"ｎｏｎｏｗａ西国分寺店","東京都国分寺市西恋ヶ窪2-1-18","35.6998138","139.4657165"
"nonowa武蔵境店","東京都武蔵野市境南町2丁目1番35号","35.701127","139.5411325"
"OEDO日本橋店","東京都中央区日本橋二丁目7-1東京日本橋タワーB1F","35.6818052","139.7741444"
"ＰＣＰ丸の内店","東京都千代田区丸の内1-11-1 パシフィックセンチュリープレイス丸の内B1","35.6780522","139.7668531"
"with U ルミネ池袋店","東京都豊島区西池袋1-11-1ルミネ池袋6F","35.728845","139.709307"
"アトレヴィ巣鴨店","東京都豊島区巣鴨1丁目16番8号 アトレヴィ巣鴨4F","35.7335708","139.7393103"
"アトレ吉祥寺店","東京都武蔵野市吉祥寺南町1丁目1番24号　アトレ吉祥寺東館2F","35.7031145","139.5788053"
"アトレ秋葉原店","東京都千代田区神田花岡町1-9 アトレ秋葉原2 2F","35.698358","139.774777"
"アトレ大森店","東京都大田区大森北1-6-16　アトレ大森１Ｆ","35.5884005","139.7282054"
"アトレ目黒店","東京都品川区上大崎3-1-1 アトレ目黒2F","35.633358","139.71573"
"イーホテル東新宿店","東京都新宿区歌舞伎町2-3-15 　イーホテル東新宿1階","35.6977155","139.707133"
"イオンスタイル板橋前野町店","東京都板橋区前野町4丁目21番22号イオンスタイル板橋前野町店1F","35.7712215","139.6917478"
"エキュート立川店","東京都立川市柴崎町3-1-1 エキュート立川3F","35.697558","139.413356"
"エビススバルビル店","東京都渋谷区恵比寿1-20-8 エビススバルビル1F","35.6469854","139.7134582"
"お台場デックス店","東京都港区台場1-6-1 デックス東京ビーチ1F","35.6290929","139.775913"
"がん研有明病院店","東京都江東区有明3-8-31 がん研有明病院内","35.6344018","139.7949996"
"グランエミオ大泉学園店","東京都練馬区東大泉一丁目28-1グランエミオ大泉学園2F","35.749628","139.587385"
"グランデュオ立川店","東京都立川市柴崎町3-2-1 6F","35.6973884","139.414818"
"グリナード永山店","東京都多摩市永山1-4 グリナード永山1号館4F","35.6294191","139.4484103"
"セレオ国分寺店","東京都国分寺市南町3-20-3　セレオ国分寺2F","35.699792","139.480346"
"セレスティン芝三井ビルディング店","東京都港区芝3-23-1 セレスティン芝三井ビルディング1F","35.6510572","139.7487576"
"ソニーシティ内店","東京都港区港南1－7－1　ソニーシティ1F","35.631165","139.743612"
"ダイバーシティ東京プラザ店","東京都江東区青海1丁目1番地1号　ダイバーシティ東京プラザ 3F","35.6248414","139.7757086"
"デンマーク・ザ・ロイヤルカフェテラス 東京スクエアガーデン店","東京都中央区京橋3丁目1-1 東京スクエアガーデンB1F","35.676097","139.768709"
"トレードピアお台場店","東京都港区台場2-3-1 トレードピアお台場1F","35.62792650000001","139.7764703"
"ニューオータニガーデンコート店","東京都千代田区紀尾井町4-1 ガーデンコート2F","35.6792602","139.7357528"
"ビリーヴ大森店","東京都品川区南大井6丁目25-3 ビリーヴ大森1F","35.5890649","139.7309947"
"ブルースカイタリーズコーヒー羽田空港第一ターミナル店","東京都大田区羽田空港3-3-2第一旅客ターミナルビルP.O.BOX26","35.5491133","139.7838439"
"フレスポ府中店","東京都府中市西原町1-6-2 蔦屋書店 フレスポ府中店内","35.6823235","139.4606338"
"マロニエゲート銀座2店","東京都中央区銀座3-2-1　マロニエゲート銀座2 B2F","35.673741","139.765233"
"みなみ野店","東京都八王子市みなみ野1-7-7","35.632494","139.3273252"
"阿佐ヶ谷ダイヤ街店","東京都杉並区阿佐ヶ谷南3-55-1　阿佐ヶ谷ダイヤ街2F","35.7049797","139.6355408"
"綾瀬駅前店","東京都足立区綾瀬3-1-2 東急ストア内","35.7622747","139.8251382"
"歌舞伎座店","東京都中央区銀座4-12-15 GINZAKABUKIZA　B2F","35.6694671","139.7678232"
"海岸竹芝通り店","東京都港区海岸1-4-8 キヤノン電子ビル","35.6559744","139.7592781"
"蒲田アロマスクエア店","東京都大田区蒲田5-37-1 ニッセイ アロマスクエア1F","35.5609811","139.7183444"
"丸の内CAFE 会店","東京都千代田区丸の内2丁目7番2号","35.67984089999999","139.7650921"
"丸の内パレスビル店","東京都千代田区丸の内1-1-1　パレスビル地下1F","35.685381","139.761559"
"丸の内永楽ビルディング店","東京都千代田区丸の内1-4-1 丸の内永楽ビルディングB1F","35.6846661","139.7647656"
"丸の内東京海上日動ビル店","東京都千代田区丸の内1-2-1 東京海上ビルディング新館1F","35.6831032","139.7633711"
"砧世田谷通り店","東京都世田谷区砧1-15-3 GU世田谷砧店1F","35.636462","139.619053"
"京王高幡SC店","東京都日野市高幡116-10","35.6620418","139.4133917"
"京王多摩センター駅店","東京都多摩市落合1-10-1","35.6253076","139.4241064"
"京急蒲田駅店","東京都大田区蒲田4-50-11　ウィングキッチン京急蒲田１Ｆ","35.5606709","139.7236782"
"Ｅｍｉｏ東久留米店","東京都東久留米市東本町 1-8","35.7607724","139.5338137"
"Emio練馬高野台店","東京都練馬区高野台1-7-27 Emio練馬高野台2F","35.740165","139.6176262"
"ＩＢＭ箱崎店","東京都中央区日本橋箱崎町19-21 IBM箱崎ビル1F","35.6791594","139.7868759"
"ＭＩＮＡＮＯ分倍河原店","東京都府中市片町3-22-26","35.6670374","139.4695373"
"ＮＢＦ豊洲店","東京都江東区豊洲5-6-52","35.6505891","139.7992764"
"ｎｏｎｏｗａ西国分寺店","東京都国分寺市西恋ヶ窪2-1-18","35.6998138","139.4657165"
"nonowa武蔵境店","東京都武蔵野市境南町2丁目1番35号","35.701127","139.5411325"
"OEDO日本橋店","東京都中央区日本橋二丁目7-1東京日本橋タワーB1F","35.6818052","139.7741444"
"ＰＣＰ丸の内店","東京都千代田区丸の内1-11-1 パシフィックセンチュリープレイス丸の内B1","35.6780522","139.7668531"
"with U ルミネ池袋店","東京都豊島区西池袋1-11-1ルミネ池袋6F","35.728845","139.709307"
"アトレヴィ巣鴨店","東京都豊島区巣鴨1丁目16番8号 アトレヴィ巣鴨4F","35.7335708","139.7393103"
"アトレ吉祥寺店","東京都武蔵野市吉祥寺南町1丁目1番24号　アトレ吉祥寺東館2F","35.7031145","139.5788053"
"アトレ秋葉原店","東京都千代田区神田花岡町1-9 アトレ秋葉原2 2F","35.698358","139.774777"
"アトレ大森店","東京都大田区大森北1-6-16　アトレ大森１Ｆ","35.5884005","139.7282054"
"アトレ目黒店","東京都品川区上大崎3-1-1 アトレ目黒2F","35.633358","139.71573"
"イーホテル東新宿店","東京都新宿区歌舞伎町2-3-15 　イーホテル東新宿1階","35.6977155","139.707133"
"イオンスタイル板橋前野町店","東京都板橋区前野町4丁目21番22号イオンスタイル板橋前野町店1F","35.7712215","139.6917478"
"エキュート立川店","東京都立川市柴崎町3-1-1 エキュート立川3F","35.697558","139.413356"
"エビススバルビル店","東京都渋谷区恵比寿1-20-8 エビススバルビル1F","35.6469854","139.7134582"
"お台場デックス店","東京都港区台場1-6-1 デックス東京ビーチ1F","35.6290929","139.775913"
"がん研有明病院店","東京都江東区有明3-8-31 がん研有明病院内","35.6344018","139.7949996"
"グランエミオ大泉学園店","東京都練馬区東大泉一丁目28-1グランエミオ大泉学園2F","35.749628","139.587385"
"グランデュオ立川店","東京都立川市柴崎町3-2-1 6F","35.6973884","139.414818"
"グリナード永山店","東京都多摩市永山1-4 グリナード永山1号館4F","35.6294191","139.4484103"
"セレオ国分寺店","東京都国分寺市南町3-20-3　セレオ国分寺2F","35.699792","139.480346"
"セレスティン芝三井ビルディング店","東京都港区芝3-23-1 セレスティン芝三井ビルディング1F","35.6510572","139.7487576"
"ソニーシティ内店","東京都港区港南1－7－1　ソニーシティ1F","35.631165","139.743612"
"ダイバーシティ東京プラザ店","東京都江東区青海1丁目1番地1号　ダイバーシティ東京プラザ 3F","35.6248414","139.7757086"
"デンマーク・ザ・ロイヤルカフェテラス 東京スクエアガーデン店","東京都中央区京橋3丁目1-1 東京スクエアガーデンB1F","35.676097","139.768709"
"トレードピアお台場店","東京都港区台場2-3-1 トレードピアお台場1F","35.62792650000001","139.7764703"
"ニューオータニガーデンコート店","東京都千代田区紀尾井町4-1 ガーデンコート2F","35.6792602","139.7357528"
"ビリーヴ大森店","東京都品川区南大井6丁目25-3 ビリーヴ大森1F","35.5890649","139.7309947"
"ブルースカイタリーズコーヒー羽田空港第一ターミナル店","東京都大田区羽田空港3-3-2第一旅客ターミナルビルP.O.BOX26","35.5491133","139.7838439"
"フレスポ府中店","東京都府中市西原町1-6-2 蔦屋書店 フレスポ府中店内","35.6823235","139.4606338"
"マロニエゲート銀座2店","東京都中央区銀座3-2-1　マロニエゲート銀座2 B2F","35.673741","139.765233"
"みなみ野店","東京都八王子市みなみ野1-7-7","35.632494","139.3273252"
"阿佐ヶ谷ダイヤ街店","東京都杉並区阿佐ヶ谷南3-55-1　阿佐ヶ谷ダイヤ街2F","35.7049797","139.6355408"
"綾瀬駅前店","東京都足立区綾瀬3-1-2 東急ストア内","35.7622747","139.8251382"
"歌舞伎座店","東京都中央区銀座4-12-15 GINZAKABUKIZA　B2F","35.6694671","139.7678232"
"海岸竹芝通り店","東京都港区海岸1-4-8 キヤノン電子ビル","35.6559744","139.7592781"
"蒲田アロマスクエア店","東京都大田区蒲田5-37-1 ニッセイ アロマスクエア1F","35.5609811","139.7183444"
"丸の内CAFE 会店","東京都千代田区丸の内2丁目7番2号","35.67984089999999","139.7650921"
"丸の内パレスビル店","東京都千代田区丸の内1-1-1　パレスビル地下1F","35.685381","139.761559"
"丸の内永楽ビルディング店","東京都千代田区丸の内1-4-1 丸の内永楽ビルディングB1F","35.6846661","139.7647656"
"丸の内東京海上日動ビル店","東京都千代田区丸の内1-2-1 東京海上ビルディング新館1F","35.6831032","139.7633711"
"砧世田谷通り店","東京都世田谷区砧1-15-3 GU世田谷砧店1F","35.636462","139.619053"
"京王高幡SC店","東京都日野市高幡116-10","35.6620418","139.4133917"
"京王多摩センター駅店","東京都多摩市落合1-10-1","35.6253076","139.4241064"
"京急蒲田駅店","東京都大田区蒲田4-50-11　ウィングキッチン京急蒲田１Ｆ","35.5606709","139.7236782"
"錦糸町アルカウエスト店","東京都墨田区錦糸1-2-4 アルカウエスト2F","35.6971549","139.8095509"
"錦糸町オリナスタワー店","東京都墨田区太平4-1-3 オリナスタワー 1F","35.7007502","139.8153059"
"錦糸町オリナスモール店","東京都墨田区太平4-1-2 錦糸町オリナスモール1階","35.70088610000001","139.8158767"
"錦糸町テルミナ店","東京都墨田区江東橋3丁目14番5号 テルミナ4F","35.696405","139.814334"
"金町駅南口店","東京都葛飾区金町6-2-1","35.7678131","139.8712874"
"銀座三越コミュ店","東京都中央区銀座4-6-16 銀座三越ル・プレイス内3階","35.6713225","139.7658367"
"銀座六丁目昭和通り店","東京都中央区銀座6-14-5 銀座ホウライビル1F","35.6687395","139.7656423"
"隅田公園店","東京都台東区花川戸1-1-31　隅田公園内","35.7134182","139.8012615"
"恵比寿東口店","東京都渋谷区恵比寿1-11-1 大慧ビル1F","35.6467173","139.7112988"
"慶大東門前店","東京都港区芝5-1-13 三ツ輪三田ビル1F","35.649989","139.7450649"
"Ｅｍｉｏ東久留米店","東京都東久留米市東本町 1-8","35.7607724","139.5338137"
"Emio練馬高野台店","東京都練馬区高野台1-7-27 Emio練馬高野台2F","35.740165","139.6176262"
"ＩＢＭ箱崎店","東京都中央区日本橋箱崎町19-21 IBM箱崎ビル1F","35.6791594","139.7868759"
"ＭＩＮＡＮＯ分倍河原店","東京都府中市片町3-22-26","35.6670374","139.4695373"
"ＮＢＦ豊洲店","東京都江東区豊洲5-6-52","35.6505891","139.7992764"
"ｎｏｎｏｗａ西国分寺店","東京都国分寺市西恋ヶ窪2-1-18","35.6998138","139.4657165"
"nonowa武蔵境店","東京都武蔵野市境南町2丁目1番35号","35.701127","139.5411325"
"OEDO日本橋店","東京都中央区日本橋二丁目7-1東京日本橋タワーB1F","35.6818052","139.7741444"
"ＰＣＰ丸の内店","東京都千代田区丸の内1-11-1 パシフィックセンチュリープレイス丸の内B1","35.6780522","139.7668531"
"with U ルミネ池袋店","東京都豊島区西池袋1-11-1ルミネ池袋6F","35.728845","139.709307"
"アトレヴィ巣鴨店","東京都豊島区巣鴨1丁目16番8号 アトレヴィ巣鴨4F","35.7335708","139.7393103"
"アトレ吉祥寺店","東京都武蔵野市吉祥寺南町1丁目1番24号　アトレ吉祥寺東館2F","35.7031145","139.5788053"
"アトレ秋葉原店","東京都千代田区神田花岡町1-9 アトレ秋葉原2 2F","35.698358","139.774777"
"アトレ大森店","東京都大田区大森北1-6-16　アトレ大森１Ｆ","35.5884005","139.7282054"
"アトレ目黒店","東京都品川区上大崎3-1-1 アトレ目黒2F","35.633358","139.71573"
"イーホテル東新宿店","東京都新宿区歌舞伎町2-3-15 　イーホテル東新宿1階","35.6977155","139.707133"
"イオンスタイル板橋前野町店","東京都板橋区前野町4丁目21番22号イオンスタイル板橋前野町店1F","35.7712215","139.6917478"
"エキュート立川店","東京都立川市柴崎町3-1-1 エキュート立川3F","35.697558","139.413356"
"エビススバルビル店","東京都渋谷区恵比寿1-20-8 エビススバルビル1F","35.6469854","139.7134582"
"お台場デックス店","東京都港区台場1-6-1 デックス東京ビーチ1F","35.6290929","139.775913"
"がん研有明病院店","東京都江東区有明3-8-31 がん研有明病院内","35.6344018","139.7949996"
"グランエミオ大泉学園店","東京都練馬区東大泉一丁目28-1グランエミオ大泉学園2F","35.749628","139.587385"
"グランデュオ立川店","東京都立川市柴崎町3-2-1 6F","35.6973884","139.414818"
"グリナード永山店","東京都多摩市永山1-4 グリナード永山1号館4F","35.6294191","139.4484103"
"セレオ国分寺店","東京都国分寺市南町3-20-3　セレオ国分寺2F","35.699792","139.480346"
"セレスティン芝三井ビルディング店","東京都港区芝3-23-1 セレスティン芝三井ビルディング1F","35.6510572","139.7487576"
"ソニーシティ内店","東京都港区港南1－7－1　ソニーシティ1F","35.631165","139.743612"
"ダイバーシティ東京プラザ店","東京都江東区青海1丁目1番地1号　ダイバーシティ東京プラザ 3F","35.6248414","139.7757086"
"デンマーク・ザ・ロイヤルカフェテラス 東京スクエアガーデン店","東京都中央区京橋3丁目1-1 東京スクエアガーデンB1F","35.676097","139.768709"
"トレードピアお台場店","東京都港区台場2-3-1 トレードピアお台場1F","35.62792650000001","139.7764703"
"ニューオータニガーデンコート店","東京都千代田区紀尾井町4-1 ガーデンコート2F","35.6792602","139.7357528"
"ビリーヴ大森店","東京都品川区南大井6丁目25-3 ビリーヴ大森1F","35.5890649","139.7309947"
"ブルースカイタリーズコーヒー羽田空港第一ターミナル店","東京都大田区羽田空港3-3-2第一旅客ターミナルビルP.O.BOX26","35.5491133","139.7838439"
"フレスポ府中店","東京都府中市西原町1-6-2 蔦屋書店 フレスポ府中店内","35.6823235","139.4606338"
"マロニエゲート銀座2店","東京都中央区銀座3-2-1　マロニエゲート銀座2 B2F","35.673741","139.765233"
"みなみ野店","東京都八王子市みなみ野1-7-7","35.632494","139.3273252"
"阿佐ヶ谷ダイヤ街店","東京都杉並区阿佐ヶ谷南3-55-1　阿佐ヶ谷ダイヤ街2F","35.7049797","139.6355408"
"綾瀬駅前店","東京都足立区綾瀬3-1-2 東急ストア内","35.7622747","139.8251382"
"歌舞伎座店","東京都中央区銀座4-12-15 GINZAKABUKIZA　B2F","35.6694671","139.7678232"
"海岸竹芝通り店","東京都港区海岸1-4-8 キヤノン電子ビル","35.6559744","139.7592781"
"蒲田アロマスクエア店","東京都大田区蒲田5-37-1 ニッセイ アロマスクエア1F","35.5609811","139.7183444"
"丸の内CAFE 会店","東京都千代田区丸の内2丁目7番2号","35.67984089999999","139.7650921"
"丸の内パレスビル店","東京都千代田区丸の内1-1-1　パレスビル地下1F","35.685381","139.761559"
"丸の内永楽ビルディング店","東京都千代田区丸の内1-4-1 丸の内永楽ビルディングB1F","35.6846661","139.7647656"
"丸の内東京海上日動ビル店","東京都千代田区丸の内1-2-1 東京海上ビルディング新館1F","35.6831032","139.7633711"
"砧世田谷通り店","東京都世田谷区砧1-15-3 GU世田谷砧店1F","35.636462","139.619053"
"京王高幡SC店","東京都日野市高幡116-10","35.6620418","139.4133917"
"京王多摩センター駅店","東京都多摩市落合1-10-1","35.6253076","139.4241064"
"京急蒲田駅店","東京都大田区蒲田4-50-11　ウィングキッチン京急蒲田１Ｆ","35.5606709","139.7236782"
"錦糸町アルカウエスト店","東京都墨田区錦糸1-2-4 アルカウエスト2F","35.6971549","139.8095509"
"錦糸町オリナスタワー店","東京都墨田区太平4-1-3 オリナスタワー 1F","35.7007502","139.8153059"
"錦糸町オリナスモール店","東京都墨田区太平4-1-2 錦糸町オリナスモール1階","35.70088610000001","139.8158767"
"錦糸町テルミナ店","東京都墨田区江東橋3丁目14番5号 テルミナ4F","35.696405","139.814334"
"金町駅南口店","東京都葛飾区金町6-2-1","35.7678131","139.8712874"
"銀座三越コミュ店","東京都中央区銀座4-6-16 銀座三越ル・プレイス内3階","35.6713225","139.7658367"
"銀座六丁目昭和通り店","東京都中央区銀座6-14-5 銀座ホウライビル1F","35.6687395","139.7656423"
"隅田公園店","東京都台東区花川戸1-1-31　隅田公園内","35.7134182","139.8012615"
"恵比寿東口店","東京都渋谷区恵比寿1-11-1 大慧ビル1F","35.6467173","139.7112988"
"慶大東門前店","東京都港区芝5-1-13 三ツ輪三田ビル1F","35.649989","139.7450649"
"経堂コルティ店","東京都世田谷区経堂2-1-33　経堂コルティ2F","35.651505","139.635762"
"月島駅前店","東京都中央区月島1-5-1","35.6642654","139.7836803"
"虎ノ門ＪＴビル店","東京都港区虎ノ門2-2-1 虎ノ門 JTビル1F","35.669455","139.745672"
"五反田西店","東京都品川区西五反田7-9-4 ウスイビル1F","35.623546","139.720584"
"五反田東店","東京都品川区東五反田2-3-2 タイセイビル1階","35.6255064","139.7260201"
"好仁会東大病院店","東京都文京区本郷7-3-1東大病院内","35.710959","139.765652"
"江古田店","東京都練馬区旭丘1丁目78番3号","35.7372484","139.6734001"
"麹町店","東京都千代田区麹町3-3 丸増ビル1F","35.68367509999999","139.7384186"
"国立国際医療研究センター店","東京都新宿区戸山1-21-1国立国際医療研究センター内1F","35.70173020000001","139.7165838"
"国立精神・神経医療研究センター店","東京都小平市小川東町4-1-1　1Ｆ","35.7373263","139.475253"
"Ｅｍｉｏ東久留米店","東京都東久留米市東本町 1-8","35.7607724","139.5338137"
"Emio練馬高野台店","東京都練馬区高野台1-7-27 Emio練馬高野台2F","35.740165","139.6176262"
"ＩＢＭ箱崎店","東京都中央区日本橋箱崎町19-21 IBM箱崎ビル1F","35.6791594","139.7868759"
"ＭＩＮＡＮＯ分倍河原店","東京都府中市片町3-22-26","35.6670374","139.4695373"
"ＮＢＦ豊洲店","東京都江東区豊洲5-6-52","35.6505891","139.7992764"
"ｎｏｎｏｗａ西国分寺店","東京都国分寺市西恋ヶ窪2-1-18","35.6998138","139.4657165"
"nonowa武蔵境店","東京都武蔵野市境南町2丁目1番35号","35.701127","139.5411325"
"OEDO日本橋店","東京都中央区日本橋二丁目7-1東京日本橋タワーB1F","35.6818052","139.7741444"
"ＰＣＰ丸の内店","東京都千代田区丸の内1-11-1 パシフィックセンチュリープレイス丸の内B1","35.6780522","139.7668531"
"with U ルミネ池袋店","東京都豊島区西池袋1-11-1ルミネ池袋6F","35.728845","139.709307"
"アトレヴィ巣鴨店","東京都豊島区巣鴨1丁目16番8号 アトレヴィ巣鴨4F","35.7335708","139.7393103"
"アトレ吉祥寺店","東京都武蔵野市吉祥寺南町1丁目1番24号　アトレ吉祥寺東館2F","35.7031145","139.5788053"
"アトレ秋葉原店","東京都千代田区神田花岡町1-9 アトレ秋葉原2 2F","35.698358","139.774777"
"アトレ大森店","東京都大田区大森北1-6-16　アトレ大森１Ｆ","35.5884005","139.7282054"
"アトレ目黒店","東京都品川区上大崎3-1-1 アトレ目黒2F","35.633358","139.71573"
"イーホテル東新宿店","東京都新宿区歌舞伎町2-3-15 　イーホテル東新宿1階","35.6977155","139.707133"
"イオンスタイル板橋前野町店","東京都板橋区前野町4丁目21番22号イオンスタイル板橋前野町店1F","35.7712215","139.6917478"
"エキュート立川店","東京都立川市柴崎町3-1-1 エキュート立川3F","35.697558","139.413356"
"エビススバルビル店","東京都渋谷区恵比寿1-20-8 エビススバルビル1F","35.6469854","139.7134582"
"お台場デックス店","東京都港区台場1-6-1 デックス東京ビーチ1F","35.6290929","139.775913"
"がん研有明病院店","東京都江東区有明3-8-31 がん研有明病院内","35.6344018","139.7949996"
"グランエミオ大泉学園店","東京都練馬区東大泉一丁目28-1グランエミオ大泉学園2F","35.749628","139.587385"
"グランデュオ立川店","東京都立川市柴崎町3-2-1 6F","35.6973884","139.414818"
"グリナード永山店","東京都多摩市永山1-4 グリナード永山1号館4F","35.6294191","139.4484103"
"セレオ国分寺店","東京都国分寺市南町3-20-3　セレオ国分寺2F","35.699792","139.480346"
"セレスティン芝三井ビルディング店","東京都港区芝3-23-1 セレスティン芝三井ビルディング1F","35.6510572","139.7487576"
"ソニーシティ内店","東京都港区港南1－7－1　ソニーシティ1F","35.631165","139.743612"
"ダイバーシティ東京プラザ店","東京都江東区青海1丁目1番地1号　ダイバーシティ東京プラザ 3F","35.6248414","139.7757086"
"デンマーク・ザ・ロイヤルカフェテラス 東京スクエアガーデン店","東京都中央区京橋3丁目1-1 東京スクエアガーデンB1F","35.676097","139.768709"
"トレードピアお台場店","東京都港区台場2-3-1 トレードピアお台場1F","35.62792650000001","139.7764703"
"ニューオータニガーデンコート店","東京都千代田区紀尾井町4-1 ガーデンコート2F","35.6792602","139.7357528"
"ビリーヴ大森店","東京都品川区南大井6丁目25-3 ビリーヴ大森1F","35.5890649","139.7309947"
"ブルースカイタリーズコーヒー羽田空港第一ターミナル店","東京都大田区羽田空港3-3-2第一旅客ターミナルビルP.O.BOX26","35.5491133","139.7838439"
"フレスポ府中店","東京都府中市西原町1-6-2 蔦屋書店 フレスポ府中店内","35.6823235","139.4606338"
"マロニエゲート銀座2店","東京都中央区銀座3-2-1　マロニエゲート銀座2 B2F","35.673741","139.765233"
"みなみ野店","東京都八王子市みなみ野1-7-7","35.632494","139.3273252"
"阿佐ヶ谷ダイヤ街店","東京都杉並区阿佐ヶ谷南3-55-1　阿佐ヶ谷ダイヤ街2F","35.7049797","139.6355408"
"綾瀬駅前店","東京都足立区綾瀬3-1-2 東急ストア内","35.7622747","139.8251382"
"歌舞伎座店","東京都中央区銀座4-12-15 GINZAKABUKIZA　B2F","35.6694671","139.7678232"
"海岸竹芝通り店","東京都港区海岸1-4-8 キヤノン電子ビル","35.6559744","139.7592781"
"蒲田アロマスクエア店","東京都大田区蒲田5-37-1 ニッセイ アロマスクエア1F","35.5609811","139.7183444"
"丸の内CAFE 会店","東京都千代田区丸の内2丁目7番2号","35.67984089999999","139.7650921"
"丸の内パレスビル店","東京都千代田区丸の内1-1-1　パレスビル地下1F","35.685381","139.761559"
"丸の内永楽ビルディング店","東京都千代田区丸の内1-4-1 丸の内永楽ビルディングB1F","35.6846661","139.7647656"
"丸の内東京海上日動ビル店","東京都千代田区丸の内1-2-1 東京海上ビルディング新館1F","35.6831032","139.7633711"
"砧世田谷通り店","東京都世田谷区砧1-15-3 GU世田谷砧店1F","35.636462","139.619053"
"京王高幡SC店","東京都日野市高幡116-10","35.6620418","139.4133917"
"京王多摩センター駅店","東京都多摩市落合1-10-1","35.6253076","139.4241064"
"京急蒲田駅店","東京都大田区蒲田4-50-11　ウィングキッチン京急蒲田１Ｆ","35.5606709","139.7236782"
"錦糸町アルカウエスト店","東京都墨田区錦糸1-2-4 アルカウエスト2F","35.6971549","139.8095509"
"錦糸町オリナスタワー店","東京都墨田区太平4-1-3 オリナスタワー 1F","35.7007502","139.8153059"
"錦糸町オリナスモール店","東京都墨田区太平4-1-2 錦糸町オリナスモール1階","35.70088610000001","139.8158767"
"錦糸町テルミナ店","東京都墨田区江東橋3丁目14番5号 テルミナ4F","35.696405","139.814334"
"金町駅南口店","東京都葛飾区金町6-2-1","35.7678131","139.8712874"
"銀座三越コミュ店","東京都中央区銀座4-6-16 銀座三越ル・プレイス内3階","35.6713225","139.7658367"
"銀座六丁目昭和通り店","東京都中央区銀座6-14-5 銀座ホウライビル1F","35.6687395","139.7656423"
"隅田公園店","東京都台東区花川戸1-1-31　隅田公園内","35.7134182","139.8012615"
"恵比寿東口店","東京都渋谷区恵比寿1-11-1 大慧ビル1F","35.6467173","139.7112988"
"慶大東門前店","東京都港区芝5-1-13 三ツ輪三田ビル1F","35.649989","139.7450649"
"経堂コルティ店","東京都世田谷区経堂2-1-33　経堂コルティ2F","35.651505","139.635762"
"月島駅前店","東京都中央区月島1-5-1","35.6642654","139.7836803"
"虎ノ門ＪＴビル店","東京都港区虎ノ門2-2-1 虎ノ門 JTビル1F","35.669455","139.745672"
"五反田西店","東京都品川区西五反田7-9-4 ウスイビル1F","35.623546","139.720584"
"五反田東店","東京都品川区東五反田2-3-2 タイセイビル1階","35.6255064","139.7260201"
"好仁会東大病院店","東京都文京区本郷7-3-1東大病院内","35.710959","139.765652"
"江古田店","東京都練馬区旭丘1丁目78番3号","35.7372484","139.6734001"
"麹町店","東京都千代田区麹町3-3 丸増ビル1F","35.68367509999999","139.7384186"
"国立国際医療研究センター店","東京都新宿区戸山1-21-1国立国際医療研究センター内1F","35.70173020000001","139.7165838"
"国立精神・神経医療研究センター店","東京都小平市小川東町4-1-1　1Ｆ","35.7373263","139.475253"
"国立店","東京都国立市中1-10-1","35.6980998","139.4454042"
"済生会中央病院店","東京都港区三田1-4-17 新棟1階","35.654028","139.7441382"
"桜新町店","東京都世田谷区桜新町2-8-2","35.63191","139.6449319"
"三井アウトレットパーク多摩南大沢店","東京都八王子市南大沢1-600 三井アウトレットパーク 1F","35.614215","139.37738"
"三井住友海上駿河台ビル店","東京都千代田区神田駿河台3丁目9番地","35.696625","139.7643277"
"三鷹駅南口店","東京都三鷹市下連雀3-46-6","35.7024525","139.5604696"
"三田国際ビル店","東京都港区三田1-4-28 三田国際ビルB1F","35.6527105","139.7444053"
"四ツ谷東口店","東京都千代田区麹町5-3 第7秋山ビルディング","35.6844219","139.7333096"
"市ヶ谷店","東京都千代田区九段南4-6-10 近清堂ビル1F","35.69183090000001","139.7393965"
"汐留シティセンター店","東京都港区東新橋一丁目5番2号　汐留シティセンターB2F","35.66537","139.7611124"
"Ｅｍｉｏ東久留米店","東京都東久留米市東本町 1-8","35.7607724","139.5338137"
"Emio練馬高野台店","東京都練馬区高野台1-7-27 Emio練馬高野台2F","35.740165","139.6176262"
"ＩＢＭ箱崎店","東京都中央区日本橋箱崎町19-21 IBM箱崎ビル1F","35.6791594","139.7868759"
"ＭＩＮＡＮＯ分倍河原店","東京都府中市片町3-22-26","35.6670374","139.4695373"
"ＮＢＦ豊洲店","東京都江東区豊洲5-6-52","35.6505891","139.7992764"
"ｎｏｎｏｗａ西国分寺店","東京都国分寺市西恋ヶ窪2-1-18","35.6998138","139.4657165"
"nonowa武蔵境店","東京都武蔵野市境南町2丁目1番35号","35.701127","139.5411325"
"OEDO日本橋店","東京都中央区日本橋二丁目7-1東京日本橋タワーB1F","35.6818052","139.7741444"
"ＰＣＰ丸の内店","東京都千代田区丸の内1-11-1 パシフィックセンチュリープレイス丸の内B1","35.6780522","139.7668531"
"with U ルミネ池袋店","東京都豊島区西池袋1-11-1ルミネ池袋6F","35.728845","139.709307"
"アトレヴィ巣鴨店","東京都豊島区巣鴨1丁目16番8号 アトレヴィ巣鴨4F","35.7335708","139.7393103"
"アトレ吉祥寺店","東京都武蔵野市吉祥寺南町1丁目1番24号　アトレ吉祥寺東館2F","35.7031145","139.5788053"
"アトレ秋葉原店","東京都千代田区神田花岡町1-9 アトレ秋葉原2 2F","35.698358","139.774777"
"アトレ大森店","東京都大田区大森北1-6-16　アトレ大森１Ｆ","35.5884005","139.7282054"
"アトレ目黒店","東京都品川区上大崎3-1-1 アトレ目黒2F","35.633358","139.71573"
"イーホテル東新宿店","東京都新宿区歌舞伎町2-3-15 　イーホテル東新宿1階","35.6977155","139.707133"
"イオンスタイル板橋前野町店","東京都板橋区前野町4丁目21番22号イオンスタイル板橋前野町店1F","35.7712215","139.6917478"
"エキュート立川店","東京都立川市柴崎町3-1-1 エキュート立川3F","35.697558","139.413356"
"エビススバルビル店","東京都渋谷区恵比寿1-20-8 エビススバルビル1F","35.6469854","139.7134582"
"お台場デックス店","東京都港区台場1-6-1 デックス東京ビーチ1F","35.6290929","139.775913"
"がん研有明病院店","東京都江東区有明3-8-31 がん研有明病院内","35.6344018","139.7949996"
"グランエミオ大泉学園店","東京都練馬区東大泉一丁目28-1グランエミオ大泉学園2F","35.749628","139.587385"
"グランデュオ立川店","東京都立川市柴崎町3-2-1 6F","35.6973884","139.414818"
"グリナード永山店","東京都多摩市永山1-4 グリナード永山1号館4F","35.6294191","139.4484103"
"セレオ国分寺店","東京都国分寺市南町3-20-3　セレオ国分寺2F","35.699792","139.480346"
"セレスティン芝三井ビルディング店","東京都港区芝3-23-1 セレスティン芝三井ビルディング1F","35.6510572","139.7487576"
"ソニーシティ内店","東京都港区港南1－7－1　ソニーシティ1F","35.631165","139.743612"
"ダイバーシティ東京プラザ店","東京都江東区青海1丁目1番地1号　ダイバーシティ東京プラザ 3F","35.6248414","139.7757086"
"デンマーク・ザ・ロイヤルカフェテラス 東京スクエアガーデン店","東京都中央区京橋3丁目1-1 東京スクエアガーデンB1F","35.676097","139.768709"
"トレードピアお台場店","東京都港区台場2-3-1 トレードピアお台場1F","35.62792650000001","139.7764703"
"ニューオータニガーデンコート店","東京都千代田区紀尾井町4-1 ガーデンコート2F","35.6792602","139.7357528"
"ビリーヴ大森店","東京都品川区南大井6丁目25-3 ビリーヴ大森1F","35.5890649","139.7309947"
"ブルースカイタリーズコーヒー羽田空港第一ターミナル店","東京都大田区羽田空港3-3-2第一旅客ターミナルビルP.O.BOX26","35.5491133","139.7838439"
"フレスポ府中店","東京都府中市西原町1-6-2 蔦屋書店 フレスポ府中店内","35.6823235","139.4606338"
"マロニエゲート銀座2店","東京都中央区銀座3-2-1　マロニエゲート銀座2 B2F","35.673741","139.765233"
"みなみ野店","東京都八王子市みなみ野1-7-7","35.632494","139.3273252"
"阿佐ヶ谷ダイヤ街店","東京都杉並区阿佐ヶ谷南3-55-1　阿佐ヶ谷ダイヤ街2F","35.7049797","139.6355408"
"綾瀬駅前店","東京都足立区綾瀬3-1-2 東急ストア内","35.7622747","139.8251382"
"歌舞伎座店","東京都中央区銀座4-12-15 GINZAKABUKIZA　B2F","35.6694671","139.7678232"
"海岸竹芝通り店","東京都港区海岸1-4-8 キヤノン電子ビル","35.6559744","139.7592781"
"蒲田アロマスクエア店","東京都大田区蒲田5-37-1 ニッセイ アロマスクエア1F","35.5609811","139.7183444"
"丸の内CAFE 会店","東京都千代田区丸の内2丁目7番2号","35.67984089999999","139.7650921"
"丸の内パレスビル店","東京都千代田区丸の内1-1-1　パレスビル地下1F","35.685381","139.761559"
"丸の内永楽ビルディング店","東京都千代田区丸の内1-4-1 丸の内永楽ビルディングB1F","35.6846661","139.7647656"
"丸の内東京海上日動ビル店","東京都千代田区丸の内1-2-1 東京海上ビルディング新館1F","35.6831032","139.7633711"
"砧世田谷通り店","東京都世田谷区砧1-15-3 GU世田谷砧店1F","35.636462","139.619053"
"京王高幡SC店","東京都日野市高幡116-10","35.6620418","139.4133917"
"京王多摩センター駅店","東京都多摩市落合1-10-1","35.6253076","139.4241064"
"京急蒲田駅店","東京都大田区蒲田4-50-11　ウィングキッチン京急蒲田１Ｆ","35.5606709","139.7236782"
"錦糸町アルカウエスト店","東京都墨田区錦糸1-2-4 アルカウエスト2F","35.6971549","139.8095509"
"錦糸町オリナスタワー店","東京都墨田区太平4-1-3 オリナスタワー 1F","35.7007502","139.8153059"
"錦糸町オリナスモール店","東京都墨田区太平4-1-2 錦糸町オリナスモール1階","35.70088610000001","139.8158767"
"錦糸町テルミナ店","東京都墨田区江東橋3丁目14番5号 テルミナ4F","35.696405","139.814334"
"金町駅南口店","東京都葛飾区金町6-2-1","35.7678131","139.8712874"
"銀座三越コミュ店","東京都中央区銀座4-6-16 銀座三越ル・プレイス内3階","35.6713225","139.7658367"
"銀座六丁目昭和通り店","東京都中央区銀座6-14-5 銀座ホウライビル1F","35.6687395","139.7656423"
"隅田公園店","東京都台東区花川戸1-1-31　隅田公園内","35.7134182","139.8012615"
"恵比寿東口店","東京都渋谷区恵比寿1-11-1 大慧ビル1F","35.6467173","139.7112988"
"慶大東門前店","東京都港区芝5-1-13 三ツ輪三田ビル1F","35.649989","139.7450649"
"経堂コルティ店","東京都世田谷区経堂2-1-33　経堂コルティ2F","35.651505","139.635762"
"月島駅前店","東京都中央区月島1-5-1","35.6642654","139.7836803"
"虎ノ門ＪＴビル店","東京都港区虎ノ門2-2-1 虎ノ門 JTビル1F","35.669455","139.745672"
"五反田西店","東京都品川区西五反田7-9-4 ウスイビル1F","35.623546","139.720584"
"五反田東店","東京都品川区東五反田2-3-2 タイセイビル1階","35.6255064","139.7260201"
"好仁会東大病院店","東京都文京区本郷7-3-1東大病院内","35.710959","139.765652"
"江古田店","東京都練馬区旭丘1丁目78番3号","35.7372484","139.6734001"
"麹町店","東京都千代田区麹町3-3 丸増ビル1F","35.68367509999999","139.7384186"
"国立国際医療研究センター店","東京都新宿区戸山1-21-1国立国際医療研究センター内1F","35.70173020000001","139.7165838"
"国立精神・神経医療研究センター店","東京都小平市小川東町4-1-1　1Ｆ","35.7373263","139.475253"
"国立店","東京都国立市中1-10-1","35.6980998","139.4454042"
"済生会中央病院店","東京都港区三田1-4-17 新棟1階","35.654028","139.7441382"
"桜新町店","東京都世田谷区桜新町2-8-2","35.63191","139.6449319"
"三井アウトレットパーク多摩南大沢店","東京都八王子市南大沢1-600 三井アウトレットパーク 1F","35.614215","139.37738"
"三井住友海上駿河台ビル店","東京都千代田区神田駿河台3丁目9番地","35.696625","139.7643277"
"三鷹駅南口店","東京都三鷹市下連雀3-46-6","35.7024525","139.5604696"
"三田国際ビル店","東京都港区三田1-4-28 三田国際ビルB1F","35.6527105","139.7444053"
"四ツ谷東口店","東京都千代田区麹町5-3 第7秋山ビルディング","35.6844219","139.7333096"
"市ヶ谷店","東京都千代田区九段南4-6-10 近清堂ビル1F","35.69183090000001","139.7393965"
"汐留シティセンター店","東京都港区東新橋一丁目5番2号　汐留シティセンターB2F","35.66537","139.7611124"
"汐留住友ビル店","東京都港区東新橋一丁目9番2号 汐留住友ビル2F","35.662218","139.7600653"
"芝ＮＢＦタワー店","東京都港区芝大門1-1-30 芝NBFタワー1F","35.659504","139.753218"
"芝浦海岸通り店","東京都港区芝浦4-13-23 MS芝浦ビル1F","35.6402396","139.7480612"
"芝公園店","東京都港区芝公園2-4-1 芝パークビル１Ｆ","35.6556229","139.7522709"
"芝二丁目店","東京都港区芝2-3-3 芝二丁目大門ビルディング1F","35.6523642","139.7536284"
"秋葉原ＵＤＸ店","東京都千代田区外神田4-14-1 秋葉原UDX1","35.699937","139.7722"
"渋谷ファイヤー通り店","東京都渋谷区神南1-12-14","35.6628326","139.7005648"
"渋谷東急本店前店","東京都渋谷区道玄坂2-23-12 フォンティスビル1F","35.6599597","139.6959636"
"順天堂大学練馬病院店","東京都練馬区高野台3-1-10順天堂大学医学部附属練馬病院内1F","35.7420487","139.6153129"
"小田急マルシェ町田店","東京都町田市原町田6-1-1　小田急マルシェ町田　2F","35.5429208","139.4444359"
"Ｅｍｉｏ東久留米店","東京都東久留米市東本町 1-8","35.7607724","139.5338137"
"Emio練馬高野台店","東京都練馬区高野台1-7-27 Emio練馬高野台2F","35.740165","139.6176262"
"ＩＢＭ箱崎店","東京都中央区日本橋箱崎町19-21 IBM箱崎ビル1F","35.6791594","139.7868759"
"ＭＩＮＡＮＯ分倍河原店","東京都府中市片町3-22-26","35.6670374","139.4695373"
"ＮＢＦ豊洲店","東京都江東区豊洲5-6-52","35.6505891","139.7992764"
"ｎｏｎｏｗａ西国分寺店","東京都国分寺市西恋ヶ窪2-1-18","35.6998138","139.4657165"
"nonowa武蔵境店","東京都武蔵野市境南町2丁目1番35号","35.701127","139.5411325"
"OEDO日本橋店","東京都中央区日本橋二丁目7-1東京日本橋タワーB1F","35.6818052","139.7741444"
"ＰＣＰ丸の内店","東京都千代田区丸の内1-11-1 パシフィックセンチュリープレイス丸の内B1","35.6780522","139.7668531"
"with U ルミネ池袋店","東京都豊島区西池袋1-11-1ルミネ池袋6F","35.728845","139.709307"
"アトレヴィ巣鴨店","東京都豊島区巣鴨1丁目16番8号 アトレヴィ巣鴨4F","35.7335708","139.7393103"
"アトレ吉祥寺店","東京都武蔵野市吉祥寺南町1丁目1番24号　アトレ吉祥寺東館2F","35.7031145","139.5788053"
"アトレ秋葉原店","東京都千代田区神田花岡町1-9 アトレ秋葉原2 2F","35.698358","139.774777"
"アトレ大森店","東京都大田区大森北1-6-16　アトレ大森１Ｆ","35.5884005","139.7282054"
"アトレ目黒店","東京都品川区上大崎3-1-1 アトレ目黒2F","35.633358","139.71573"
"イーホテル東新宿店","東京都新宿区歌舞伎町2-3-15 　イーホテル東新宿1階","35.6977155","139.707133"
"イオンスタイル板橋前野町店","東京都板橋区前野町4丁目21番22号イオンスタイル板橋前野町店1F","35.7712215","139.6917478"
"エキュート立川店","東京都立川市柴崎町3-1-1 エキュート立川3F","35.697558","139.413356"
"エビススバルビル店","東京都渋谷区恵比寿1-20-8 エビススバルビル1F","35.6469854","139.7134582"
"お台場デックス店","東京都港区台場1-6-1 デックス東京ビーチ1F","35.6290929","139.775913"
"がん研有明病院店","東京都江東区有明3-8-31 がん研有明病院内","35.6344018","139.7949996"
"グランエミオ大泉学園店","東京都練馬区東大泉一丁目28-1グランエミオ大泉学園2F","35.749628","139.587385"
"グランデュオ立川店","東京都立川市柴崎町3-2-1 6F","35.6973884","139.414818"
"グリナード永山店","東京都多摩市永山1-4 グリナード永山1号館4F","35.6294191","139.4484103"
"セレオ国分寺店","東京都国分寺市南町3-20-3　セレオ国分寺2F","35.699792","139.480346"
"セレスティン芝三井ビルディング店","東京都港区芝3-23-1 セレスティン芝三井ビルディング1F","35.6510572","139.7487576"
"ソニーシティ内店","東京都港区港南1－7－1　ソニーシティ1F","35.631165","139.743612"
"ダイバーシティ東京プラザ店","東京都江東区青海1丁目1番地1号　ダイバーシティ東京プラザ 3F","35.6248414","139.7757086"
"デンマーク・ザ・ロイヤルカフェテラス 東京スクエアガーデン店","東京都中央区京橋3丁目1-1 東京スクエアガーデンB1F","35.676097","139.768709"
"トレードピアお台場店","東京都港区台場2-3-1 トレードピアお台場1F","35.62792650000001","139.7764703"
"ニューオータニガーデンコート店","東京都千代田区紀尾井町4-1 ガーデンコート2F","35.6792602","139.7357528"
"ビリーヴ大森店","東京都品川区南大井6丁目25-3 ビリーヴ大森1F","35.5890649","139.7309947"
"ブルースカイタリーズコーヒー羽田空港第一ターミナル店","東京都大田区羽田空港3-3-2第一旅客ターミナルビルP.O.BOX26","35.5491133","139.7838439"
"フレスポ府中店","東京都府中市西原町1-6-2 蔦屋書店 フレスポ府中店内","35.6823235","139.4606338"
"マロニエゲート銀座2店","東京都中央区銀座3-2-1　マロニエゲート銀座2 B2F","35.673741","139.765233"
"みなみ野店","東京都八王子市みなみ野1-7-7","35.632494","139.3273252"
"阿佐ヶ谷ダイヤ街店","東京都杉並区阿佐ヶ谷南3-55-1　阿佐ヶ谷ダイヤ街2F","35.7049797","139.6355408"
"綾瀬駅前店","東京都足立区綾瀬3-1-2 東急ストア内","35.7622747","139.8251382"
"歌舞伎座店","東京都中央区銀座4-12-15 GINZAKABUKIZA　B2F","35.6694671","139.7678232"
"海岸竹芝通り店","東京都港区海岸1-4-8 キヤノン電子ビル","35.6559744","139.7592781"
"蒲田アロマスクエア店","東京都大田区蒲田5-37-1 ニッセイ アロマスクエア1F","35.5609811","139.7183444"
"丸の内CAFE 会店","東京都千代田区丸の内2丁目7番2号","35.67984089999999","139.7650921"
"丸の内パレスビル店","東京都千代田区丸の内1-1-1　パレスビル地下1F","35.685381","139.761559"
"丸の内永楽ビルディング店","東京都千代田区丸の内1-4-1 丸の内永楽ビルディングB1F","35.6846661","139.7647656"
"丸の内東京海上日動ビル店","東京都千代田区丸の内1-2-1 東京海上ビルディング新館1F","35.6831032","139.7633711"
"砧世田谷通り店","東京都世田谷区砧1-15-3 GU世田谷砧店1F","35.636462","139.619053"
"京王高幡SC店","東京都日野市高幡116-10","35.6620418","139.4133917"
"京王多摩センター駅店","東京都多摩市落合1-10-1","35.6253076","139.4241064"
"京急蒲田駅店","東京都大田区蒲田4-50-11　ウィングキッチン京急蒲田１Ｆ","35.5606709","139.7236782"
"錦糸町アルカウエスト店","東京都墨田区錦糸1-2-4 アルカウエスト2F","35.6971549","139.8095509"
"錦糸町オリナスタワー店","東京都墨田区太平4-1-3 オリナスタワー 1F","35.7007502","139.8153059"
"錦糸町オリナスモール店","東京都墨田区太平4-1-2 錦糸町オリナスモール1階","35.70088610000001","139.8158767"
"錦糸町テルミナ店","東京都墨田区江東橋3丁目14番5号 テルミナ4F","35.696405","139.814334"
"金町駅南口店","東京都葛飾区金町6-2-1","35.7678131","139.8712874"
"銀座三越コミュ店","東京都中央区銀座4-6-16 銀座三越ル・プレイス内3階","35.6713225","139.7658367"
"銀座六丁目昭和通り店","東京都中央区銀座6-14-5 銀座ホウライビル1F","35.6687395","139.7656423"
"隅田公園店","東京都台東区花川戸1-1-31　隅田公園内","35.7134182","139.8012615"
"恵比寿東口店","東京都渋谷区恵比寿1-11-1 大慧ビル1F","35.6467173","139.7112988"
"慶大東門前店","東京都港区芝5-1-13 三ツ輪三田ビル1F","35.649989","139.7450649"
"経堂コルティ店","東京都世田谷区経堂2-1-33　経堂コルティ2F","35.651505","139.635762"
"月島駅前店","東京都中央区月島1-5-1","35.6642654","139.7836803"
"虎ノ門ＪＴビル店","東京都港区虎ノ門2-2-1 虎ノ門 JTビル1F","35.669455","139.745672"
"五反田西店","東京都品川区西五反田7-9-4 ウスイビル1F","35.623546","139.720584"
"五反田東店","東京都品川区東五反田2-3-2 タイセイビル1階","35.6255064","139.7260201"
"好仁会東大病院店","東京都文京区本郷7-3-1東大病院内","35.710959","139.765652"
"江古田店","東京都練馬区旭丘1丁目78番3号","35.7372484","139.6734001"
"麹町店","東京都千代田区麹町3-3 丸増ビル1F","35.68367509999999","139.7384186"
"国立国際医療研究センター店","東京都新宿区戸山1-21-1国立国際医療研究センター内1F","35.70173020000001","139.7165838"
"国立精神・神経医療研究センター店","東京都小平市小川東町4-1-1　1Ｆ","35.7373263","139.475253"
"国立店","東京都国立市中1-10-1","35.6980998","139.4454042"
"済生会中央病院店","東京都港区三田1-4-17 新棟1階","35.654028","139.7441382"
"桜新町店","東京都世田谷区桜新町2-8-2","35.63191","139.6449319"
"三井アウトレットパーク多摩南大沢店","東京都八王子市南大沢1-600 三井アウトレットパーク 1F","35.614215","139.37738"
"三井住友海上駿河台ビル店","東京都千代田区神田駿河台3丁目9番地","35.696625","139.7643277"
"三鷹駅南口店","東京都三鷹市下連雀3-46-6","35.7024525","139.5604696"
"三田国際ビル店","東京都港区三田1-4-28 三田国際ビルB1F","35.6527105","139.7444053"
"四ツ谷東口店","東京都千代田区麹町5-3 第7秋山ビルディング","35.6844219","139.7333096"
"市ヶ谷店","東京都千代田区九段南4-6-10 近清堂ビル1F","35.69183090000001","139.7393965"
"汐留シティセンター店","東京都港区東新橋一丁目5番2号　汐留シティセンターB2F","35.66537","139.7611124"
"汐留住友ビル店","東京都港区東新橋一丁目9番2号 汐留住友ビル2F","35.662218","139.7600653"
"芝ＮＢＦタワー店","東京都港区芝大門1-1-30 芝NBFタワー1F","35.659504","139.753218"
"芝浦海岸通り店","東京都港区芝浦4-13-23 MS芝浦ビル1F","35.6402396","139.7480612"
"芝公園店","東京都港区芝公園2-4-1 芝パークビル１Ｆ","35.6556229","139.7522709"
"芝二丁目店","東京都港区芝2-3-3 芝二丁目大門ビルディング1F","35.6523642","139.7536284"
"秋葉原ＵＤＸ店","東京都千代田区外神田4-14-1 秋葉原UDX1","35.699937","139.7722"
"渋谷ファイヤー通り店","東京都渋谷区神南1-12-14","35.6628326","139.7005648"
"渋谷東急本店前店","東京都渋谷区道玄坂2-23-12 フォンティスビル1F","35.6599597","139.6959636"
"順天堂大学練馬病院店","東京都練馬区高野台3-1-10順天堂大学医学部附属練馬病院内1F","35.7420487","139.6153129"
"小田急マルシェ町田店","東京都町田市原町田6-1-1　小田急マルシェ町田　2F","35.5429208","139.4444359"
"昭和大学江東豊洲病院店","東京都江東区豊洲5-1","35.64989190000001","139.7957018"
"昭和大学病院店","東京都品川区旗の台1-5-8 中央棟１F","35.6084331","139.7035027"
"上野の森さくらテラス店","東京都台東区上野公園1-54","35.7121291","139.7744987"
"上野御徒町店","東京都台東区上野5-25-11","35.7075213","139.775585"
"上野広小路店","東京都台東区上野1-20-11 上野鈴乃屋本店ビル1F","35.7074757","139.7726361"
"新宿ＮＳビルアネックス店","東京都新宿区西新宿2-4-1 新宿ＮＳビル1F","35.6879841","139.6935305"
"新宿ＮＳビル店","東京都新宿区西新宿2-4-1 新宿NSビル1F","35.6879841","139.6935305"
"新宿イーストサイドスクエアアトリウム店","東京都新宿区新宿6丁目27番30号 新宿イーストサイドスクエア 1Ｆ","35.6966715","139.7086755"
"新宿イーストサイドスクエア店","東京都新宿区新宿6丁目27番30号 新宿イーストサイドスクエアＢ１Ｆ","35.6966715","139.7086755"
"新宿エルタワー店","東京都新宿区西新宿1丁目6番1号 新宿エルタワーB2F","35.6921374","139.6972612"
"Ｅｍｉｏ東久留米店","東京都東久留米市東本町 1-8","35.7607724","139.5338137"
"Emio練馬高野台店","東京都練馬区高野台1-7-27 Emio練馬高野台2F","35.740165","139.6176262"
"ＩＢＭ箱崎店","東京都中央区日本橋箱崎町19-21 IBM箱崎ビル1F","35.6791594","139.7868759"
"ＭＩＮＡＮＯ分倍河原店","東京都府中市片町3-22-26","35.6670374","139.4695373"
"ＮＢＦ豊洲店","東京都江東区豊洲5-6-52","35.6505891","139.7992764"
"ｎｏｎｏｗａ西国分寺店","東京都国分寺市西恋ヶ窪2-1-18","35.6998138","139.4657165"
"nonowa武蔵境店","東京都武蔵野市境南町2丁目1番35号","35.701127","139.5411325"
"OEDO日本橋店","東京都中央区日本橋二丁目7-1東京日本橋タワーB1F","35.6818052","139.7741444"
"ＰＣＰ丸の内店","東京都千代田区丸の内1-11-1 パシフィックセンチュリープレイス丸の内B1","35.6780522","139.7668531"
"with U ルミネ池袋店","東京都豊島区西池袋1-11-1ルミネ池袋6F","35.728845","139.709307"
"アトレヴィ巣鴨店","東京都豊島区巣鴨1丁目16番8号 アトレヴィ巣鴨4F","35.7335708","139.7393103"
"アトレ吉祥寺店","東京都武蔵野市吉祥寺南町1丁目1番24号　アトレ吉祥寺東館2F","35.7031145","139.5788053"
"アトレ秋葉原店","東京都千代田区神田花岡町1-9 アトレ秋葉原2 2F","35.698358","139.774777"
"アトレ大森店","東京都大田区大森北1-6-16　アトレ大森１Ｆ","35.5884005","139.7282054"
"アトレ目黒店","東京都品川区上大崎3-1-1 アトレ目黒2F","35.633358","139.71573"
"イーホテル東新宿店","東京都新宿区歌舞伎町2-3-15 　イーホテル東新宿1階","35.6977155","139.707133"
"イオンスタイル板橋前野町店","東京都板橋区前野町4丁目21番22号イオンスタイル板橋前野町店1F","35.7712215","139.6917478"
"エキュート立川店","東京都立川市柴崎町3-1-1 エキュート立川3F","35.697558","139.413356"
"エビススバルビル店","東京都渋谷区恵比寿1-20-8 エビススバルビル1F","35.6469854","139.7134582"
"お台場デックス店","東京都港区台場1-6-1 デックス東京ビーチ1F","35.6290929","139.775913"
"がん研有明病院店","東京都江東区有明3-8-31 がん研有明病院内","35.6344018","139.7949996"
"グランエミオ大泉学園店","東京都練馬区東大泉一丁目28-1グランエミオ大泉学園2F","35.749628","139.587385"
"グランデュオ立川店","東京都立川市柴崎町3-2-1 6F","35.6973884","139.414818"
"グリナード永山店","東京都多摩市永山1-4 グリナード永山1号館4F","35.6294191","139.4484103"
"セレオ国分寺店","東京都国分寺市南町3-20-3　セレオ国分寺2F","35.699792","139.480346"
"セレスティン芝三井ビルディング店","東京都港区芝3-23-1 セレスティン芝三井ビルディング1F","35.6510572","139.7487576"
"ソニーシティ内店","東京都港区港南1－7－1　ソニーシティ1F","35.631165","139.743612"
"ダイバーシティ東京プラザ店","東京都江東区青海1丁目1番地1号　ダイバーシティ東京プラザ 3F","35.6248414","139.7757086"
"デンマーク・ザ・ロイヤルカフェテラス 東京スクエアガーデン店","東京都中央区京橋3丁目1-1 東京スクエアガーデンB1F","35.676097","139.768709"
"トレードピアお台場店","東京都港区台場2-3-1 トレードピアお台場1F","35.62792650000001","139.7764703"
"ニューオータニガーデンコート店","東京都千代田区紀尾井町4-1 ガーデンコート2F","35.6792602","139.7357528"
"ビリーヴ大森店","東京都品川区南大井6丁目25-3 ビリーヴ大森1F","35.5890649","139.7309947"
"ブルースカイタリーズコーヒー羽田空港第一ターミナル店","東京都大田区羽田空港3-3-2第一旅客ターミナルビルP.O.BOX26","35.5491133","139.7838439"
"フレスポ府中店","東京都府中市西原町1-6-2 蔦屋書店 フレスポ府中店内","35.6823235","139.4606338"
"マロニエゲート銀座2店","東京都中央区銀座3-2-1　マロニエゲート銀座2 B2F","35.673741","139.765233"
"みなみ野店","東京都八王子市みなみ野1-7-7","35.632494","139.3273252"
"阿佐ヶ谷ダイヤ街店","東京都杉並区阿佐ヶ谷南3-55-1　阿佐ヶ谷ダイヤ街2F","35.7049797","139.6355408"
"綾瀬駅前店","東京都足立区綾瀬3-1-2 東急ストア内","35.7622747","139.8251382"
"歌舞伎座店","東京都中央区銀座4-12-15 GINZAKABUKIZA　B2F","35.6694671","139.7678232"
"海岸竹芝通り店","東京都港区海岸1-4-8 キヤノン電子ビル","35.6559744","139.7592781"
"蒲田アロマスクエア店","東京都大田区蒲田5-37-1 ニッセイ アロマスクエア1F","35.5609811","139.7183444"
"丸の内CAFE 会店","東京都千代田区丸の内2丁目7番2号","35.67984089999999","139.7650921"
"丸の内パレスビル店","東京都千代田区丸の内1-1-1　パレスビル地下1F","35.685381","139.761559"
"丸の内永楽ビルディング店","東京都千代田区丸の内1-4-1 丸の内永楽ビルディングB1F","35.6846661","139.7647656"
"丸の内東京海上日動ビル店","東京都千代田区丸の内1-2-1 東京海上ビルディング新館1F","35.6831032","139.7633711"
"砧世田谷通り店","東京都世田谷区砧1-15-3 GU世田谷砧店1F","35.636462","139.619053"
"京王高幡SC店","東京都日野市高幡116-10","35.6620418","139.4133917"
"京王多摩センター駅店","東京都多摩市落合1-10-1","35.6253076","139.4241064"
"京急蒲田駅店","東京都大田区蒲田4-50-11　ウィングキッチン京急蒲田１Ｆ","35.5606709","139.7236782"
"錦糸町アルカウエスト店","東京都墨田区錦糸1-2-4 アルカウエスト2F","35.6971549","139.8095509"
"錦糸町オリナスタワー店","東京都墨田区太平4-1-3 オリナスタワー 1F","35.7007502","139.8153059"
"錦糸町オリナスモール店","東京都墨田区太平4-1-2 錦糸町オリナスモール1階","35.70088610000001","139.8158767"
"錦糸町テルミナ店","東京都墨田区江東橋3丁目14番5号 テルミナ4F","35.696405","139.814334"
"金町駅南口店","東京都葛飾区金町6-2-1","35.7678131","139.8712874"
"銀座三越コミュ店","東京都中央区銀座4-6-16 銀座三越ル・プレイス内3階","35.6713225","139.7658367"
"銀座六丁目昭和通り店","東京都中央区銀座6-14-5 銀座ホウライビル1F","35.6687395","139.7656423"
"隅田公園店","東京都台東区花川戸1-1-31　隅田公園内","35.7134182","139.8012615"
"恵比寿東口店","東京都渋谷区恵比寿1-11-1 大慧ビル1F","35.6467173","139.7112988"
"慶大東門前店","東京都港区芝5-1-13 三ツ輪三田ビル1F","35.649989","139.7450649"
"経堂コルティ店","東京都世田谷区経堂2-1-33　経堂コルティ2F","35.651505","139.635762"
"月島駅前店","東京都中央区月島1-5-1","35.6642654","139.7836803"
"虎ノ門ＪＴビル店","東京都港区虎ノ門2-2-1 虎ノ門 JTビル1F","35.669455","139.745672"
"五反田西店","東京都品川区西五反田7-9-4 ウスイビル1F","35.623546","139.720584"
"五反田東店","東京都品川区東五反田2-3-2 タイセイビル1階","35.6255064","139.7260201"
"好仁会東大病院店","東京都文京区本郷7-3-1東大病院内","35.710959","139.765652"
"江古田店","東京都練馬区旭丘1丁目78番3号","35.7372484","139.6734001"
"麹町店","東京都千代田区麹町3-3 丸増ビル1F","35.68367509999999","139.7384186"
"国立国際医療研究センター店","東京都新宿区戸山1-21-1国立国際医療研究センター内1F","35.70173020000001","139.7165838"
"国立精神・神経医療研究センター店","東京都小平市小川東町4-1-1　1Ｆ","35.7373263","139.475253"
"国立店","東京都国立市中1-10-1","35.6980998","139.4454042"
"済生会中央病院店","東京都港区三田1-4-17 新棟1階","35.654028","139.7441382"
"桜新町店","東京都世田谷区桜新町2-8-2","35.63191","139.6449319"
"三井アウトレットパーク多摩南大沢店","東京都八王子市南大沢1-600 三井アウトレットパーク 1F","35.614215","139.37738"
"三井住友海上駿河台ビル店","東京都千代田区神田駿河台3丁目9番地","35.696625","139.7643277"
"三鷹駅南口店","東京都三鷹市下連雀3-46-6","35.7024525","139.5604696"
"三田国際ビル店","東京都港区三田1-4-28 三田国際ビルB1F","35.6527105","139.7444053"
"四ツ谷東口店","東京都千代田区麹町5-3 第7秋山ビルディング","35.6844219","139.7333096"
"市ヶ谷店","東京都千代田区九段南4-6-10 近清堂ビル1F","35.69183090000001","139.7393965"
"汐留シティセンター店","東京都港区東新橋一丁目5番2号　汐留シティセンターB2F","35.66537","139.7611124"
"汐留住友ビル店","東京都港区東新橋一丁目9番2号 汐留住友ビル2F","35.662218","139.7600653"
"芝ＮＢＦタワー店","東京都港区芝大門1-1-30 芝NBFタワー1F","35.659504","139.753218"
"芝浦海岸通り店","東京都港区芝浦4-13-23 MS芝浦ビル1F","35.6402396","139.7480612"
"芝公園店","東京都港区芝公園2-4-1 芝パークビル１Ｆ","35.6556229","139.7522709"
"芝二丁目店","東京都港区芝2-3-3 芝二丁目大門ビルディング1F","35.6523642","139.7536284"
"秋葉原ＵＤＸ店","東京都千代田区外神田4-14-1 秋葉原UDX1","35.699937","139.7722"
"渋谷ファイヤー通り店","東京都渋谷区神南1-12-14","35.6628326","139.7005648"
"渋谷東急本店前店","東京都渋谷区道玄坂2-23-12 フォンティスビル1F","35.6599597","139.6959636"
"順天堂大学練馬病院店","東京都練馬区高野台3-1-10順天堂大学医学部附属練馬病院内1F","35.7420487","139.6153129"
"小田急マルシェ町田店","東京都町田市原町田6-1-1　小田急マルシェ町田　2F","35.5429208","139.4444359"
"昭和大学江東豊洲病院店","東京都江東区豊洲5-1","35.64989190000001","139.7957018"
"昭和大学病院店","東京都品川区旗の台1-5-8 中央棟１F","35.6084331","139.7035027"
"上野の森さくらテラス店","東京都台東区上野公園1-54","35.7121291","139.7744987"
"上野御徒町店","東京都台東区上野5-25-11","35.7075213","139.775585"
"上野広小路店","東京都台東区上野1-20-11 上野鈴乃屋本店ビル1F","35.7074757","139.7726361"
"新宿ＮＳビルアネックス店","東京都新宿区西新宿2-4-1 新宿ＮＳビル1F","35.6879841","139.6935305"
"新宿ＮＳビル店","東京都新宿区西新宿2-4-1 新宿NSビル1F","35.6879841","139.6935305"
"新宿イーストサイドスクエアアトリウム店","東京都新宿区新宿6丁目27番30号 新宿イーストサイドスクエア 1Ｆ","35.6966715","139.7086755"
"新宿イーストサイドスクエア店","東京都新宿区新宿6丁目27番30号 新宿イーストサイドスクエアＢ１Ｆ","35.6966715","139.7086755"
"新宿エルタワー店","東京都新宿区西新宿1丁目6番1号 新宿エルタワーB2F","35.6921374","139.6972612"
"新宿オークタワー店","東京都新宿区西新宿6-8-1 住友不動産新宿オークタワー内","35.6941253","139.6904861"
"新宿コクーンタワー店","東京都新宿区西新宿１－７－３　コクーンタワー1F","35.6915291","139.6968724"
"新宿スクエアタワー店","東京都新宿区西新宿6-22-1 新宿スクエアタワー1F","35.6941735","139.6877075"
"新宿センタービル店","東京都新宿区西新宿1-25-1 新宿センタービル","35.691726","139.695525"
"新宿御苑駅前店","東京都新宿区新宿1-6-5 ソノリティ新宿御苑1F","35.6885179","139.7101506"
"新宿若松河田店","東京都新宿区若松町28-7　ダイヤピア212","35.699517","139.7184442"
"新宿小滝橋通り店","東京都新宿区西新宿7-8-13 栗原ビル1F","35.6954053","139.6982172"
"新宿二丁目店","東京都新宿区新宿2-5-9","35.6896685","139.7069186"
"神楽坂店","東京都新宿区箪笥町22番地","35.7003152","139.7335073"
"神谷町プライムプレイス店","東京都港区虎ノ門4丁目1-17","35.6651253","139.7440747"
"Ｅｍｉｏ東久留米店","東京都東久留米市東本町 1-8","35.7607724","139.5338137"
"Emio練馬高野台店","東京都練馬区高野台1-7-27 Emio練馬高野台2F","35.740165","139.6176262"
"ＩＢＭ箱崎店","東京都中央区日本橋箱崎町19-21 IBM箱崎ビル1F","35.6791594","139.7868759"
"ＭＩＮＡＮＯ分倍河原店","東京都府中市片町3-22-26","35.6670374","139.4695373"
"ＮＢＦ豊洲店","東京都江東区豊洲5-6-52","35.6505891","139.7992764"
"ｎｏｎｏｗａ西国分寺店","東京都国分寺市西恋ヶ窪2-1-18","35.6998138","139.4657165"
"nonowa武蔵境店","東京都武蔵野市境南町2丁目1番35号","35.701127","139.5411325"
"OEDO日本橋店","東京都中央区日本橋二丁目7-1東京日本橋タワーB1F","35.6818052","139.7741444"
"ＰＣＰ丸の内店","東京都千代田区丸の内1-11-1 パシフィックセンチュリープレイス丸の内B1","35.6780522","139.7668531"
"with U ルミネ池袋店","東京都豊島区西池袋1-11-1ルミネ池袋6F","35.728845","139.709307"
"アトレヴィ巣鴨店","東京都豊島区巣鴨1丁目16番8号 アトレヴィ巣鴨4F","35.7335708","139.7393103"
"アトレ吉祥寺店","東京都武蔵野市吉祥寺南町1丁目1番24号　アトレ吉祥寺東館2F","35.7031145","139.5788053"
"アトレ秋葉原店","東京都千代田区神田花岡町1-9 アトレ秋葉原2 2F","35.698358","139.774777"
"アトレ大森店","東京都大田区大森北1-6-16　アトレ大森１Ｆ","35.5884005","139.7282054"
"アトレ目黒店","東京都品川区上大崎3-1-1 アトレ目黒2F","35.633358","139.71573"
"イーホテル東新宿店","東京都新宿区歌舞伎町2-3-15 　イーホテル東新宿1階","35.6977155","139.707133"
"イオンスタイル板橋前野町店","東京都板橋区前野町4丁目21番22号イオンスタイル板橋前野町店1F","35.7712215","139.6917478"
"エキュート立川店","東京都立川市柴崎町3-1-1 エキュート立川3F","35.697558","139.413356"
"エビススバルビル店","東京都渋谷区恵比寿1-20-8 エビススバルビル1F","35.6469854","139.7134582"
"お台場デックス店","東京都港区台場1-6-1 デックス東京ビーチ1F","35.6290929","139.775913"
"がん研有明病院店","東京都江東区有明3-8-31 がん研有明病院内","35.6344018","139.7949996"
"グランエミオ大泉学園店","東京都練馬区東大泉一丁目28-1グランエミオ大泉学園2F","35.749628","139.587385"
"グランデュオ立川店","東京都立川市柴崎町3-2-1 6F","35.6973884","139.414818"
"グリナード永山店","東京都多摩市永山1-4 グリナード永山1号館4F","35.6294191","139.4484103"
"セレオ国分寺店","東京都国分寺市南町3-20-3　セレオ国分寺2F","35.699792","139.480346"
"セレスティン芝三井ビルディング店","東京都港区芝3-23-1 セレスティン芝三井ビルディング1F","35.6510572","139.7487576"
"ソニーシティ内店","東京都港区港南1－7－1　ソニーシティ1F","35.631165","139.743612"
"ダイバーシティ東京プラザ店","東京都江東区青海1丁目1番地1号　ダイバーシティ東京プラザ 3F","35.6248414","139.7757086"
"デンマーク・ザ・ロイヤルカフェテラス 東京スクエアガーデン店","東京都中央区京橋3丁目1-1 東京スクエアガーデンB1F","35.676097","139.768709"
"トレードピアお台場店","東京都港区台場2-3-1 トレードピアお台場1F","35.62792650000001","139.7764703"
"ニューオータニガーデンコート店","東京都千代田区紀尾井町4-1 ガーデンコート2F","35.6792602","139.7357528"
"ビリーヴ大森店","東京都品川区南大井6丁目25-3 ビリーヴ大森1F","35.5890649","139.7309947"
"ブルースカイタリーズコーヒー羽田空港第一ターミナル店","東京都大田区羽田空港3-3-2第一旅客ターミナルビルP.O.BOX26","35.5491133","139.7838439"
"フレスポ府中店","東京都府中市西原町1-6-2 蔦屋書店 フレスポ府中店内","35.6823235","139.4606338"
"マロニエゲート銀座2店","東京都中央区銀座3-2-1　マロニエゲート銀座2 B2F","35.673741","139.765233"
"みなみ野店","東京都八王子市みなみ野1-7-7","35.632494","139.3273252"
"阿佐ヶ谷ダイヤ街店","東京都杉並区阿佐ヶ谷南3-55-1　阿佐ヶ谷ダイヤ街2F","35.7049797","139.6355408"
"綾瀬駅前店","東京都足立区綾瀬3-1-2 東急ストア内","35.7622747","139.8251382"
"歌舞伎座店","東京都中央区銀座4-12-15 GINZAKABUKIZA　B2F","35.6694671","139.7678232"
"海岸竹芝通り店","東京都港区海岸1-4-8 キヤノン電子ビル","35.6559744","139.7592781"
"蒲田アロマスクエア店","東京都大田区蒲田5-37-1 ニッセイ アロマスクエア1F","35.5609811","139.7183444"
"丸の内CAFE 会店","東京都千代田区丸の内2丁目7番2号","35.67984089999999","139.7650921"
"丸の内パレスビル店","東京都千代田区丸の内1-1-1　パレスビル地下1F","35.685381","139.761559"
"丸の内永楽ビルディング店","東京都千代田区丸の内1-4-1 丸の内永楽ビルディングB1F","35.6846661","139.7647656"
"丸の内東京海上日動ビル店","東京都千代田区丸の内1-2-1 東京海上ビルディング新館1F","35.6831032","139.7633711"
"砧世田谷通り店","東京都世田谷区砧1-15-3 GU世田谷砧店1F","35.636462","139.619053"
"京王高幡SC店","東京都日野市高幡116-10","35.6620418","139.4133917"
"京王多摩センター駅店","東京都多摩市落合1-10-1","35.6253076","139.4241064"
"京急蒲田駅店","東京都大田区蒲田4-50-11　ウィングキッチン京急蒲田１Ｆ","35.5606709","139.7236782"
"錦糸町アルカウエスト店","東京都墨田区錦糸1-2-4 アルカウエスト2F","35.6971549","139.8095509"
"錦糸町オリナスタワー店","東京都墨田区太平4-1-3 オリナスタワー 1F","35.7007502","139.8153059"
"錦糸町オリナスモール店","東京都墨田区太平4-1-2 錦糸町オリナスモール1階","35.70088610000001","139.8158767"
"錦糸町テルミナ店","東京都墨田区江東橋3丁目14番5号 テルミナ4F","35.696405","139.814334"
"金町駅南口店","東京都葛飾区金町6-2-1","35.7678131","139.8712874"
"銀座三越コミュ店","東京都中央区銀座4-6-16 銀座三越ル・プレイス内3階","35.6713225","139.7658367"
"銀座六丁目昭和通り店","東京都中央区銀座6-14-5 銀座ホウライビル1F","35.6687395","139.7656423"
"隅田公園店","東京都台東区花川戸1-1-31　隅田公園内","35.7134182","139.8012615"
"恵比寿東口店","東京都渋谷区恵比寿1-11-1 大慧ビル1F","35.6467173","139.7112988"
"慶大東門前店","東京都港区芝5-1-13 三ツ輪三田ビル1F","35.649989","139.7450649"
"経堂コルティ店","東京都世田谷区経堂2-1-33　経堂コルティ2F","35.651505","139.635762"
"月島駅前店","東京都中央区月島1-5-1","35.6642654","139.7836803"
"虎ノ門ＪＴビル店","東京都港区虎ノ門2-2-1 虎ノ門 JTビル1F","35.669455","139.745672"
"五反田西店","東京都品川区西五反田7-9-4 ウスイビル1F","35.623546","139.720584"
"五反田東店","東京都品川区東五反田2-3-2 タイセイビル1階","35.6255064","139.7260201"
"好仁会東大病院店","東京都文京区本郷7-3-1東大病院内","35.710959","139.765652"
"江古田店","東京都練馬区旭丘1丁目78番3号","35.7372484","139.6734001"
"麹町店","東京都千代田区麹町3-3 丸増ビル1F","35.68367509999999","139.7384186"
"国立国際医療研究センター店","東京都新宿区戸山1-21-1国立国際医療研究センター内1F","35.70173020000001","139.7165838"
"国立精神・神経医療研究センター店","東京都小平市小川東町4-1-1　1Ｆ","35.7373263","139.475253"
"国立店","東京都国立市中1-10-1","35.6980998","139.4454042"
"済生会中央病院店","東京都港区三田1-4-17 新棟1階","35.654028","139.7441382"
"桜新町店","東京都世田谷区桜新町2-8-2","35.63191","139.6449319"
"三井アウトレットパーク多摩南大沢店","東京都八王子市南大沢1-600 三井アウトレットパーク 1F","35.614215","139.37738"
"三井住友海上駿河台ビル店","東京都千代田区神田駿河台3丁目9番地","35.696625","139.7643277"
"三鷹駅南口店","東京都三鷹市下連雀3-46-6","35.7024525","139.5604696"
"三田国際ビル店","東京都港区三田1-4-28 三田国際ビルB1F","35.6527105","139.7444053"
"四ツ谷東口店","東京都千代田区麹町5-3 第7秋山ビルディング","35.6844219","139.7333096"
"市ヶ谷店","東京都千代田区九段南4-6-10 近清堂ビル1F","35.69183090000001","139.7393965"
"汐留シティセンター店","東京都港区東新橋一丁目5番2号　汐留シティセンターB2F","35.66537","139.7611124"
"汐留住友ビル店","東京都港区東新橋一丁目9番2号 汐留住友ビル2F","35.662218","139.7600653"
"芝ＮＢＦタワー店","東京都港区芝大門1-1-30 芝NBFタワー1F","35.659504","139.753218"
"芝浦海岸通り店","東京都港区芝浦4-13-23 MS芝浦ビル1F","35.6402396","139.7480612"
"芝公園店","東京都港区芝公園2-4-1 芝パークビル１Ｆ","35.6556229","139.7522709"
"芝二丁目店","東京都港区芝2-3-3 芝二丁目大門ビルディング1F","35.6523642","139.7536284"
"秋葉原ＵＤＸ店","東京都千代田区外神田4-14-1 秋葉原UDX1","35.699937","139.7722"
"渋谷ファイヤー通り店","東京都渋谷区神南1-12-14","35.6628326","139.7005648"
"渋谷東急本店前店","東京都渋谷区道玄坂2-23-12 フォンティスビル1F","35.6599597","139.6959636"
"順天堂大学練馬病院店","東京都練馬区高野台3-1-10順天堂大学医学部附属練馬病院内1F","35.7420487","139.6153129"
"小田急マルシェ町田店","東京都町田市原町田6-1-1　小田急マルシェ町田　2F","35.5429208","139.4444359"
"昭和大学江東豊洲病院店","東京都江東区豊洲5-1","35.64989190000001","139.7957018"
"昭和大学病院店","東京都品川区旗の台1-5-8 中央棟１F","35.6084331","139.7035027"
"上野の森さくらテラス店","東京都台東区上野公園1-54","35.7121291","139.7744987"
"上野御徒町店","東京都台東区上野5-25-11","35.7075213","139.775585"
"上野広小路店","東京都台東区上野1-20-11 上野鈴乃屋本店ビル1F","35.7074757","139.7726361"
"新宿ＮＳビルアネックス店","東京都新宿区西新宿2-4-1 新宿ＮＳビル1F","35.6879841","139.6935305"
"新宿ＮＳビル店","東京都新宿区西新宿2-4-1 新宿NSビル1F","35.6879841","139.6935305"
"新宿イーストサイドスクエアアトリウム店","東京都新宿区新宿6丁目27番30号 新宿イーストサイドスクエア 1Ｆ","35.6966715","139.7086755"
"新宿イーストサイドスクエア店","東京都新宿区新宿6丁目27番30号 新宿イーストサイドスクエアＢ１Ｆ","35.6966715","139.7086755"
"新宿エルタワー店","東京都新宿区西新宿1丁目6番1号 新宿エルタワーB2F","35.6921374","139.6972612"
"新宿オークタワー店","東京都新宿区西新宿6-8-1 住友不動産新宿オークタワー内","35.6941253","139.6904861"
"新宿コクーンタワー店","東京都新宿区西新宿１－７－３　コクーンタワー1F","35.6915291","139.6968724"
"新宿スクエアタワー店","東京都新宿区西新宿6-22-1 新宿スクエアタワー1F","35.6941735","139.6877075"
"新宿センタービル店","東京都新宿区西新宿1-25-1 新宿センタービル","35.691726","139.695525"
"新宿御苑駅前店","東京都新宿区新宿1-6-5 ソノリティ新宿御苑1F","35.6885179","139.7101506"
"新宿若松河田店","東京都新宿区若松町28-7　ダイヤピア212","35.699517","139.7184442"
"新宿小滝橋通り店","東京都新宿区西新宿7-8-13 栗原ビル1F","35.6954053","139.6982172"
"新宿二丁目店","東京都新宿区新宿2-5-9","35.6896685","139.7069186"
"神楽坂店","東京都新宿区箪笥町22番地","35.7003152","139.7335073"
"神谷町プライムプレイス店","東京都港区虎ノ門4丁目1-17","35.6651253","139.7440747"
"神田橋本郷通り店","東京都千代田区内神田1-2-8","35.6907229","139.7648473"
"神保町三井ビルディング店","東京都千代田区神保町1-105","35.6942168","139.7602586"
"神保町店","東京都千代田区神田神保町2-7 神保町NKビル","35.6955408","139.7558842"
"成瀬駅前店","東京都町田市南成瀬1-1-1 りそな銀行成瀬支店内","35.5353675","139.473404"
"成増ダイエー店","東京都板橋区成増2-21-2 ダイエー成増１Ｆ","35.778123","139.630477"
"西新宿駅前店","東京都新宿区西新宿 8-5-1","35.6946842","139.6930227"
"青山一丁目店","東京都港区南青山一丁目2番6号","35.6721128","139.725265"
"石神井公園店","東京都練馬区石神井町2-14-31 ビオラ1F","35.7436886","139.6075034"
"赤坂ガーデンシティ店","東京都港区赤坂4-15-1 赤坂ガーデンシティ１F","35.6741663","139.7314337"
"赤坂店","東京都港区赤坂3-13-10","35.6730353","139.7373"
"Ｅｍｉｏ東久留米店","東京都東久留米市東本町 1-8","35.7607724","139.5338137"
"Emio練馬高野台店","東京都練馬区高野台1-7-27 Emio練馬高野台2F","35.740165","139.6176262"
"ＩＢＭ箱崎店","東京都中央区日本橋箱崎町19-21 IBM箱崎ビル1F","35.6791594","139.7868759"
"ＭＩＮＡＮＯ分倍河原店","東京都府中市片町3-22-26","35.6670374","139.4695373"
"ＮＢＦ豊洲店","東京都江東区豊洲5-6-52","35.6505891","139.7992764"
"ｎｏｎｏｗａ西国分寺店","東京都国分寺市西恋ヶ窪2-1-18","35.6998138","139.4657165"
"nonowa武蔵境店","東京都武蔵野市境南町2丁目1番35号","35.701127","139.5411325"
"OEDO日本橋店","東京都中央区日本橋二丁目7-1東京日本橋タワーB1F","35.6818052","139.7741444"
"ＰＣＰ丸の内店","東京都千代田区丸の内1-11-1 パシフィックセンチュリープレイス丸の内B1","35.6780522","139.7668531"
"with U ルミネ池袋店","東京都豊島区西池袋1-11-1ルミネ池袋6F","35.728845","139.709307"
"アトレヴィ巣鴨店","東京都豊島区巣鴨1丁目16番8号 アトレヴィ巣鴨4F","35.7335708","139.7393103"
"アトレ吉祥寺店","東京都武蔵野市吉祥寺南町1丁目1番24号　アトレ吉祥寺東館2F","35.7031145","139.5788053"
"アトレ秋葉原店","東京都千代田区神田花岡町1-9 アトレ秋葉原2 2F","35.698358","139.774777"
"アトレ大森店","東京都大田区大森北1-6-16　アトレ大森１Ｆ","35.5884005","139.7282054"
"アトレ目黒店","東京都品川区上大崎3-1-1 アトレ目黒2F","35.633358","139.71573"
"イーホテル東新宿店","東京都新宿区歌舞伎町2-3-15 　イーホテル東新宿1階","35.6977155","139.707133"
"イオンスタイル板橋前野町店","東京都板橋区前野町4丁目21番22号イオンスタイル板橋前野町店1F","35.7712215","139.6917478"
"エキュート立川店","東京都立川市柴崎町3-1-1 エキュート立川3F","35.697558","139.413356"
"エビススバルビル店","東京都渋谷区恵比寿1-20-8 エビススバルビル1F","35.6469854","139.7134582"
"お台場デックス店","東京都港区台場1-6-1 デックス東京ビーチ1F","35.6290929","139.775913"
"がん研有明病院店","東京都江東区有明3-8-31 がん研有明病院内","35.6344018","139.7949996"
"グランエミオ大泉学園店","東京都練馬区東大泉一丁目28-1グランエミオ大泉学園2F","35.749628","139.587385"
"グランデュオ立川店","東京都立川市柴崎町3-2-1 6F","35.6973884","139.414818"
"グリナード永山店","東京都多摩市永山1-4 グリナード永山1号館4F","35.6294191","139.4484103"
"セレオ国分寺店","東京都国分寺市南町3-20-3　セレオ国分寺2F","35.699792","139.480346"
"セレスティン芝三井ビルディング店","東京都港区芝3-23-1 セレスティン芝三井ビルディング1F","35.6510572","139.7487576"
"ソニーシティ内店","東京都港区港南1－7－1　ソニーシティ1F","35.631165","139.743612"
"ダイバーシティ東京プラザ店","東京都江東区青海1丁目1番地1号　ダイバーシティ東京プラザ 3F","35.6248414","139.7757086"
"デンマーク・ザ・ロイヤルカフェテラス 東京スクエアガーデン店","東京都中央区京橋3丁目1-1 東京スクエアガーデンB1F","35.676097","139.768709"
"トレードピアお台場店","東京都港区台場2-3-1 トレードピアお台場1F","35.62792650000001","139.7764703"
"ニューオータニガーデンコート店","東京都千代田区紀尾井町4-1 ガーデンコート2F","35.6792602","139.7357528"
"ビリーヴ大森店","東京都品川区南大井6丁目25-3 ビリーヴ大森1F","35.5890649","139.7309947"
"ブルースカイタリーズコーヒー羽田空港第一ターミナル店","東京都大田区羽田空港3-3-2第一旅客ターミナルビルP.O.BOX26","35.5491133","139.7838439"
"フレスポ府中店","東京都府中市西原町1-6-2 蔦屋書店 フレスポ府中店内","35.6823235","139.4606338"
"マロニエゲート銀座2店","東京都中央区銀座3-2-1　マロニエゲート銀座2 B2F","35.673741","139.765233"
"みなみ野店","東京都八王子市みなみ野1-7-7","35.632494","139.3273252"
"阿佐ヶ谷ダイヤ街店","東京都杉並区阿佐ヶ谷南3-55-1　阿佐ヶ谷ダイヤ街2F","35.7049797","139.6355408"
"綾瀬駅前店","東京都足立区綾瀬3-1-2 東急ストア内","35.7622747","139.8251382"
"歌舞伎座店","東京都中央区銀座4-12-15 GINZAKABUKIZA　B2F","35.6694671","139.7678232"
"海岸竹芝通り店","東京都港区海岸1-4-8 キヤノン電子ビル","35.6559744","139.7592781"
"蒲田アロマスクエア店","東京都大田区蒲田5-37-1 ニッセイ アロマスクエア1F","35.5609811","139.7183444"
"丸の内CAFE 会店","東京都千代田区丸の内2丁目7番2号","35.67984089999999","139.7650921"
"丸の内パレスビル店","東京都千代田区丸の内1-1-1　パレスビル地下1F","35.685381","139.761559"
"丸の内永楽ビルディング店","東京都千代田区丸の内1-4-1 丸の内永楽ビルディングB1F","35.6846661","139.7647656"
"丸の内東京海上日動ビル店","東京都千代田区丸の内1-2-1 東京海上ビルディング新館1F","35.6831032","139.7633711"
"砧世田谷通り店","東京都世田谷区砧1-15-3 GU世田谷砧店1F","35.636462","139.619053"
"京王高幡SC店","東京都日野市高幡116-10","35.6620418","139.4133917"
"京王多摩センター駅店","東京都多摩市落合1-10-1","35.6253076","139.4241064"
"京急蒲田駅店","東京都大田区蒲田4-50-11　ウィングキッチン京急蒲田１Ｆ","35.5606709","139.7236782"
"錦糸町アルカウエスト店","東京都墨田区錦糸1-2-4 アルカウエスト2F","35.6971549","139.8095509"
"錦糸町オリナスタワー店","東京都墨田区太平4-1-3 オリナスタワー 1F","35.7007502","139.8153059"
"錦糸町オリナスモール店","東京都墨田区太平4-1-2 錦糸町オリナスモール1階","35.70088610000001","139.8158767"
"錦糸町テルミナ店","東京都墨田区江東橋3丁目14番5号 テルミナ4F","35.696405","139.814334"
"金町駅南口店","東京都葛飾区金町6-2-1","35.7678131","139.8712874"
"銀座三越コミュ店","東京都中央区銀座4-6-16 銀座三越ル・プレイス内3階","35.6713225","139.7658367"
"銀座六丁目昭和通り店","東京都中央区銀座6-14-5 銀座ホウライビル1F","35.6687395","139.7656423"
"隅田公園店","東京都台東区花川戸1-1-31　隅田公園内","35.7134182","139.8012615"
"恵比寿東口店","東京都渋谷区恵比寿1-11-1 大慧ビル1F","35.6467173","139.7112988"
"慶大東門前店","東京都港区芝5-1-13 三ツ輪三田ビル1F","35.649989","139.7450649"
"経堂コルティ店","東京都世田谷区経堂2-1-33　経堂コルティ2F","35.651505","139.635762"
"月島駅前店","東京都中央区月島1-5-1","35.6642654","139.7836803"
"虎ノ門ＪＴビル店","東京都港区虎ノ門2-2-1 虎ノ門 JTビル1F","35.669455","139.745672"
"五反田西店","東京都品川区西五反田7-9-4 ウスイビル1F","35.623546","139.720584"
"五反田東店","東京都品川区東五反田2-3-2 タイセイビル1階","35.6255064","139.7260201"
"好仁会東大病院店","東京都文京区本郷7-3-1東大病院内","35.710959","139.765652"
"江古田店","東京都練馬区旭丘1丁目78番3号","35.7372484","139.6734001"
"麹町店","東京都千代田区麹町3-3 丸増ビル1F","35.68367509999999","139.7384186"
"国立国際医療研究センター店","東京都新宿区戸山1-21-1国立国際医療研究センター内1F","35.70173020000001","139.7165838"
"国立精神・神経医療研究センター店","東京都小平市小川東町4-1-1　1Ｆ","35.7373263","139.475253"
"国立店","東京都国立市中1-10-1","35.6980998","139.4454042"
"済生会中央病院店","東京都港区三田1-4-17 新棟1階","35.654028","139.7441382"
"桜新町店","東京都世田谷区桜新町2-8-2","35.63191","139.6449319"
"三井アウトレットパーク多摩南大沢店","東京都八王子市南大沢1-600 三井アウトレットパーク 1F","35.614215","139.37738"
"三井住友海上駿河台ビル店","東京都千代田区神田駿河台3丁目9番地","35.696625","139.7643277"
"三鷹駅南口店","東京都三鷹市下連雀3-46-6","35.7024525","139.5604696"
"三田国際ビル店","東京都港区三田1-4-28 三田国際ビルB1F","35.6527105","139.7444053"
"四ツ谷東口店","東京都千代田区麹町5-3 第7秋山ビルディング","35.6844219","139.7333096"
"市ヶ谷店","東京都千代田区九段南4-6-10 近清堂ビル1F","35.69183090000001","139.7393965"
"汐留シティセンター店","東京都港区東新橋一丁目5番2号　汐留シティセンターB2F","35.66537","139.7611124"
"汐留住友ビル店","東京都港区東新橋一丁目9番2号 汐留住友ビル2F","35.662218","139.7600653"
"芝ＮＢＦタワー店","東京都港区芝大門1-1-30 芝NBFタワー1F","35.659504","139.753218"
"芝浦海岸通り店","東京都港区芝浦4-13-23 MS芝浦ビル1F","35.6402396","139.7480612"
"芝公園店","東京都港区芝公園2-4-1 芝パークビル１Ｆ","35.6556229","139.7522709"
"芝二丁目店","東京都港区芝2-3-3 芝二丁目大門ビルディング1F","35.6523642","139.7536284"
"秋葉原ＵＤＸ店","東京都千代田区外神田4-14-1 秋葉原UDX1","35.699937","139.7722"
"渋谷ファイヤー通り店","東京都渋谷区神南1-12-14","35.6628326","139.7005648"
"渋谷東急本店前店","東京都渋谷区道玄坂2-23-12 フォンティスビル1F","35.6599597","139.6959636"
"順天堂大学練馬病院店","東京都練馬区高野台3-1-10順天堂大学医学部附属練馬病院内1F","35.7420487","139.6153129"
"小田急マルシェ町田店","東京都町田市原町田6-1-1　小田急マルシェ町田　2F","35.5429208","139.4444359"
"昭和大学江東豊洲病院店","東京都江東区豊洲5-1","35.64989190000001","139.7957018"
"昭和大学病院店","東京都品川区旗の台1-5-8 中央棟１F","35.6084331","139.7035027"
"上野の森さくらテラス店","東京都台東区上野公園1-54","35.7121291","139.7744987"
"上野御徒町店","東京都台東区上野5-25-11","35.7075213","139.775585"
"上野広小路店","東京都台東区上野1-20-11 上野鈴乃屋本店ビル1F","35.7074757","139.7726361"
"新宿ＮＳビルアネックス店","東京都新宿区西新宿2-4-1 新宿ＮＳビル1F","35.6879841","139.6935305"
"新宿ＮＳビル店","東京都新宿区西新宿2-4-1 新宿NSビル1F","35.6879841","139.6935305"
"新宿イーストサイドスクエアアトリウム店","東京都新宿区新宿6丁目27番30号 新宿イーストサイドスクエア 1Ｆ","35.6966715","139.7086755"
"新宿イーストサイドスクエア店","東京都新宿区新宿6丁目27番30号 新宿イーストサイドスクエアＢ１Ｆ","35.6966715","139.7086755"
"新宿エルタワー店","東京都新宿区西新宿1丁目6番1号 新宿エルタワーB2F","35.6921374","139.6972612"
"新宿オークタワー店","東京都新宿区西新宿6-8-1 住友不動産新宿オークタワー内","35.6941253","139.6904861"
"新宿コクーンタワー店","東京都新宿区西新宿１－７－３　コクーンタワー1F","35.6915291","139.6968724"
"新宿スクエアタワー店","東京都新宿区西新宿6-22-1 新宿スクエアタワー1F","35.6941735","139.6877075"
"新宿センタービル店","東京都新宿区西新宿1-25-1 新宿センタービル","35.691726","139.695525"
"新宿御苑駅前店","東京都新宿区新宿1-6-5 ソノリティ新宿御苑1F","35.6885179","139.7101506"
"新宿若松河田店","東京都新宿区若松町28-7　ダイヤピア212","35.699517","139.7184442"
"新宿小滝橋通り店","東京都新宿区西新宿7-8-13 栗原ビル1F","35.6954053","139.6982172"
"新宿二丁目店","東京都新宿区新宿2-5-9","35.6896685","139.7069186"
"神楽坂店","東京都新宿区箪笥町22番地","35.7003152","139.7335073"
"神谷町プライムプレイス店","東京都港区虎ノ門4丁目1-17","35.6651253","139.7440747"
"神田橋本郷通り店","東京都千代田区内神田1-2-8","35.6907229","139.7648473"
"神保町三井ビルディング店","東京都千代田区神保町1-105","35.6942168","139.7602586"
"神保町店","東京都千代田区神田神保町2-7 神保町NKビル","35.6955408","139.7558842"
"成瀬駅前店","東京都町田市南成瀬1-1-1 りそな銀行成瀬支店内","35.5353675","139.473404"
"成増ダイエー店","東京都板橋区成増2-21-2 ダイエー成増１Ｆ","35.778123","139.630477"
"西新宿駅前店","東京都新宿区西新宿 8-5-1","35.6946842","139.6930227"
"青山一丁目店","東京都港区南青山一丁目2番6号","35.6721128","139.725265"
"石神井公園店","東京都練馬区石神井町2-14-31 ビオラ1F","35.7436886","139.6075034"
"赤坂ガーデンシティ店","東京都港区赤坂4-15-1 赤坂ガーデンシティ１F","35.6741663","139.7314337"
"赤坂店","東京都港区赤坂3-13-10","35.6730353","139.7373"
"泉岳寺店","東京都港区三田3-10-1 アーバンネット三田1F","35.6405123","139.7405341"
"浅草新仲見世店","東京都台東区浅草1丁目19-8","35.7117075","139.7969721"
"早大理工店","東京都新宿区大久保 3-4-1","35.7060694","139.7068095"
"巣鴨地蔵通り店","東京都豊島区巣鴨3丁目18-18","35.7352561","139.7354005"
"代々木駅北口店","東京都渋谷区代々木1-36-1 オダカビル1F","35.6840879","139.7012289"
"大丸 東京店","東京都千代田区丸の内1-9-1 大丸東京店４F","35.6814742","139.7689286"
"大崎オーバルコート店","東京都品川区東五反田2-17-1 オーバルコート大崎 マークウエスト1F","35.6233364","139.7291988"
"大崎センタービル店","東京都品川区大崎1丁目5番1号","35.621269","139.7284053"
"大手町パークビルディング店","東京都千代田区大手町一丁目1番1号 大手町パークビルディングB1F","35.6867108","139.7626473"
"大泉学園店","東京都練馬区東大泉2-34-1 オズスタジオシティ1F","35.7529981","139.5947772"
"Ｅｍｉｏ東久留米店","東京都東久留米市東本町 1-8","35.7607724","139.5338137"
"Emio練馬高野台店","東京都練馬区高野台1-7-27 Emio練馬高野台2F","35.740165","139.6176262"
"ＩＢＭ箱崎店","東京都中央区日本橋箱崎町19-21 IBM箱崎ビル1F","35.6791594","139.7868759"
"ＭＩＮＡＮＯ分倍河原店","東京都府中市片町3-22-26","35.6670374","139.4695373"
"ＮＢＦ豊洲店","東京都江東区豊洲5-6-52","35.6505891","139.7992764"
"ｎｏｎｏｗａ西国分寺店","東京都国分寺市西恋ヶ窪2-1-18","35.6998138","139.4657165"
"nonowa武蔵境店","東京都武蔵野市境南町2丁目1番35号","35.701127","139.5411325"
"OEDO日本橋店","東京都中央区日本橋二丁目7-1東京日本橋タワーB1F","35.6818052","139.7741444"
"ＰＣＰ丸の内店","東京都千代田区丸の内1-11-1 パシフィックセンチュリープレイス丸の内B1","35.6780522","139.7668531"
"with U ルミネ池袋店","東京都豊島区西池袋1-11-1ルミネ池袋6F","35.728845","139.709307"
"アトレヴィ巣鴨店","東京都豊島区巣鴨1丁目16番8号 アトレヴィ巣鴨4F","35.7335708","139.7393103"
"アトレ吉祥寺店","東京都武蔵野市吉祥寺南町1丁目1番24号　アトレ吉祥寺東館2F","35.7031145","139.5788053"
"アトレ秋葉原店","東京都千代田区神田花岡町1-9 アトレ秋葉原2 2F","35.698358","139.774777"
"アトレ大森店","東京都大田区大森北1-6-16　アトレ大森１Ｆ","35.5884005","139.7282054"
"アトレ目黒店","東京都品川区上大崎3-1-1 アトレ目黒2F","35.633358","139.71573"
"イーホテル東新宿店","東京都新宿区歌舞伎町2-3-15 　イーホテル東新宿1階","35.6977155","139.707133"
"イオンスタイル板橋前野町店","東京都板橋区前野町4丁目21番22号イオンスタイル板橋前野町店1F","35.7712215","139.6917478"
"エキュート立川店","東京都立川市柴崎町3-1-1 エキュート立川3F","35.697558","139.413356"
"エビススバルビル店","東京都渋谷区恵比寿1-20-8 エビススバルビル1F","35.6469854","139.7134582"
"お台場デックス店","東京都港区台場1-6-1 デックス東京ビーチ1F","35.6290929","139.775913"
"がん研有明病院店","東京都江東区有明3-8-31 がん研有明病院内","35.6344018","139.7949996"
"グランエミオ大泉学園店","東京都練馬区東大泉一丁目28-1グランエミオ大泉学園2F","35.749628","139.587385"
"グランデュオ立川店","東京都立川市柴崎町3-2-1 6F","35.6973884","139.414818"
"グリナード永山店","東京都多摩市永山1-4 グリナード永山1号館4F","35.6294191","139.4484103"
"セレオ国分寺店","東京都国分寺市南町3-20-3　セレオ国分寺2F","35.699792","139.480346"
"セレスティン芝三井ビルディング店","東京都港区芝3-23-1 セレスティン芝三井ビルディング1F","35.6510572","139.7487576"
"ソニーシティ内店","東京都港区港南1－7－1　ソニーシティ1F","35.631165","139.743612"
"ダイバーシティ東京プラザ店","東京都江東区青海1丁目1番地1号　ダイバーシティ東京プラザ 3F","35.6248414","139.7757086"
"デンマーク・ザ・ロイヤルカフェテラス 東京スクエアガーデン店","東京都中央区京橋3丁目1-1 東京スクエアガーデンB1F","35.676097","139.768709"
"トレードピアお台場店","東京都港区台場2-3-1 トレードピアお台場1F","35.62792650000001","139.7764703"
"ニューオータニガーデンコート店","東京都千代田区紀尾井町4-1 ガーデンコート2F","35.6792602","139.7357528"
"ビリーヴ大森店","東京都品川区南大井6丁目25-3 ビリーヴ大森1F","35.5890649","139.7309947"
"ブルースカイタリーズコーヒー羽田空港第一ターミナル店","東京都大田区羽田空港3-3-2第一旅客ターミナルビルP.O.BOX26","35.5491133","139.7838439"
"フレスポ府中店","東京都府中市西原町1-6-2 蔦屋書店 フレスポ府中店内","35.6823235","139.4606338"
"マロニエゲート銀座2店","東京都中央区銀座3-2-1　マロニエゲート銀座2 B2F","35.673741","139.765233"
"みなみ野店","東京都八王子市みなみ野1-7-7","35.632494","139.3273252"
"阿佐ヶ谷ダイヤ街店","東京都杉並区阿佐ヶ谷南3-55-1　阿佐ヶ谷ダイヤ街2F","35.7049797","139.6355408"
"綾瀬駅前店","東京都足立区綾瀬3-1-2 東急ストア内","35.7622747","139.8251382"
"歌舞伎座店","東京都中央区銀座4-12-15 GINZAKABUKIZA　B2F","35.6694671","139.7678232"
"海岸竹芝通り店","東京都港区海岸1-4-8 キヤノン電子ビル","35.6559744","139.7592781"
"蒲田アロマスクエア店","東京都大田区蒲田5-37-1 ニッセイ アロマスクエア1F","35.5609811","139.7183444"
"丸の内CAFE 会店","東京都千代田区丸の内2丁目7番2号","35.67984089999999","139.7650921"
"丸の内パレスビル店","東京都千代田区丸の内1-1-1　パレスビル地下1F","35.685381","139.761559"
"丸の内永楽ビルディング店","東京都千代田区丸の内1-4-1 丸の内永楽ビルディングB1F","35.6846661","139.7647656"
"丸の内東京海上日動ビル店","東京都千代田区丸の内1-2-1 東京海上ビルディング新館1F","35.6831032","139.7633711"
"砧世田谷通り店","東京都世田谷区砧1-15-3 GU世田谷砧店1F","35.636462","139.619053"
"京王高幡SC店","東京都日野市高幡116-10","35.6620418","139.4133917"
"京王多摩センター駅店","東京都多摩市落合1-10-1","35.6253076","139.4241064"
"京急蒲田駅店","東京都大田区蒲田4-50-11　ウィングキッチン京急蒲田１Ｆ","35.5606709","139.7236782"
"錦糸町アルカウエスト店","東京都墨田区錦糸1-2-4 アルカウエスト2F","35.6971549","139.8095509"
"錦糸町オリナスタワー店","東京都墨田区太平4-1-3 オリナスタワー 1F","35.7007502","139.8153059"
"錦糸町オリナスモール店","東京都墨田区太平4-1-2 錦糸町オリナスモール1階","35.70088610000001","139.8158767"
"錦糸町テルミナ店","東京都墨田区江東橋3丁目14番5号 テルミナ4F","35.696405","139.814334"
"金町駅南口店","東京都葛飾区金町6-2-1","35.7678131","139.8712874"
"銀座三越コミュ店","東京都中央区銀座4-6-16 銀座三越ル・プレイス内3階","35.6713225","139.7658367"
"銀座六丁目昭和通り店","東京都中央区銀座6-14-5 銀座ホウライビル1F","35.6687395","139.7656423"
"隅田公園店","東京都台東区花川戸1-1-31　隅田公園内","35.7134182","139.8012615"
"恵比寿東口店","東京都渋谷区恵比寿1-11-1 大慧ビル1F","35.6467173","139.7112988"
"慶大東門前店","東京都港区芝5-1-13 三ツ輪三田ビル1F","35.649989","139.7450649"
"経堂コルティ店","東京都世田谷区経堂2-1-33　経堂コルティ2F","35.651505","139.635762"
"月島駅前店","東京都中央区月島1-5-1","35.6642654","139.7836803"
"虎ノ門ＪＴビル店","東京都港区虎ノ門2-2-1 虎ノ門 JTビル1F","35.669455","139.745672"
"五反田西店","東京都品川区西五反田7-9-4 ウスイビル1F","35.623546","139.720584"
"五反田東店","東京都品川区東五反田2-3-2 タイセイビル1階","35.6255064","139.7260201"
"好仁会東大病院店","東京都文京区本郷7-3-1東大病院内","35.710959","139.765652"
"江古田店","東京都練馬区旭丘1丁目78番3号","35.7372484","139.6734001"
"麹町店","東京都千代田区麹町3-3 丸増ビル1F","35.68367509999999","139.7384186"
"国立国際医療研究センター店","東京都新宿区戸山1-21-1国立国際医療研究センター内1F","35.70173020000001","139.7165838"
"国立精神・神経医療研究センター店","東京都小平市小川東町4-1-1　1Ｆ","35.7373263","139.475253"
"国立店","東京都国立市中1-10-1","35.6980998","139.4454042"
"済生会中央病院店","東京都港区三田1-4-17 新棟1階","35.654028","139.7441382"
"桜新町店","東京都世田谷区桜新町2-8-2","35.63191","139.6449319"
"三井アウトレットパーク多摩南大沢店","東京都八王子市南大沢1-600 三井アウトレットパーク 1F","35.614215","139.37738"
"三井住友海上駿河台ビル店","東京都千代田区神田駿河台3丁目9番地","35.696625","139.7643277"
"三鷹駅南口店","東京都三鷹市下連雀3-46-6","35.7024525","139.5604696"
"三田国際ビル店","東京都港区三田1-4-28 三田国際ビルB1F","35.6527105","139.7444053"
"四ツ谷東口店","東京都千代田区麹町5-3 第7秋山ビルディング","35.6844219","139.7333096"
"市ヶ谷店","東京都千代田区九段南4-6-10 近清堂ビル1F","35.69183090000001","139.7393965"
"汐留シティセンター店","東京都港区東新橋一丁目5番2号　汐留シティセンターB2F","35.66537","139.7611124"
"汐留住友ビル店","東京都港区東新橋一丁目9番2号 汐留住友ビル2F","35.662218","139.7600653"
"芝ＮＢＦタワー店","東京都港区芝大門1-1-30 芝NBFタワー1F","35.659504","139.753218"
"芝浦海岸通り店","東京都港区芝浦4-13-23 MS芝浦ビル1F","35.6402396","139.7480612"
"芝公園店","東京都港区芝公園2-4-1 芝パークビル１Ｆ","35.6556229","139.7522709"
"芝二丁目店","東京都港区芝2-3-3 芝二丁目大門ビルディング1F","35.6523642","139.7536284"
"秋葉原ＵＤＸ店","東京都千代田区外神田4-14-1 秋葉原UDX1","35.699937","139.7722"
"渋谷ファイヤー通り店","東京都渋谷区神南1-12-14","35.6628326","139.7005648"
"渋谷東急本店前店","東京都渋谷区道玄坂2-23-12 フォンティスビル1F","35.6599597","139.6959636"
"順天堂大学練馬病院店","東京都練馬区高野台3-1-10順天堂大学医学部附属練馬病院内1F","35.7420487","139.6153129"
"小田急マルシェ町田店","東京都町田市原町田6-1-1　小田急マルシェ町田　2F","35.5429208","139.4444359"
"昭和大学江東豊洲病院店","東京都江東区豊洲5-1","35.64989190000001","139.7957018"
"昭和大学病院店","東京都品川区旗の台1-5-8 中央棟１F","35.6084331","139.7035027"
"上野の森さくらテラス店","東京都台東区上野公園1-54","35.7121291","139.7744987"
"上野御徒町店","東京都台東区上野5-25-11","35.7075213","139.775585"
"上野広小路店","東京都台東区上野1-20-11 上野鈴乃屋本店ビル1F","35.7074757","139.7726361"
"新宿ＮＳビルアネックス店","東京都新宿区西新宿2-4-1 新宿ＮＳビル1F","35.6879841","139.6935305"
"新宿ＮＳビル店","東京都新宿区西新宿2-4-1 新宿NSビル1F","35.6879841","139.6935305"
"新宿イーストサイドスクエアアトリウム店","東京都新宿区新宿6丁目27番30号 新宿イーストサイドスクエア 1Ｆ","35.6966715","139.7086755"
"新宿イーストサイドスクエア店","東京都新宿区新宿6丁目27番30号 新宿イーストサイドスクエアＢ１Ｆ","35.6966715","139.7086755"
"新宿エルタワー店","東京都新宿区西新宿1丁目6番1号 新宿エルタワーB2F","35.6921374","139.6972612"
"新宿オークタワー店","東京都新宿区西新宿6-8-1 住友不動産新宿オークタワー内","35.6941253","139.6904861"
"新宿コクーンタワー店","東京都新宿区西新宿１－７－３　コクーンタワー1F","35.6915291","139.6968724"
"新宿スクエアタワー店","東京都新宿区西新宿6-22-1 新宿スクエアタワー1F","35.6941735","139.6877075"
"新宿センタービル店","東京都新宿区西新宿1-25-1 新宿センタービル","35.691726","139.695525"
"新宿御苑駅前店","東京都新宿区新宿1-6-5 ソノリティ新宿御苑1F","35.6885179","139.7101506"
"新宿若松河田店","東京都新宿区若松町28-7　ダイヤピア212","35.699517","139.7184442"
"新宿小滝橋通り店","東京都新宿区西新宿7-8-13 栗原ビル1F","35.6954053","139.6982172"
"新宿二丁目店","東京都新宿区新宿2-5-9","35.6896685","139.7069186"
"神楽坂店","東京都新宿区箪笥町22番地","35.7003152","139.7335073"
"神谷町プライムプレイス店","東京都港区虎ノ門4丁目1-17","35.6651253","139.7440747"
"神田橋本郷通り店","東京都千代田区内神田1-2-8","35.6907229","139.7648473"
"神保町三井ビルディング店","東京都千代田区神保町1-105","35.6942168","139.7602586"
"神保町店","東京都千代田区神田神保町2-7 神保町NKビル","35.6955408","139.7558842"
"成瀬駅前店","東京都町田市南成瀬1-1-1 りそな銀行成瀬支店内","35.5353675","139.473404"
"成増ダイエー店","東京都板橋区成増2-21-2 ダイエー成増１Ｆ","35.778123","139.630477"
"西新宿駅前店","東京都新宿区西新宿 8-5-1","35.6946842","139.6930227"
"青山一丁目店","東京都港区南青山一丁目2番6号","35.6721128","139.725265"
"石神井公園店","東京都練馬区石神井町2-14-31 ビオラ1F","35.7436886","139.6075034"
"赤坂ガーデンシティ店","東京都港区赤坂4-15-1 赤坂ガーデンシティ１F","35.6741663","139.7314337"
"赤坂店","東京都港区赤坂3-13-10","35.6730353","139.7373"
"泉岳寺店","東京都港区三田3-10-1 アーバンネット三田1F","35.6405123","139.7405341"
"浅草新仲見世店","東京都台東区浅草1丁目19-8","35.7117075","139.7969721"
"早大理工店","東京都新宿区大久保 3-4-1","35.7060694","139.7068095"
"巣鴨地蔵通り店","東京都豊島区巣鴨3丁目18-18","35.7352561","139.7354005"
"代々木駅北口店","東京都渋谷区代々木1-36-1 オダカビル1F","35.6840879","139.7012289"
"大丸 東京店","東京都千代田区丸の内1-9-1 大丸東京店４F","35.6814742","139.7689286"
"大崎オーバルコート店","東京都品川区東五反田2-17-1 オーバルコート大崎 マークウエスト1F","35.6233364","139.7291988"
"大崎センタービル店","東京都品川区大崎1丁目5番1号","35.621269","139.7284053"
"大手町パークビルディング店","東京都千代田区大手町一丁目1番1号 大手町パークビルディングB1F","35.6867108","139.7626473"
"大泉学園店","東京都練馬区東大泉2-34-1 オズスタジオシティ1F","35.7529981","139.5947772"
"大塚店","東京都豊島区南大塚3-53-11 今井三菱ビル1F","35.7305198","139.7288396"
"淡路町店","東京都千代田区神田淡路町1-1-1","35.6955363","139.7670109"
"池尻大橋店","東京都世田谷区池尻3-2-3 ハピネス5ビル","35.6506121","139.683899"
"池袋サンシャインシティアルパ店","東京都豊島区東池袋3-1-2 サンシャインアルパ内1階","35.7290906","139.7186803"
"築地聖ルカ通り店","東京都中央区築地3丁目6番","35.6673593","139.7739725"
"竹橋店","東京都千代田区神田錦町3-19 ヒロセ第2ビル","35.69189600000001","139.7606734"
"朝日新聞東京本社ビル店","東京都中央区築地5-3-2 朝日新聞東京本社ビル2Fコンコース内","35.6642233","139.7666175"
"鉄鋼ビル店","東京都千代田区丸の内1丁目8番2号 鉄鋼ビルB1F-1F","35.68267","139.770035"
"田町グランパーク店","東京都港区芝浦3-4-1 グランパークタワー1F","35.6436454","139.745484"
"Ｅｍｉｏ東久留米店","東京都東久留米市東本町 1-8","35.7607724","139.5338137"
"Emio練馬高野台店","東京都練馬区高野台1-7-27 Emio練馬高野台2F","35.740165","139.6176262"
"ＩＢＭ箱崎店","東京都中央区日本橋箱崎町19-21 IBM箱崎ビル1F","35.6791594","139.7868759"
"ＭＩＮＡＮＯ分倍河原店","東京都府中市片町3-22-26","35.6670374","139.4695373"
"ＮＢＦ豊洲店","東京都江東区豊洲5-6-52","35.6505891","139.7992764"
"ｎｏｎｏｗａ西国分寺店","東京都国分寺市西恋ヶ窪2-1-18","35.6998138","139.4657165"
"nonowa武蔵境店","東京都武蔵野市境南町2丁目1番35号","35.701127","139.5411325"
"OEDO日本橋店","東京都中央区日本橋二丁目7-1東京日本橋タワーB1F","35.6818052","139.7741444"
"ＰＣＰ丸の内店","東京都千代田区丸の内1-11-1 パシフィックセンチュリープレイス丸の内B1","35.6780522","139.7668531"
"with U ルミネ池袋店","東京都豊島区西池袋1-11-1ルミネ池袋6F","35.728845","139.709307"
"アトレヴィ巣鴨店","東京都豊島区巣鴨1丁目16番8号 アトレヴィ巣鴨4F","35.7335708","139.7393103"
"アトレ吉祥寺店","東京都武蔵野市吉祥寺南町1丁目1番24号　アトレ吉祥寺東館2F","35.7031145","139.5788053"
"アトレ秋葉原店","東京都千代田区神田花岡町1-9 アトレ秋葉原2 2F","35.698358","139.774777"
"アトレ大森店","東京都大田区大森北1-6-16　アトレ大森１Ｆ","35.5884005","139.7282054"
"アトレ目黒店","東京都品川区上大崎3-1-1 アトレ目黒2F","35.633358","139.71573"
"イーホテル東新宿店","東京都新宿区歌舞伎町2-3-15 　イーホテル東新宿1階","35.6977155","139.707133"
"イオンスタイル板橋前野町店","東京都板橋区前野町4丁目21番22号イオンスタイル板橋前野町店1F","35.7712215","139.6917478"
"エキュート立川店","東京都立川市柴崎町3-1-1 エキュート立川3F","35.697558","139.413356"
"エビススバルビル店","東京都渋谷区恵比寿1-20-8 エビススバルビル1F","35.6469854","139.7134582"
"お台場デックス店","東京都港区台場1-6-1 デックス東京ビーチ1F","35.6290929","139.775913"
"がん研有明病院店","東京都江東区有明3-8-31 がん研有明病院内","35.6344018","139.7949996"
"グランエミオ大泉学園店","東京都練馬区東大泉一丁目28-1グランエミオ大泉学園2F","35.749628","139.587385"
"グランデュオ立川店","東京都立川市柴崎町3-2-1 6F","35.6973884","139.414818"
"グリナード永山店","東京都多摩市永山1-4 グリナード永山1号館4F","35.6294191","139.4484103"
"セレオ国分寺店","東京都国分寺市南町3-20-3　セレオ国分寺2F","35.699792","139.480346"
"セレスティン芝三井ビルディング店","東京都港区芝3-23-1 セレスティン芝三井ビルディング1F","35.6510572","139.7487576"
"ソニーシティ内店","東京都港区港南1－7－1　ソニーシティ1F","35.631165","139.743612"
"ダイバーシティ東京プラザ店","東京都江東区青海1丁目1番地1号　ダイバーシティ東京プラザ 3F","35.6248414","139.7757086"
"デンマーク・ザ・ロイヤルカフェテラス 東京スクエアガーデン店","東京都中央区京橋3丁目1-1 東京スクエアガーデンB1F","35.676097","139.768709"
"トレードピアお台場店","東京都港区台場2-3-1 トレードピアお台場1F","35.62792650000001","139.7764703"
"ニューオータニガーデンコート店","東京都千代田区紀尾井町4-1 ガーデンコート2F","35.6792602","139.7357528"
"ビリーヴ大森店","東京都品川区南大井6丁目25-3 ビリーヴ大森1F","35.5890649","139.7309947"
"ブルースカイタリーズコーヒー羽田空港第一ターミナル店","東京都大田区羽田空港3-3-2第一旅客ターミナルビルP.O.BOX26","35.5491133","139.7838439"
"フレスポ府中店","東京都府中市西原町1-6-2 蔦屋書店 フレスポ府中店内","35.6823235","139.4606338"
"マロニエゲート銀座2店","東京都中央区銀座3-2-1　マロニエゲート銀座2 B2F","35.673741","139.765233"
"みなみ野店","東京都八王子市みなみ野1-7-7","35.632494","139.3273252"
"阿佐ヶ谷ダイヤ街店","東京都杉並区阿佐ヶ谷南3-55-1　阿佐ヶ谷ダイヤ街2F","35.7049797","139.6355408"
"綾瀬駅前店","東京都足立区綾瀬3-1-2 東急ストア内","35.7622747","139.8251382"
"歌舞伎座店","東京都中央区銀座4-12-15 GINZAKABUKIZA　B2F","35.6694671","139.7678232"
"海岸竹芝通り店","東京都港区海岸1-4-8 キヤノン電子ビル","35.6559744","139.7592781"
"蒲田アロマスクエア店","東京都大田区蒲田5-37-1 ニッセイ アロマスクエア1F","35.5609811","139.7183444"
"丸の内CAFE 会店","東京都千代田区丸の内2丁目7番2号","35.67984089999999","139.7650921"
"丸の内パレスビル店","東京都千代田区丸の内1-1-1　パレスビル地下1F","35.685381","139.761559"
"丸の内永楽ビルディング店","東京都千代田区丸の内1-4-1 丸の内永楽ビルディングB1F","35.6846661","139.7647656"
"丸の内東京海上日動ビル店","東京都千代田区丸の内1-2-1 東京海上ビルディング新館1F","35.6831032","139.7633711"
"砧世田谷通り店","東京都世田谷区砧1-15-3 GU世田谷砧店1F","35.636462","139.619053"
"京王高幡SC店","東京都日野市高幡116-10","35.6620418","139.4133917"
"京王多摩センター駅店","東京都多摩市落合1-10-1","35.6253076","139.4241064"
"京急蒲田駅店","東京都大田区蒲田4-50-11　ウィングキッチン京急蒲田１Ｆ","35.5606709","139.7236782"
"錦糸町アルカウエスト店","東京都墨田区錦糸1-2-4 アルカウエスト2F","35.6971549","139.8095509"
"錦糸町オリナスタワー店","東京都墨田区太平4-1-3 オリナスタワー 1F","35.7007502","139.8153059"
"錦糸町オリナスモール店","東京都墨田区太平4-1-2 錦糸町オリナスモール1階","35.70088610000001","139.8158767"
"錦糸町テルミナ店","東京都墨田区江東橋3丁目14番5号 テルミナ4F","35.696405","139.814334"
"金町駅南口店","東京都葛飾区金町6-2-1","35.7678131","139.8712874"
"銀座三越コミュ店","東京都中央区銀座4-6-16 銀座三越ル・プレイス内3階","35.6713225","139.7658367"
"銀座六丁目昭和通り店","東京都中央区銀座6-14-5 銀座ホウライビル1F","35.6687395","139.7656423"
"隅田公園店","東京都台東区花川戸1-1-31　隅田公園内","35.7134182","139.8012615"
"恵比寿東口店","東京都渋谷区恵比寿1-11-1 大慧ビル1F","35.6467173","139.7112988"
"慶大東門前店","東京都港区芝5-1-13 三ツ輪三田ビル1F","35.649989","139.7450649"
"経堂コルティ店","東京都世田谷区経堂2-1-33　経堂コルティ2F","35.651505","139.635762"
"月島駅前店","東京都中央区月島1-5-1","35.6642654","139.7836803"
"虎ノ門ＪＴビル店","東京都港区虎ノ門2-2-1 虎ノ門 JTビル1F","35.669455","139.745672"
"五反田西店","東京都品川区西五反田7-9-4 ウスイビル1F","35.623546","139.720584"
"五反田東店","東京都品川区東五反田2-3-2 タイセイビル1階","35.6255064","139.7260201"
"好仁会東大病院店","東京都文京区本郷7-3-1東大病院内","35.710959","139.765652"
"江古田店","東京都練馬区旭丘1丁目78番3号","35.7372484","139.6734001"
"麹町店","東京都千代田区麹町3-3 丸増ビル1F","35.68367509999999","139.7384186"
"国立国際医療研究センター店","東京都新宿区戸山1-21-1国立国際医療研究センター内1F","35.70173020000001","139.7165838"
"国立精神・神経医療研究センター店","東京都小平市小川東町4-1-1　1Ｆ","35.7373263","139.475253"
"国立店","東京都国立市中1-10-1","35.6980998","139.4454042"
"済生会中央病院店","東京都港区三田1-4-17 新棟1階","35.654028","139.7441382"
"桜新町店","東京都世田谷区桜新町2-8-2","35.63191","139.6449319"
"三井アウトレットパーク多摩南大沢店","東京都八王子市南大沢1-600 三井アウトレットパーク 1F","35.614215","139.37738"
"三井住友海上駿河台ビル店","東京都千代田区神田駿河台3丁目9番地","35.696625","139.7643277"
"三鷹駅南口店","東京都三鷹市下連雀3-46-6","35.7024525","139.5604696"
"三田国際ビル店","東京都港区三田1-4-28 三田国際ビルB1F","35.6527105","139.7444053"
"四ツ谷東口店","東京都千代田区麹町5-3 第7秋山ビルディング","35.6844219","139.7333096"
"市ヶ谷店","東京都千代田区九段南4-6-10 近清堂ビル1F","35.69183090000001","139.7393965"
"汐留シティセンター店","東京都港区東新橋一丁目5番2号　汐留シティセンターB2F","35.66537","139.7611124"
"汐留住友ビル店","東京都港区東新橋一丁目9番2号 汐留住友ビル2F","35.662218","139.7600653"
"芝ＮＢＦタワー店","東京都港区芝大門1-1-30 芝NBFタワー1F","35.659504","139.753218"
"芝浦海岸通り店","東京都港区芝浦4-13-23 MS芝浦ビル1F","35.6402396","139.7480612"
"芝公園店","東京都港区芝公園2-4-1 芝パークビル１Ｆ","35.6556229","139.7522709"
"芝二丁目店","東京都港区芝2-3-3 芝二丁目大門ビルディング1F","35.6523642","139.7536284"
"秋葉原ＵＤＸ店","東京都千代田区外神田4-14-1 秋葉原UDX1","35.699937","139.7722"
"渋谷ファイヤー通り店","東京都渋谷区神南1-12-14","35.6628326","139.7005648"
"渋谷東急本店前店","東京都渋谷区道玄坂2-23-12 フォンティスビル1F","35.6599597","139.6959636"
"順天堂大学練馬病院店","東京都練馬区高野台3-1-10順天堂大学医学部附属練馬病院内1F","35.7420487","139.6153129"
"小田急マルシェ町田店","東京都町田市原町田6-1-1　小田急マルシェ町田　2F","35.5429208","139.4444359"
"昭和大学江東豊洲病院店","東京都江東区豊洲5-1","35.64989190000001","139.7957018"
"昭和大学病院店","東京都品川区旗の台1-5-8 中央棟１F","35.6084331","139.7035027"
"上野の森さくらテラス店","東京都台東区上野公園1-54","35.7121291","139.7744987"
"上野御徒町店","東京都台東区上野5-25-11","35.7075213","139.775585"
"上野広小路店","東京都台東区上野1-20-11 上野鈴乃屋本店ビル1F","35.7074757","139.7726361"
"新宿ＮＳビルアネックス店","東京都新宿区西新宿2-4-1 新宿ＮＳビル1F","35.6879841","139.6935305"
"新宿ＮＳビル店","東京都新宿区西新宿2-4-1 新宿NSビル1F","35.6879841","139.6935305"
"新宿イーストサイドスクエアアトリウム店","東京都新宿区新宿6丁目27番30号 新宿イーストサイドスクエア 1Ｆ","35.6966715","139.7086755"
"新宿イーストサイドスクエア店","東京都新宿区新宿6丁目27番30号 新宿イーストサイドスクエアＢ１Ｆ","35.6966715","139.7086755"
"新宿エルタワー店","東京都新宿区西新宿1丁目6番1号 新宿エルタワーB2F","35.6921374","139.6972612"
"新宿オークタワー店","東京都新宿区西新宿6-8-1 住友不動産新宿オークタワー内","35.6941253","139.6904861"
"新宿コクーンタワー店","東京都新宿区西新宿１－７－３　コクーンタワー1F","35.6915291","139.6968724"
"新宿スクエアタワー店","東京都新宿区西新宿6-22-1 新宿スクエアタワー1F","35.6941735","139.6877075"
"新宿センタービル店","東京都新宿区西新宿1-25-1 新宿センタービル","35.691726","139.695525"
"新宿御苑駅前店","東京都新宿区新宿1-6-5 ソノリティ新宿御苑1F","35.6885179","139.7101506"
"新宿若松河田店","東京都新宿区若松町28-7　ダイヤピア212","35.699517","139.7184442"
"新宿小滝橋通り店","東京都新宿区西新宿7-8-13 栗原ビル1F","35.6954053","139.6982172"
"新宿二丁目店","東京都新宿区新宿2-5-9","35.6896685","139.7069186"
"神楽坂店","東京都新宿区箪笥町22番地","35.7003152","139.7335073"
"神谷町プライムプレイス店","東京都港区虎ノ門4丁目1-17","35.6651253","139.7440747"
"神田橋本郷通り店","東京都千代田区内神田1-2-8","35.6907229","139.7648473"
"神保町三井ビルディング店","東京都千代田区神保町1-105","35.6942168","139.7602586"
"神保町店","東京都千代田区神田神保町2-7 神保町NKビル","35.6955408","139.7558842"
"成瀬駅前店","東京都町田市南成瀬1-1-1 りそな銀行成瀬支店内","35.5353675","139.473404"
"成増ダイエー店","東京都板橋区成増2-21-2 ダイエー成増１Ｆ","35.778123","139.630477"
"西新宿駅前店","東京都新宿区西新宿 8-5-1","35.6946842","139.6930227"
"青山一丁目店","東京都港区南青山一丁目2番6号","35.6721128","139.725265"
"石神井公園店","東京都練馬区石神井町2-14-31 ビオラ1F","35.7436886","139.6075034"
"赤坂ガーデンシティ店","東京都港区赤坂4-15-1 赤坂ガーデンシティ１F","35.6741663","139.7314337"
"赤坂店","東京都港区赤坂3-13-10","35.6730353","139.7373"
"泉岳寺店","東京都港区三田3-10-1 アーバンネット三田1F","35.6405123","139.7405341"
"浅草新仲見世店","東京都台東区浅草1丁目19-8","35.7117075","139.7969721"
"早大理工店","東京都新宿区大久保 3-4-1","35.7060694","139.7068095"
"巣鴨地蔵通り店","東京都豊島区巣鴨3丁目18-18","35.7352561","139.7354005"
"代々木駅北口店","東京都渋谷区代々木1-36-1 オダカビル1F","35.6840879","139.7012289"
"大丸 東京店","東京都千代田区丸の内1-9-1 大丸東京店４F","35.6814742","139.7689286"
"大崎オーバルコート店","東京都品川区東五反田2-17-1 オーバルコート大崎 マークウエスト1F","35.6233364","139.7291988"
"大崎センタービル店","東京都品川区大崎1丁目5番1号","35.621269","139.7284053"
"大手町パークビルディング店","東京都千代田区大手町一丁目1番1号 大手町パークビルディングB1F","35.6867108","139.7626473"
"大泉学園店","東京都練馬区東大泉2-34-1 オズスタジオシティ1F","35.7529981","139.5947772"
"大塚店","東京都豊島区南大塚3-53-11 今井三菱ビル1F","35.7305198","139.7288396"
"淡路町店","東京都千代田区神田淡路町1-1-1","35.6955363","139.7670109"
"池尻大橋店","東京都世田谷区池尻3-2-3 ハピネス5ビル","35.6506121","139.683899"
"池袋サンシャインシティアルパ店","東京都豊島区東池袋3-1-2 サンシャインアルパ内1階","35.7290906","139.7186803"
"築地聖ルカ通り店","東京都中央区築地3丁目6番","35.6673593","139.7739725"
"竹橋店","東京都千代田区神田錦町3-19 ヒロセ第2ビル","35.69189600000001","139.7606734"
"朝日新聞東京本社ビル店","東京都中央区築地5-3-2 朝日新聞東京本社ビル2Fコンコース内","35.6642233","139.7666175"
"鉄鋼ビル店","東京都千代田区丸の内1丁目8番2号 鉄鋼ビルB1F-1F","35.68267","139.770035"
"田町グランパーク店","東京都港区芝浦3-4-1 グランパークタワー1F","35.6436454","139.745484"
"田町駅前店","東京都港区芝五丁目32番12号","35.647172","139.7472749"
"田町森永プラザビル店","東京都港区芝五丁目33番1号 森永プラザビル別館2F","35.646212","139.7476797"
"都庁店","東京都新宿区西新宿2-8-1 東京都庁第二本庁舎2F","35.6896342","139.6921007"
"東急プラザ蒲田店","東京都大田区西蒲田7-69-1東急プラザ蒲田3F","35.5618539","139.7152806"
"東急プラザ赤坂店","東京都千代田区永田町2-14-3","35.6773487","139.7374637"
"東京スカイツリータウン・ソラマチ店","東京都墨田区押上1-1-2　東京スカイツリータウン・ソラマチ３Ｆ","35.710343","139.811603"
"東京ダイヤビルディング店","東京都中央区新川1-28-38 東京ダイヤビルディング1号館1F","35.6751756","139.7844991"
"東京ドームシティ店","東京都文京区後楽1丁目3番61号 東京ドームシティ クリスタルアベニュー","35.7044388","139.7542317"
"東京ビッグサイト店","東京都江東区有明3-11-1","35.6300469","139.7937527"
"東京駅八重洲地下街店","東京都中央区八重洲2丁目1番","35.6798688","139.7696085"
"Ｅｍｉｏ東久留米店","東京都東久留米市東本町 1-8","35.7607724","139.5338137"
"Emio練馬高野台店","東京都練馬区高野台1-7-27 Emio練馬高野台2F","35.740165","139.6176262"
"ＩＢＭ箱崎店","東京都中央区日本橋箱崎町19-21 IBM箱崎ビル1F","35.6791594","139.7868759"
"ＭＩＮＡＮＯ分倍河原店","東京都府中市片町3-22-26","35.6670374","139.4695373"
"ＮＢＦ豊洲店","東京都江東区豊洲5-6-52","35.6505891","139.7992764"
"ｎｏｎｏｗａ西国分寺店","東京都国分寺市西恋ヶ窪2-1-18","35.6998138","139.4657165"
"nonowa武蔵境店","東京都武蔵野市境南町2丁目1番35号","35.701127","139.5411325"
"OEDO日本橋店","東京都中央区日本橋二丁目7-1東京日本橋タワーB1F","35.6818052","139.7741444"
"ＰＣＰ丸の内店","東京都千代田区丸の内1-11-1 パシフィックセンチュリープレイス丸の内B1","35.6780522","139.7668531"
"with U ルミネ池袋店","東京都豊島区西池袋1-11-1ルミネ池袋6F","35.728845","139.709307"
"アトレヴィ巣鴨店","東京都豊島区巣鴨1丁目16番8号 アトレヴィ巣鴨4F","35.7335708","139.7393103"
"アトレ吉祥寺店","東京都武蔵野市吉祥寺南町1丁目1番24号　アトレ吉祥寺東館2F","35.7031145","139.5788053"
"アトレ秋葉原店","東京都千代田区神田花岡町1-9 アトレ秋葉原2 2F","35.698358","139.774777"
"アトレ大森店","東京都大田区大森北1-6-16　アトレ大森１Ｆ","35.5884005","139.7282054"
"アトレ目黒店","東京都品川区上大崎3-1-1 アトレ目黒2F","35.633358","139.71573"
"イーホテル東新宿店","東京都新宿区歌舞伎町2-3-15 　イーホテル東新宿1階","35.6977155","139.707133"
"イオンスタイル板橋前野町店","東京都板橋区前野町4丁目21番22号イオンスタイル板橋前野町店1F","35.7712215","139.6917478"
"エキュート立川店","東京都立川市柴崎町3-1-1 エキュート立川3F","35.697558","139.413356"
"エビススバルビル店","東京都渋谷区恵比寿1-20-8 エビススバルビル1F","35.6469854","139.7134582"
"お台場デックス店","東京都港区台場1-6-1 デックス東京ビーチ1F","35.6290929","139.775913"
"がん研有明病院店","東京都江東区有明3-8-31 がん研有明病院内","35.6344018","139.7949996"
"グランエミオ大泉学園店","東京都練馬区東大泉一丁目28-1グランエミオ大泉学園2F","35.749628","139.587385"
"グランデュオ立川店","東京都立川市柴崎町3-2-1 6F","35.6973884","139.414818"
"グリナード永山店","東京都多摩市永山1-4 グリナード永山1号館4F","35.6294191","139.4484103"
"セレオ国分寺店","東京都国分寺市南町3-20-3　セレオ国分寺2F","35.699792","139.480346"
"セレスティン芝三井ビルディング店","東京都港区芝3-23-1 セレスティン芝三井ビルディング1F","35.6510572","139.7487576"
"ソニーシティ内店","東京都港区港南1－7－1　ソニーシティ1F","35.631165","139.743612"
"ダイバーシティ東京プラザ店","東京都江東区青海1丁目1番地1号　ダイバーシティ東京プラザ 3F","35.6248414","139.7757086"
"デンマーク・ザ・ロイヤルカフェテラス 東京スクエアガーデン店","東京都中央区京橋3丁目1-1 東京スクエアガーデンB1F","35.676097","139.768709"
"トレードピアお台場店","東京都港区台場2-3-1 トレードピアお台場1F","35.62792650000001","139.7764703"
"ニューオータニガーデンコート店","東京都千代田区紀尾井町4-1 ガーデンコート2F","35.6792602","139.7357528"
"ビリーヴ大森店","東京都品川区南大井6丁目25-3 ビリーヴ大森1F","35.5890649","139.7309947"
"ブルースカイタリーズコーヒー羽田空港第一ターミナル店","東京都大田区羽田空港3-3-2第一旅客ターミナルビルP.O.BOX26","35.5491133","139.7838439"
"フレスポ府中店","東京都府中市西原町1-6-2 蔦屋書店 フレスポ府中店内","35.6823235","139.4606338"
"マロニエゲート銀座2店","東京都中央区銀座3-2-1　マロニエゲート銀座2 B2F","35.673741","139.765233"
"みなみ野店","東京都八王子市みなみ野1-7-7","35.632494","139.3273252"
"阿佐ヶ谷ダイヤ街店","東京都杉並区阿佐ヶ谷南3-55-1　阿佐ヶ谷ダイヤ街2F","35.7049797","139.6355408"
"綾瀬駅前店","東京都足立区綾瀬3-1-2 東急ストア内","35.7622747","139.8251382"
"歌舞伎座店","東京都中央区銀座4-12-15 GINZAKABUKIZA　B2F","35.6694671","139.7678232"
"海岸竹芝通り店","東京都港区海岸1-4-8 キヤノン電子ビル","35.6559744","139.7592781"
"蒲田アロマスクエア店","東京都大田区蒲田5-37-1 ニッセイ アロマスクエア1F","35.5609811","139.7183444"
"丸の内CAFE 会店","東京都千代田区丸の内2丁目7番2号","35.67984089999999","139.7650921"
"丸の内パレスビル店","東京都千代田区丸の内1-1-1　パレスビル地下1F","35.685381","139.761559"
"丸の内永楽ビルディング店","東京都千代田区丸の内1-4-1 丸の内永楽ビルディングB1F","35.6846661","139.7647656"
"丸の内東京海上日動ビル店","東京都千代田区丸の内1-2-1 東京海上ビルディング新館1F","35.6831032","139.7633711"
"砧世田谷通り店","東京都世田谷区砧1-15-3 GU世田谷砧店1F","35.636462","139.619053"
"京王高幡SC店","東京都日野市高幡116-10","35.6620418","139.4133917"
"京王多摩センター駅店","東京都多摩市落合1-10-1","35.6253076","139.4241064"
"京急蒲田駅店","東京都大田区蒲田4-50-11　ウィングキッチン京急蒲田１Ｆ","35.5606709","139.7236782"
"錦糸町アルカウエスト店","東京都墨田区錦糸1-2-4 アルカウエスト2F","35.6971549","139.8095509"
"錦糸町オリナスタワー店","東京都墨田区太平4-1-3 オリナスタワー 1F","35.7007502","139.8153059"
"錦糸町オリナスモール店","東京都墨田区太平4-1-2 錦糸町オリナスモール1階","35.70088610000001","139.8158767"
"錦糸町テルミナ店","東京都墨田区江東橋3丁目14番5号 テルミナ4F","35.696405","139.814334"
"金町駅南口店","東京都葛飾区金町6-2-1","35.7678131","139.8712874"
"銀座三越コミュ店","東京都中央区銀座4-6-16 銀座三越ル・プレイス内3階","35.6713225","139.7658367"
"銀座六丁目昭和通り店","東京都中央区銀座6-14-5 銀座ホウライビル1F","35.6687395","139.7656423"
"隅田公園店","東京都台東区花川戸1-1-31　隅田公園内","35.7134182","139.8012615"
"恵比寿東口店","東京都渋谷区恵比寿1-11-1 大慧ビル1F","35.6467173","139.7112988"
"慶大東門前店","東京都港区芝5-1-13 三ツ輪三田ビル1F","35.649989","139.7450649"
"経堂コルティ店","東京都世田谷区経堂2-1-33　経堂コルティ2F","35.651505","139.635762"
"月島駅前店","東京都中央区月島1-5-1","35.6642654","139.7836803"
"虎ノ門ＪＴビル店","東京都港区虎ノ門2-2-1 虎ノ門 JTビル1F","35.669455","139.745672"
"五反田西店","東京都品川区西五反田7-9-4 ウスイビル1F","35.623546","139.720584"
"五反田東店","東京都品川区東五反田2-3-2 タイセイビル1階","35.6255064","139.7260201"
"好仁会東大病院店","東京都文京区本郷7-3-1東大病院内","35.710959","139.765652"
"江古田店","東京都練馬区旭丘1丁目78番3号","35.7372484","139.6734001"
"麹町店","東京都千代田区麹町3-3 丸増ビル1F","35.68367509999999","139.7384186"
"国立国際医療研究センター店","東京都新宿区戸山1-21-1国立国際医療研究センター内1F","35.70173020000001","139.7165838"
"国立精神・神経医療研究センター店","東京都小平市小川東町4-1-1　1Ｆ","35.7373263","139.475253"
"国立店","東京都国立市中1-10-1","35.6980998","139.4454042"
"済生会中央病院店","東京都港区三田1-4-17 新棟1階","35.654028","139.7441382"
"桜新町店","東京都世田谷区桜新町2-8-2","35.63191","139.6449319"
"三井アウトレットパーク多摩南大沢店","東京都八王子市南大沢1-600 三井アウトレットパーク 1F","35.614215","139.37738"
"三井住友海上駿河台ビル店","東京都千代田区神田駿河台3丁目9番地","35.696625","139.7643277"
"三鷹駅南口店","東京都三鷹市下連雀3-46-6","35.7024525","139.5604696"
"三田国際ビル店","東京都港区三田1-4-28 三田国際ビルB1F","35.6527105","139.7444053"
"四ツ谷東口店","東京都千代田区麹町5-3 第7秋山ビルディング","35.6844219","139.7333096"
"市ヶ谷店","東京都千代田区九段南4-6-10 近清堂ビル1F","35.69183090000001","139.7393965"
"汐留シティセンター店","東京都港区東新橋一丁目5番2号　汐留シティセンターB2F","35.66537","139.7611124"
"汐留住友ビル店","東京都港区東新橋一丁目9番2号 汐留住友ビル2F","35.662218","139.7600653"
"芝ＮＢＦタワー店","東京都港区芝大門1-1-30 芝NBFタワー1F","35.659504","139.753218"
"芝浦海岸通り店","東京都港区芝浦4-13-23 MS芝浦ビル1F","35.6402396","139.7480612"
"芝公園店","東京都港区芝公園2-4-1 芝パークビル１Ｆ","35.6556229","139.7522709"
"芝二丁目店","東京都港区芝2-3-3 芝二丁目大門ビルディング1F","35.6523642","139.7536284"
"秋葉原ＵＤＸ店","東京都千代田区外神田4-14-1 秋葉原UDX1","35.699937","139.7722"
"渋谷ファイヤー通り店","東京都渋谷区神南1-12-14","35.6628326","139.7005648"
"渋谷東急本店前店","東京都渋谷区道玄坂2-23-12 フォンティスビル1F","35.6599597","139.6959636"
"順天堂大学練馬病院店","東京都練馬区高野台3-1-10順天堂大学医学部附属練馬病院内1F","35.7420487","139.6153129"
"小田急マルシェ町田店","東京都町田市原町田6-1-1　小田急マルシェ町田　2F","35.5429208","139.4444359"
"昭和大学江東豊洲病院店","東京都江東区豊洲5-1","35.64989190000001","139.7957018"
"昭和大学病院店","東京都品川区旗の台1-5-8 中央棟１F","35.6084331","139.7035027"
"上野の森さくらテラス店","東京都台東区上野公園1-54","35.7121291","139.7744987"
"上野御徒町店","東京都台東区上野5-25-11","35.7075213","139.775585"
"上野広小路店","東京都台東区上野1-20-11 上野鈴乃屋本店ビル1F","35.7074757","139.7726361"
"新宿ＮＳビルアネックス店","東京都新宿区西新宿2-4-1 新宿ＮＳビル1F","35.6879841","139.6935305"
"新宿ＮＳビル店","東京都新宿区西新宿2-4-1 新宿NSビル1F","35.6879841","139.6935305"
"新宿イーストサイドスクエアアトリウム店","東京都新宿区新宿6丁目27番30号 新宿イーストサイドスクエア 1Ｆ","35.6966715","139.7086755"
"新宿イーストサイドスクエア店","東京都新宿区新宿6丁目27番30号 新宿イーストサイドスクエアＢ１Ｆ","35.6966715","139.7086755"
"新宿エルタワー店","東京都新宿区西新宿1丁目6番1号 新宿エルタワーB2F","35.6921374","139.6972612"
"新宿オークタワー店","東京都新宿区西新宿6-8-1 住友不動産新宿オークタワー内","35.6941253","139.6904861"
"新宿コクーンタワー店","東京都新宿区西新宿１－７－３　コクーンタワー1F","35.6915291","139.6968724"
"新宿スクエアタワー店","東京都新宿区西新宿6-22-1 新宿スクエアタワー1F","35.6941735","139.6877075"
"新宿センタービル店","東京都新宿区西新宿1-25-1 新宿センタービル","35.691726","139.695525"
"新宿御苑駅前店","東京都新宿区新宿1-6-5 ソノリティ新宿御苑1F","35.6885179","139.7101506"
"新宿若松河田店","東京都新宿区若松町28-7　ダイヤピア212","35.699517","139.7184442"
"新宿小滝橋通り店","東京都新宿区西新宿7-8-13 栗原ビル1F","35.6954053","139.6982172"
"新宿二丁目店","東京都新宿区新宿2-5-9","35.6896685","139.7069186"
"神楽坂店","東京都新宿区箪笥町22番地","35.7003152","139.7335073"
"神谷町プライムプレイス店","東京都港区虎ノ門4丁目1-17","35.6651253","139.7440747"
"神田橋本郷通り店","東京都千代田区内神田1-2-8","35.6907229","139.7648473"
"神保町三井ビルディング店","東京都千代田区神保町1-105","35.6942168","139.7602586"
"神保町店","東京都千代田区神田神保町2-7 神保町NKビル","35.6955408","139.7558842"
"成瀬駅前店","東京都町田市南成瀬1-1-1 りそな銀行成瀬支店内","35.5353675","139.473404"
"成増ダイエー店","東京都板橋区成増2-21-2 ダイエー成増１Ｆ","35.778123","139.630477"
"西新宿駅前店","東京都新宿区西新宿 8-5-1","35.6946842","139.6930227"
"青山一丁目店","東京都港区南青山一丁目2番6号","35.6721128","139.725265"
"石神井公園店","東京都練馬区石神井町2-14-31 ビオラ1F","35.7436886","139.6075034"
"赤坂ガーデンシティ店","東京都港区赤坂4-15-1 赤坂ガーデンシティ１F","35.6741663","139.7314337"
"赤坂店","東京都港区赤坂3-13-10","35.6730353","139.7373"
"泉岳寺店","東京都港区三田3-10-1 アーバンネット三田1F","35.6405123","139.7405341"
"浅草新仲見世店","東京都台東区浅草1丁目19-8","35.7117075","139.7969721"
"早大理工店","東京都新宿区大久保 3-4-1","35.7060694","139.7068095"
"巣鴨地蔵通り店","東京都豊島区巣鴨3丁目18-18","35.7352561","139.7354005"
"代々木駅北口店","東京都渋谷区代々木1-36-1 オダカビル1F","35.6840879","139.7012289"
"大丸 東京店","東京都千代田区丸の内1-9-1 大丸東京店４F","35.6814742","139.7689286"
"大崎オーバルコート店","東京都品川区東五反田2-17-1 オーバルコート大崎 マークウエスト1F","35.6233364","139.7291988"
"大崎センタービル店","東京都品川区大崎1丁目5番1号","35.621269","139.7284053"
"大手町パークビルディング店","東京都千代田区大手町一丁目1番1号 大手町パークビルディングB1F","35.6867108","139.7626473"
"大泉学園店","東京都練馬区東大泉2-34-1 オズスタジオシティ1F","35.7529981","139.5947772"
"大塚店","東京都豊島区南大塚3-53-11 今井三菱ビル1F","35.7305198","139.7288396"
"淡路町店","東京都千代田区神田淡路町1-1-1","35.6955363","139.7670109"
"池尻大橋店","東京都世田谷区池尻3-2-3 ハピネス5ビル","35.6506121","139.683899"
"池袋サンシャインシティアルパ店","東京都豊島区東池袋3-1-2 サンシャインアルパ内1階","35.7290906","139.7186803"
"築地聖ルカ通り店","東京都中央区築地3丁目6番","35.6673593","139.7739725"
"竹橋店","東京都千代田区神田錦町3-19 ヒロセ第2ビル","35.69189600000001","139.7606734"
"朝日新聞東京本社ビル店","東京都中央区築地5-3-2 朝日新聞東京本社ビル2Fコンコース内","35.6642233","139.7666175"
"鉄鋼ビル店","東京都千代田区丸の内1丁目8番2号 鉄鋼ビルB1F-1F","35.68267","139.770035"
"田町グランパーク店","東京都港区芝浦3-4-1 グランパークタワー1F","35.6436454","139.745484"
"田町駅前店","東京都港区芝五丁目32番12号","35.647172","139.7472749"
"田町森永プラザビル店","東京都港区芝五丁目33番1号 森永プラザビル別館2F","35.646212","139.7476797"
"都庁店","東京都新宿区西新宿2-8-1 東京都庁第二本庁舎2F","35.6896342","139.6921007"
"東急プラザ蒲田店","東京都大田区西蒲田7-69-1東急プラザ蒲田3F","35.5618539","139.7152806"
"東急プラザ赤坂店","東京都千代田区永田町2-14-3","35.6773487","139.7374637"
"東京スカイツリータウン・ソラマチ店","東京都墨田区押上1-1-2　東京スカイツリータウン・ソラマチ３Ｆ","35.710343","139.811603"
"東京ダイヤビルディング店","東京都中央区新川1-28-38 東京ダイヤビルディング1号館1F","35.6751756","139.7844991"
"東京ドームシティ店","東京都文京区後楽1丁目3番61号 東京ドームシティ クリスタルアベニュー","35.7044388","139.7542317"
"東京ビッグサイト店","東京都江東区有明3-11-1","35.6300469","139.7937527"
"東京駅八重洲地下街店","東京都中央区八重洲2丁目1番","35.6798688","139.7696085"
"東京女子医科大学病院店","東京都新宿区河田町8-1 総合外来センター南エントランス","35.6984306","139.7200589"
"東銀座店","東京都中央区築地1-13-14 NBF銀座スクエア1F","35.6678174","139.7696894"
"東武曳舟店","東京都墨田区東向島二丁目27番1号","35.7177434","139.816848"
"東武浅草駅店","東京都台東区花川戸1-4-1　 東武鉄道浅草駅構内2Fコンコース内","35.7120381","139.7984747"
"東邦大森病院店","東京都大田区大森西6-11-1東邦大学医療センター大森病院1階","35.569422","139.724028"
"東陽町イースト２１店","東京都江東区東陽町6-3-2 イースト21モール1F","35.6742519","139.8156448"
"南砂二丁目永代通り店","東京都江東区南砂2-1-9　ジェイスクエア東陽町１F","35.6694597","139.8207816"
"日テレプラザ店","東京都港区東新橋1-6-1 日本テレビタワーB2F","35.6647125","139.7602521"
"日比谷セントラルビル店","東京都港区西新橋1-2-9 日比谷セントラルビル内","35.669629","139.754552"
"日暮里店","東京都荒川区西日暮里2-25-1-110","35.7295938","139.771487"
"Ｅｍｉｏ東久留米店","東京都東久留米市東本町 1-8","35.7607724","139.5338137"
"Emio練馬高野台店","東京都練馬区高野台1-7-27 Emio練馬高野台2F","35.740165","139.6176262"
"ＩＢＭ箱崎店","東京都中央区日本橋箱崎町19-21 IBM箱崎ビル1F","35.6791594","139.7868759"
"ＭＩＮＡＮＯ分倍河原店","東京都府中市片町3-22-26","35.6670374","139.4695373"
"ＮＢＦ豊洲店","東京都江東区豊洲5-6-52","35.6505891","139.7992764"
"ｎｏｎｏｗａ西国分寺店","東京都国分寺市西恋ヶ窪2-1-18","35.6998138","139.4657165"
"nonowa武蔵境店","東京都武蔵野市境南町2丁目1番35号","35.701127","139.5411325"
"OEDO日本橋店","東京都中央区日本橋二丁目7-1東京日本橋タワーB1F","35.6818052","139.7741444"
"ＰＣＰ丸の内店","東京都千代田区丸の内1-11-1 パシフィックセンチュリープレイス丸の内B1","35.6780522","139.7668531"
"with U ルミネ池袋店","東京都豊島区西池袋1-11-1ルミネ池袋6F","35.728845","139.709307"
"アトレヴィ巣鴨店","東京都豊島区巣鴨1丁目16番8号 アトレヴィ巣鴨4F","35.7335708","139.7393103"
"アトレ吉祥寺店","東京都武蔵野市吉祥寺南町1丁目1番24号　アトレ吉祥寺東館2F","35.7031145","139.5788053"
"アトレ秋葉原店","東京都千代田区神田花岡町1-9 アトレ秋葉原2 2F","35.698358","139.774777"
"アトレ大森店","東京都大田区大森北1-6-16　アトレ大森１Ｆ","35.5884005","139.7282054"
"アトレ目黒店","東京都品川区上大崎3-1-1 アトレ目黒2F","35.633358","139.71573"
"イーホテル東新宿店","東京都新宿区歌舞伎町2-3-15 　イーホテル東新宿1階","35.6977155","139.707133"
"イオンスタイル板橋前野町店","東京都板橋区前野町4丁目21番22号イオンスタイル板橋前野町店1F","35.7712215","139.6917478"
"エキュート立川店","東京都立川市柴崎町3-1-1 エキュート立川3F","35.697558","139.413356"
"エビススバルビル店","東京都渋谷区恵比寿1-20-8 エビススバルビル1F","35.6469854","139.7134582"
"お台場デックス店","東京都港区台場1-6-1 デックス東京ビーチ1F","35.6290929","139.775913"
"がん研有明病院店","東京都江東区有明3-8-31 がん研有明病院内","35.6344018","139.7949996"
"グランエミオ大泉学園店","東京都練馬区東大泉一丁目28-1グランエミオ大泉学園2F","35.749628","139.587385"
"グランデュオ立川店","東京都立川市柴崎町3-2-1 6F","35.6973884","139.414818"
"グリナード永山店","東京都多摩市永山1-4 グリナード永山1号館4F","35.6294191","139.4484103"
"セレオ国分寺店","東京都国分寺市南町3-20-3　セレオ国分寺2F","35.699792","139.480346"
"セレスティン芝三井ビルディング店","東京都港区芝3-23-1 セレスティン芝三井ビルディング1F","35.6510572","139.7487576"
"ソニーシティ内店","東京都港区港南1－7－1　ソニーシティ1F","35.631165","139.743612"
"ダイバーシティ東京プラザ店","東京都江東区青海1丁目1番地1号　ダイバーシティ東京プラザ 3F","35.6248414","139.7757086"
"デンマーク・ザ・ロイヤルカフェテラス 東京スクエアガーデン店","東京都中央区京橋3丁目1-1 東京スクエアガーデンB1F","35.676097","139.768709"
"トレードピアお台場店","東京都港区台場2-3-1 トレードピアお台場1F","35.62792650000001","139.7764703"
"ニューオータニガーデンコート店","東京都千代田区紀尾井町4-1 ガーデンコート2F","35.6792602","139.7357528"
"ビリーヴ大森店","東京都品川区南大井6丁目25-3 ビリーヴ大森1F","35.5890649","139.7309947"
"ブルースカイタリーズコーヒー羽田空港第一ターミナル店","東京都大田区羽田空港3-3-2第一旅客ターミナルビルP.O.BOX26","35.5491133","139.7838439"
"フレスポ府中店","東京都府中市西原町1-6-2 蔦屋書店 フレスポ府中店内","35.6823235","139.4606338"
"マロニエゲート銀座2店","東京都中央区銀座3-2-1　マロニエゲート銀座2 B2F","35.673741","139.765233"
"みなみ野店","東京都八王子市みなみ野1-7-7","35.632494","139.3273252"
"阿佐ヶ谷ダイヤ街店","東京都杉並区阿佐ヶ谷南3-55-1　阿佐ヶ谷ダイヤ街2F","35.7049797","139.6355408"
"綾瀬駅前店","東京都足立区綾瀬3-1-2 東急ストア内","35.7622747","139.8251382"
"歌舞伎座店","東京都中央区銀座4-12-15 GINZAKABUKIZA　B2F","35.6694671","139.7678232"
"海岸竹芝通り店","東京都港区海岸1-4-8 キヤノン電子ビル","35.6559744","139.7592781"
"蒲田アロマスクエア店","東京都大田区蒲田5-37-1 ニッセイ アロマスクエア1F","35.5609811","139.7183444"
"丸の内CAFE 会店","東京都千代田区丸の内2丁目7番2号","35.67984089999999","139.7650921"
"丸の内パレスビル店","東京都千代田区丸の内1-1-1　パレスビル地下1F","35.685381","139.761559"
"丸の内永楽ビルディング店","東京都千代田区丸の内1-4-1 丸の内永楽ビルディングB1F","35.6846661","139.7647656"
"丸の内東京海上日動ビル店","東京都千代田区丸の内1-2-1 東京海上ビルディング新館1F","35.6831032","139.7633711"
"砧世田谷通り店","東京都世田谷区砧1-15-3 GU世田谷砧店1F","35.636462","139.619053"
"京王高幡SC店","東京都日野市高幡116-10","35.6620418","139.4133917"
"京王多摩センター駅店","東京都多摩市落合1-10-1","35.6253076","139.4241064"
"京急蒲田駅店","東京都大田区蒲田4-50-11　ウィングキッチン京急蒲田１Ｆ","35.5606709","139.7236782"
"錦糸町アルカウエスト店","東京都墨田区錦糸1-2-4 アルカウエスト2F","35.6971549","139.8095509"
"錦糸町オリナスタワー店","東京都墨田区太平4-1-3 オリナスタワー 1F","35.7007502","139.8153059"
"錦糸町オリナスモール店","東京都墨田区太平4-1-2 錦糸町オリナスモール1階","35.70088610000001","139.8158767"
"錦糸町テルミナ店","東京都墨田区江東橋3丁目14番5号 テルミナ4F","35.696405","139.814334"
"金町駅南口店","東京都葛飾区金町6-2-1","35.7678131","139.8712874"
"銀座三越コミュ店","東京都中央区銀座4-6-16 銀座三越ル・プレイス内3階","35.6713225","139.7658367"
"銀座六丁目昭和通り店","東京都中央区銀座6-14-5 銀座ホウライビル1F","35.6687395","139.7656423"
"隅田公園店","東京都台東区花川戸1-1-31　隅田公園内","35.7134182","139.8012615"
"恵比寿東口店","東京都渋谷区恵比寿1-11-1 大慧ビル1F","35.6467173","139.7112988"
"慶大東門前店","東京都港区芝5-1-13 三ツ輪三田ビル1F","35.649989","139.7450649"
"経堂コルティ店","東京都世田谷区経堂2-1-33　経堂コルティ2F","35.651505","139.635762"
"月島駅前店","東京都中央区月島1-5-1","35.6642654","139.7836803"
"虎ノ門ＪＴビル店","東京都港区虎ノ門2-2-1 虎ノ門 JTビル1F","35.669455","139.745672"
"五反田西店","東京都品川区西五反田7-9-4 ウスイビル1F","35.623546","139.720584"
"五反田東店","東京都品川区東五反田2-3-2 タイセイビル1階","35.6255064","139.7260201"
"好仁会東大病院店","東京都文京区本郷7-3-1東大病院内","35.710959","139.765652"
"江古田店","東京都練馬区旭丘1丁目78番3号","35.7372484","139.6734001"
"麹町店","東京都千代田区麹町3-3 丸増ビル1F","35.68367509999999","139.7384186"
"国立国際医療研究センター店","東京都新宿区戸山1-21-1国立国際医療研究センター内1F","35.70173020000001","139.7165838"
"国立精神・神経医療研究センター店","東京都小平市小川東町4-1-1　1Ｆ","35.7373263","139.475253"
"国立店","東京都国立市中1-10-1","35.6980998","139.4454042"
"済生会中央病院店","東京都港区三田1-4-17 新棟1階","35.654028","139.7441382"
"桜新町店","東京都世田谷区桜新町2-8-2","35.63191","139.6449319"
"三井アウトレットパーク多摩南大沢店","東京都八王子市南大沢1-600 三井アウトレットパーク 1F","35.614215","139.37738"
"三井住友海上駿河台ビル店","東京都千代田区神田駿河台3丁目9番地","35.696625","139.7643277"
"三鷹駅南口店","東京都三鷹市下連雀3-46-6","35.7024525","139.5604696"
"三田国際ビル店","東京都港区三田1-4-28 三田国際ビルB1F","35.6527105","139.7444053"
"四ツ谷東口店","東京都千代田区麹町5-3 第7秋山ビルディング","35.6844219","139.7333096"
"市ヶ谷店","東京都千代田区九段南4-6-10 近清堂ビル1F","35.69183090000001","139.7393965"
"汐留シティセンター店","東京都港区東新橋一丁目5番2号　汐留シティセンターB2F","35.66537","139.7611124"
"汐留住友ビル店","東京都港区東新橋一丁目9番2号 汐留住友ビル2F","35.662218","139.7600653"
"芝ＮＢＦタワー店","東京都港区芝大門1-1-30 芝NBFタワー1F","35.659504","139.753218"
"芝浦海岸通り店","東京都港区芝浦4-13-23 MS芝浦ビル1F","35.6402396","139.7480612"
"芝公園店","東京都港区芝公園2-4-1 芝パークビル１Ｆ","35.6556229","139.7522709"
"芝二丁目店","東京都港区芝2-3-3 芝二丁目大門ビルディング1F","35.6523642","139.7536284"
"秋葉原ＵＤＸ店","東京都千代田区外神田4-14-1 秋葉原UDX1","35.699937","139.7722"
"渋谷ファイヤー通り店","東京都渋谷区神南1-12-14","35.6628326","139.7005648"
"渋谷東急本店前店","東京都渋谷区道玄坂2-23-12 フォンティスビル1F","35.6599597","139.6959636"
"順天堂大学練馬病院店","東京都練馬区高野台3-1-10順天堂大学医学部附属練馬病院内1F","35.7420487","139.6153129"
"小田急マルシェ町田店","東京都町田市原町田6-1-1　小田急マルシェ町田　2F","35.5429208","139.4444359"
"昭和大学江東豊洲病院店","東京都江東区豊洲5-1","35.64989190000001","139.7957018"
"昭和大学病院店","東京都品川区旗の台1-5-8 中央棟１F","35.6084331","139.7035027"
"上野の森さくらテラス店","東京都台東区上野公園1-54","35.7121291","139.7744987"
"上野御徒町店","東京都台東区上野5-25-11","35.7075213","139.775585"
"上野広小路店","東京都台東区上野1-20-11 上野鈴乃屋本店ビル1F","35.7074757","139.7726361"
"新宿ＮＳビルアネックス店","東京都新宿区西新宿2-4-1 新宿ＮＳビル1F","35.6879841","139.6935305"
"新宿ＮＳビル店","東京都新宿区西新宿2-4-1 新宿NSビル1F","35.6879841","139.6935305"
"新宿イーストサイドスクエアアトリウム店","東京都新宿区新宿6丁目27番30号 新宿イーストサイドスクエア 1Ｆ","35.6966715","139.7086755"
"新宿イーストサイドスクエア店","東京都新宿区新宿6丁目27番30号 新宿イーストサイドスクエアＢ１Ｆ","35.6966715","139.7086755"
"新宿エルタワー店","東京都新宿区西新宿1丁目6番1号 新宿エルタワーB2F","35.6921374","139.6972612"
"新宿オークタワー店","東京都新宿区西新宿6-8-1 住友不動産新宿オークタワー内","35.6941253","139.6904861"
"新宿コクーンタワー店","東京都新宿区西新宿１－７－３　コクーンタワー1F","35.6915291","139.6968724"
"新宿スクエアタワー店","東京都新宿区西新宿6-22-1 新宿スクエアタワー1F","35.6941735","139.6877075"
"新宿センタービル店","東京都新宿区西新宿1-25-1 新宿センタービル","35.691726","139.695525"
"新宿御苑駅前店","東京都新宿区新宿1-6-5 ソノリティ新宿御苑1F","35.6885179","139.7101506"
"新宿若松河田店","東京都新宿区若松町28-7　ダイヤピア212","35.699517","139.7184442"
"新宿小滝橋通り店","東京都新宿区西新宿7-8-13 栗原ビル1F","35.6954053","139.6982172"
"新宿二丁目店","東京都新宿区新宿2-5-9","35.6896685","139.7069186"
"神楽坂店","東京都新宿区箪笥町22番地","35.7003152","139.7335073"
"神谷町プライムプレイス店","東京都港区虎ノ門4丁目1-17","35.6651253","139.7440747"
"神田橋本郷通り店","東京都千代田区内神田1-2-8","35.6907229","139.7648473"
"神保町三井ビルディング店","東京都千代田区神保町1-105","35.6942168","139.7602586"
"神保町店","東京都千代田区神田神保町2-7 神保町NKビル","35.6955408","139.7558842"
"成瀬駅前店","東京都町田市南成瀬1-1-1 りそな銀行成瀬支店内","35.5353675","139.473404"
"成増ダイエー店","東京都板橋区成増2-21-2 ダイエー成増１Ｆ","35.778123","139.630477"
"西新宿駅前店","東京都新宿区西新宿 8-5-1","35.6946842","139.6930227"
"青山一丁目店","東京都港区南青山一丁目2番6号","35.6721128","139.725265"
"石神井公園店","東京都練馬区石神井町2-14-31 ビオラ1F","35.7436886","139.6075034"
"赤坂ガーデンシティ店","東京都港区赤坂4-15-1 赤坂ガーデンシティ１F","35.6741663","139.7314337"
"赤坂店","東京都港区赤坂3-13-10","35.6730353","139.7373"
"泉岳寺店","東京都港区三田3-10-1 アーバンネット三田1F","35.6405123","139.7405341"
"浅草新仲見世店","東京都台東区浅草1丁目19-8","35.7117075","139.7969721"
"早大理工店","東京都新宿区大久保 3-4-1","35.7060694","139.7068095"
"巣鴨地蔵通り店","東京都豊島区巣鴨3丁目18-18","35.7352561","139.7354005"
"代々木駅北口店","東京都渋谷区代々木1-36-1 オダカビル1F","35.6840879","139.7012289"
"大丸 東京店","東京都千代田区丸の内1-9-1 大丸東京店４F","35.6814742","139.7689286"
"大崎オーバルコート店","東京都品川区東五反田2-17-1 オーバルコート大崎 マークウエスト1F","35.6233364","139.7291988"
"大崎センタービル店","東京都品川区大崎1丁目5番1号","35.621269","139.7284053"
"大手町パークビルディング店","東京都千代田区大手町一丁目1番1号 大手町パークビルディングB1F","35.6867108","139.7626473"
"大泉学園店","東京都練馬区東大泉2-34-1 オズスタジオシティ1F","35.7529981","139.5947772"
"大塚店","東京都豊島区南大塚3-53-11 今井三菱ビル1F","35.7305198","139.7288396"
"淡路町店","東京都千代田区神田淡路町1-1-1","35.6955363","139.7670109"
"池尻大橋店","東京都世田谷区池尻3-2-3 ハピネス5ビル","35.6506121","139.683899"
"池袋サンシャインシティアルパ店","東京都豊島区東池袋3-1-2 サンシャインアルパ内1階","35.7290906","139.7186803"
"築地聖ルカ通り店","東京都中央区築地3丁目6番","35.6673593","139.7739725"
"竹橋店","東京都千代田区神田錦町3-19 ヒロセ第2ビル","35.69189600000001","139.7606734"
"朝日新聞東京本社ビル店","東京都中央区築地5-3-2 朝日新聞東京本社ビル2Fコンコース内","35.6642233","139.7666175"
"鉄鋼ビル店","東京都千代田区丸の内1丁目8番2号 鉄鋼ビルB1F-1F","35.68267","139.770035"
"田町グランパーク店","東京都港区芝浦3-4-1 グランパークタワー1F","35.6436454","139.745484"
"田町駅前店","東京都港区芝五丁目32番12号","35.647172","139.7472749"
"田町森永プラザビル店","東京都港区芝五丁目33番1号 森永プラザビル別館2F","35.646212","139.7476797"
"都庁店","東京都新宿区西新宿2-8-1 東京都庁第二本庁舎2F","35.6896342","139.6921007"
"東急プラザ蒲田店","東京都大田区西蒲田7-69-1東急プラザ蒲田3F","35.5618539","139.7152806"
"東急プラザ赤坂店","東京都千代田区永田町2-14-3","35.6773487","139.7374637"
"東京スカイツリータウン・ソラマチ店","東京都墨田区押上1-1-2　東京スカイツリータウン・ソラマチ３Ｆ","35.710343","139.811603"
"東京ダイヤビルディング店","東京都中央区新川1-28-38 東京ダイヤビルディング1号館1F","35.6751756","139.7844991"
"東京ドームシティ店","東京都文京区後楽1丁目3番61号 東京ドームシティ クリスタルアベニュー","35.7044388","139.7542317"
"東京ビッグサイト店","東京都江東区有明3-11-1","35.6300469","139.7937527"
"東京駅八重洲地下街店","東京都中央区八重洲2丁目1番","35.6798688","139.7696085"
"東京女子医科大学病院店","東京都新宿区河田町8-1 総合外来センター南エントランス","35.6984306","139.7200589"
"東銀座店","東京都中央区築地1-13-14 NBF銀座スクエア1F","35.6678174","139.7696894"
"東武曳舟店","東京都墨田区東向島二丁目27番1号","35.7177434","139.816848"
"東武浅草駅店","東京都台東区花川戸1-4-1　 東武鉄道浅草駅構内2Fコンコース内","35.7120381","139.7984747"
"東邦大森病院店","東京都大田区大森西6-11-1東邦大学医療センター大森病院1階","35.569422","139.724028"
"東陽町イースト２１店","東京都江東区東陽町6-3-2 イースト21モール1F","35.6742519","139.8156448"
"南砂二丁目永代通り店","東京都江東区南砂2-1-9　ジェイスクエア東陽町１F","35.6694597","139.8207816"
"日テレプラザ店","東京都港区東新橋1-6-1 日本テレビタワーB2F","35.6647125","139.7602521"
"日比谷セントラルビル店","東京都港区西新橋1-2-9 日比谷セントラルビル内","35.669629","139.754552"
"日暮里店","東京都荒川区西日暮里2-25-1-110","35.7295938","139.771487"
"日本橋YUITOアネックス店","東京都中央区日本橋室町2丁目4番1号　浮世小路千疋屋ビルB1F","35.687415","139.773933"
"日本橋茅場町店","東京都中央区日本橋茅場町1-6-17","35.6813717","139.7789218"
"日本橋三丁目店","東京都中央区日本橋3-5-12 日本橋MMビル","35.6790667","139.7728811"
"日本経済新聞社太陽樹店","東京都千代田区大手町1－3－7 日本経済新聞社東京本社ビル2Ｆ","35.6887598","139.7622323"
"日本赤十字社医療センター店","東京都渋谷区広尾4-1-22","35.6544397","139.717944"
"八王子アイロード店","東京都八王子市旭町13-2 1F","35.6571634","139.340637"
"飯田橋ガーデンエアタワー店","東京都千代田区飯田橋3-10-10 飯田橋ガーデンエアタワー1F","35.700455","139.750528"
"飯田橋東口店","東京都新宿区揚場町1番14号","35.7025153","139.7439344"
"表参道ヒルズ店","東京都渋谷区神宮前4-12-10　表参道ヒルズ西館Ｂ１Ｆ","35.66774270000001","139.7076069"
"品川インターシティ店","東京都港区港南2丁目15番2号品川インターシティＡ棟2F 201","35.6262656","139.742051"
"Ｅｍｉｏ東久留米店","東京都東久留米市東本町 1-8","35.7607724","139.5338137"
"Emio練馬高野台店","東京都練馬区高野台1-7-27 Emio練馬高野台2F","35.740165","139.6176262"
"ＩＢＭ箱崎店","東京都中央区日本橋箱崎町19-21 IBM箱崎ビル1F","35.6791594","139.7868759"
"ＭＩＮＡＮＯ分倍河原店","東京都府中市片町3-22-26","35.6670374","139.4695373"
"ＮＢＦ豊洲店","東京都江東区豊洲5-6-52","35.6505891","139.7992764"
"ｎｏｎｏｗａ西国分寺店","東京都国分寺市西恋ヶ窪2-1-18","35.6998138","139.4657165"
"nonowa武蔵境店","東京都武蔵野市境南町2丁目1番35号","35.701127","139.5411325"
"OEDO日本橋店","東京都中央区日本橋二丁目7-1東京日本橋タワーB1F","35.6818052","139.7741444"
"ＰＣＰ丸の内店","東京都千代田区丸の内1-11-1 パシフィックセンチュリープレイス丸の内B1","35.6780522","139.7668531"
"with U ルミネ池袋店","東京都豊島区西池袋1-11-1ルミネ池袋6F","35.728845","139.709307"
"アトレヴィ巣鴨店","東京都豊島区巣鴨1丁目16番8号 アトレヴィ巣鴨4F","35.7335708","139.7393103"
"アトレ吉祥寺店","東京都武蔵野市吉祥寺南町1丁目1番24号　アトレ吉祥寺東館2F","35.7031145","139.5788053"
"アトレ秋葉原店","東京都千代田区神田花岡町1-9 アトレ秋葉原2 2F","35.698358","139.774777"
"アトレ大森店","東京都大田区大森北1-6-16　アトレ大森１Ｆ","35.5884005","139.7282054"
"アトレ目黒店","東京都品川区上大崎3-1-1 アトレ目黒2F","35.633358","139.71573"
"イーホテル東新宿店","東京都新宿区歌舞伎町2-3-15 　イーホテル東新宿1階","35.6977155","139.707133"
"イオンスタイル板橋前野町店","東京都板橋区前野町4丁目21番22号イオンスタイル板橋前野町店1F","35.7712215","139.6917478"
"エキュート立川店","東京都立川市柴崎町3-1-1 エキュート立川3F","35.697558","139.413356"
"エビススバルビル店","東京都渋谷区恵比寿1-20-8 エビススバルビル1F","35.6469854","139.7134582"
"お台場デックス店","東京都港区台場1-6-1 デックス東京ビーチ1F","35.6290929","139.775913"
"がん研有明病院店","東京都江東区有明3-8-31 がん研有明病院内","35.6344018","139.7949996"
"グランエミオ大泉学園店","東京都練馬区東大泉一丁目28-1グランエミオ大泉学園2F","35.749628","139.587385"
"グランデュオ立川店","東京都立川市柴崎町3-2-1 6F","35.6973884","139.414818"
"グリナード永山店","東京都多摩市永山1-4 グリナード永山1号館4F","35.6294191","139.4484103"
"セレオ国分寺店","東京都国分寺市南町3-20-3　セレオ国分寺2F","35.699792","139.480346"
"セレスティン芝三井ビルディング店","東京都港区芝3-23-1 セレスティン芝三井ビルディング1F","35.6510572","139.7487576"
"ソニーシティ内店","東京都港区港南1－7－1　ソニーシティ1F","35.631165","139.743612"
"ダイバーシティ東京プラザ店","東京都江東区青海1丁目1番地1号　ダイバーシティ東京プラザ 3F","35.6248414","139.7757086"
"デンマーク・ザ・ロイヤルカフェテラス 東京スクエアガーデン店","東京都中央区京橋3丁目1-1 東京スクエアガーデンB1F","35.676097","139.768709"
"トレードピアお台場店","東京都港区台場2-3-1 トレードピアお台場1F","35.62792650000001","139.7764703"
"ニューオータニガーデンコート店","東京都千代田区紀尾井町4-1 ガーデンコート2F","35.6792602","139.7357528"
"ビリーヴ大森店","東京都品川区南大井6丁目25-3 ビリーヴ大森1F","35.5890649","139.7309947"
"ブルースカイタリーズコーヒー羽田空港第一ターミナル店","東京都大田区羽田空港3-3-2第一旅客ターミナルビルP.O.BOX26","35.5491133","139.7838439"
"フレスポ府中店","東京都府中市西原町1-6-2 蔦屋書店 フレスポ府中店内","35.6823235","139.4606338"
"マロニエゲート銀座2店","東京都中央区銀座3-2-1　マロニエゲート銀座2 B2F","35.673741","139.765233"
"みなみ野店","東京都八王子市みなみ野1-7-7","35.632494","139.3273252"
"阿佐ヶ谷ダイヤ街店","東京都杉並区阿佐ヶ谷南3-55-1　阿佐ヶ谷ダイヤ街2F","35.7049797","139.6355408"
"綾瀬駅前店","東京都足立区綾瀬3-1-2 東急ストア内","35.7622747","139.8251382"
"歌舞伎座店","東京都中央区銀座4-12-15 GINZAKABUKIZA　B2F","35.6694671","139.7678232"
"海岸竹芝通り店","東京都港区海岸1-4-8 キヤノン電子ビル","35.6559744","139.7592781"
"蒲田アロマスクエア店","東京都大田区蒲田5-37-1 ニッセイ アロマスクエア1F","35.5609811","139.7183444"
"丸の内CAFE 会店","東京都千代田区丸の内2丁目7番2号","35.67984089999999","139.7650921"
"丸の内パレスビル店","東京都千代田区丸の内1-1-1　パレスビル地下1F","35.685381","139.761559"
"丸の内永楽ビルディング店","東京都千代田区丸の内1-4-1 丸の内永楽ビルディングB1F","35.6846661","139.7647656"
"丸の内東京海上日動ビル店","東京都千代田区丸の内1-2-1 東京海上ビルディング新館1F","35.6831032","139.7633711"
"砧世田谷通り店","東京都世田谷区砧1-15-3 GU世田谷砧店1F","35.636462","139.619053"
"京王高幡SC店","東京都日野市高幡116-10","35.6620418","139.4133917"
"京王多摩センター駅店","東京都多摩市落合1-10-1","35.6253076","139.4241064"
"京急蒲田駅店","東京都大田区蒲田4-50-11　ウィングキッチン京急蒲田１Ｆ","35.5606709","139.7236782"
"錦糸町アルカウエスト店","東京都墨田区錦糸1-2-4 アルカウエスト2F","35.6971549","139.8095509"
"錦糸町オリナスタワー店","東京都墨田区太平4-1-3 オリナスタワー 1F","35.7007502","139.8153059"
"錦糸町オリナスモール店","東京都墨田区太平4-1-2 錦糸町オリナスモール1階","35.70088610000001","139.8158767"
"錦糸町テルミナ店","東京都墨田区江東橋3丁目14番5号 テルミナ4F","35.696405","139.814334"
"金町駅南口店","東京都葛飾区金町6-2-1","35.7678131","139.8712874"
"銀座三越コミュ店","東京都中央区銀座4-6-16 銀座三越ル・プレイス内3階","35.6713225","139.7658367"
"銀座六丁目昭和通り店","東京都中央区銀座6-14-5 銀座ホウライビル1F","35.6687395","139.7656423"
"隅田公園店","東京都台東区花川戸1-1-31　隅田公園内","35.7134182","139.8012615"
"恵比寿東口店","東京都渋谷区恵比寿1-11-1 大慧ビル1F","35.6467173","139.7112988"
"慶大東門前店","東京都港区芝5-1-13 三ツ輪三田ビル1F","35.649989","139.7450649"
"経堂コルティ店","東京都世田谷区経堂2-1-33　経堂コルティ2F","35.651505","139.635762"
"月島駅前店","東京都中央区月島1-5-1","35.6642654","139.7836803"
"虎ノ門ＪＴビル店","東京都港区虎ノ門2-2-1 虎ノ門 JTビル1F","35.669455","139.745672"
"五反田西店","東京都品川区西五反田7-9-4 ウスイビル1F","35.623546","139.720584"
"五反田東店","東京都品川区東五反田2-3-2 タイセイビル1階","35.6255064","139.7260201"
"好仁会東大病院店","東京都文京区本郷7-3-1東大病院内","35.710959","139.765652"
"江古田店","東京都練馬区旭丘1丁目78番3号","35.7372484","139.6734001"
"麹町店","東京都千代田区麹町3-3 丸増ビル1F","35.68367509999999","139.7384186"
"国立国際医療研究センター店","東京都新宿区戸山1-21-1国立国際医療研究センター内1F","35.70173020000001","139.7165838"
"国立精神・神経医療研究センター店","東京都小平市小川東町4-1-1　1Ｆ","35.7373263","139.475253"
"国立店","東京都国立市中1-10-1","35.6980998","139.4454042"
"済生会中央病院店","東京都港区三田1-4-17 新棟1階","35.654028","139.7441382"
"桜新町店","東京都世田谷区桜新町2-8-2","35.63191","139.6449319"
"三井アウトレットパーク多摩南大沢店","東京都八王子市南大沢1-600 三井アウトレットパーク 1F","35.614215","139.37738"
"三井住友海上駿河台ビル店","東京都千代田区神田駿河台3丁目9番地","35.696625","139.7643277"
"三鷹駅南口店","東京都三鷹市下連雀3-46-6","35.7024525","139.5604696"
"三田国際ビル店","東京都港区三田1-4-28 三田国際ビルB1F","35.6527105","139.7444053"
"四ツ谷東口店","東京都千代田区麹町5-3 第7秋山ビルディング","35.6844219","139.7333096"
"市ヶ谷店","東京都千代田区九段南4-6-10 近清堂ビル1F","35.69183090000001","139.7393965"
"汐留シティセンター店","東京都港区東新橋一丁目5番2号　汐留シティセンターB2F","35.66537","139.7611124"
"汐留住友ビル店","東京都港区東新橋一丁目9番2号 汐留住友ビル2F","35.662218","139.7600653"
"芝ＮＢＦタワー店","東京都港区芝大門1-1-30 芝NBFタワー1F","35.659504","139.753218"
"芝浦海岸通り店","東京都港区芝浦4-13-23 MS芝浦ビル1F","35.6402396","139.7480612"
"芝公園店","東京都港区芝公園2-4-1 芝パークビル１Ｆ","35.6556229","139.7522709"
"芝二丁目店","東京都港区芝2-3-3 芝二丁目大門ビルディング1F","35.6523642","139.7536284"
"秋葉原ＵＤＸ店","東京都千代田区外神田4-14-1 秋葉原UDX1","35.699937","139.7722"
"渋谷ファイヤー通り店","東京都渋谷区神南1-12-14","35.6628326","139.7005648"
"渋谷東急本店前店","東京都渋谷区道玄坂2-23-12 フォンティスビル1F","35.6599597","139.6959636"
"順天堂大学練馬病院店","東京都練馬区高野台3-1-10順天堂大学医学部附属練馬病院内1F","35.7420487","139.6153129"
"小田急マルシェ町田店","東京都町田市原町田6-1-1　小田急マルシェ町田　2F","35.5429208","139.4444359"
"昭和大学江東豊洲病院店","東京都江東区豊洲5-1","35.64989190000001","139.7957018"
"昭和大学病院店","東京都品川区旗の台1-5-8 中央棟１F","35.6084331","139.7035027"
"上野の森さくらテラス店","東京都台東区上野公園1-54","35.7121291","139.7744987"
"上野御徒町店","東京都台東区上野5-25-11","35.7075213","139.775585"
"上野広小路店","東京都台東区上野1-20-11 上野鈴乃屋本店ビル1F","35.7074757","139.7726361"
"新宿ＮＳビルアネックス店","東京都新宿区西新宿2-4-1 新宿ＮＳビル1F","35.6879841","139.6935305"
"新宿ＮＳビル店","東京都新宿区西新宿2-4-1 新宿NSビル1F","35.6879841","139.6935305"
"新宿イーストサイドスクエアアトリウム店","東京都新宿区新宿6丁目27番30号 新宿イーストサイドスクエア 1Ｆ","35.6966715","139.7086755"
"新宿イーストサイドスクエア店","東京都新宿区新宿6丁目27番30号 新宿イーストサイドスクエアＢ１Ｆ","35.6966715","139.7086755"
"新宿エルタワー店","東京都新宿区西新宿1丁目6番1号 新宿エルタワーB2F","35.6921374","139.6972612"
"新宿オークタワー店","東京都新宿区西新宿6-8-1 住友不動産新宿オークタワー内","35.6941253","139.6904861"
"新宿コクーンタワー店","東京都新宿区西新宿１－７－３　コクーンタワー1F","35.6915291","139.6968724"
"新宿スクエアタワー店","東京都新宿区西新宿6-22-1 新宿スクエアタワー1F","35.6941735","139.6877075"
"新宿センタービル店","東京都新宿区西新宿1-25-1 新宿センタービル","35.691726","139.695525"
"新宿御苑駅前店","東京都新宿区新宿1-6-5 ソノリティ新宿御苑1F","35.6885179","139.7101506"
"新宿若松河田店","東京都新宿区若松町28-7　ダイヤピア212","35.699517","139.7184442"
"新宿小滝橋通り店","東京都新宿区西新宿7-8-13 栗原ビル1F","35.6954053","139.6982172"
"新宿二丁目店","東京都新宿区新宿2-5-9","35.6896685","139.7069186"
"神楽坂店","東京都新宿区箪笥町22番地","35.7003152","139.7335073"
"神谷町プライムプレイス店","東京都港区虎ノ門4丁目1-17","35.6651253","139.7440747"
"神田橋本郷通り店","東京都千代田区内神田1-2-8","35.6907229","139.7648473"
"神保町三井ビルディング店","東京都千代田区神保町1-105","35.6942168","139.7602586"
"神保町店","東京都千代田区神田神保町2-7 神保町NKビル","35.6955408","139.7558842"
"成瀬駅前店","東京都町田市南成瀬1-1-1 りそな銀行成瀬支店内","35.5353675","139.473404"
"成増ダイエー店","東京都板橋区成増2-21-2 ダイエー成増１Ｆ","35.778123","139.630477"
"西新宿駅前店","東京都新宿区西新宿 8-5-1","35.6946842","139.6930227"
"青山一丁目店","東京都港区南青山一丁目2番6号","35.6721128","139.725265"
"石神井公園店","東京都練馬区石神井町2-14-31 ビオラ1F","35.7436886","139.6075034"
"赤坂ガーデンシティ店","東京都港区赤坂4-15-1 赤坂ガーデンシティ１F","35.6741663","139.7314337"
"赤坂店","東京都港区赤坂3-13-10","35.6730353","139.7373"
"泉岳寺店","東京都港区三田3-10-1 アーバンネット三田1F","35.6405123","139.7405341"
"浅草新仲見世店","東京都台東区浅草1丁目19-8","35.7117075","139.7969721"
"早大理工店","東京都新宿区大久保 3-4-1","35.7060694","139.7068095"
"巣鴨地蔵通り店","東京都豊島区巣鴨3丁目18-18","35.7352561","139.7354005"
"代々木駅北口店","東京都渋谷区代々木1-36-1 オダカビル1F","35.6840879","139.7012289"
"大丸 東京店","東京都千代田区丸の内1-9-1 大丸東京店４F","35.6814742","139.7689286"
"大崎オーバルコート店","東京都品川区東五反田2-17-1 オーバルコート大崎 マークウエスト1F","35.6233364","139.7291988"
"大崎センタービル店","東京都品川区大崎1丁目5番1号","35.621269","139.7284053"
"大手町パークビルディング店","東京都千代田区大手町一丁目1番1号 大手町パークビルディングB1F","35.6867108","139.7626473"
"大泉学園店","東京都練馬区東大泉2-34-1 オズスタジオシティ1F","35.7529981","139.5947772"
"大塚店","東京都豊島区南大塚3-53-11 今井三菱ビル1F","35.7305198","139.7288396"
"淡路町店","東京都千代田区神田淡路町1-1-1","35.6955363","139.7670109"
"池尻大橋店","東京都世田谷区池尻3-2-3 ハピネス5ビル","35.6506121","139.683899"
"池袋サンシャインシティアルパ店","東京都豊島区東池袋3-1-2 サンシャインアルパ内1階","35.7290906","139.7186803"
"築地聖ルカ通り店","東京都中央区築地3丁目6番","35.6673593","139.7739725"
"竹橋店","東京都千代田区神田錦町3-19 ヒロセ第2ビル","35.69189600000001","139.7606734"
"朝日新聞東京本社ビル店","東京都中央区築地5-3-2 朝日新聞東京本社ビル2Fコンコース内","35.6642233","139.7666175"
"鉄鋼ビル店","東京都千代田区丸の内1丁目8番2号 鉄鋼ビルB1F-1F","35.68267","139.770035"
"田町グランパーク店","東京都港区芝浦3-4-1 グランパークタワー1F","35.6436454","139.745484"
"田町駅前店","東京都港区芝五丁目32番12号","35.647172","139.7472749"
"田町森永プラザビル店","東京都港区芝五丁目33番1号 森永プラザビル別館2F","35.646212","139.7476797"
"都庁店","東京都新宿区西新宿2-8-1 東京都庁第二本庁舎2F","35.6896342","139.6921007"
"東急プラザ蒲田店","東京都大田区西蒲田7-69-1東急プラザ蒲田3F","35.5618539","139.7152806"
"東急プラザ赤坂店","東京都千代田区永田町2-14-3","35.6773487","139.7374637"
"東京スカイツリータウン・ソラマチ店","東京都墨田区押上1-1-2　東京スカイツリータウン・ソラマチ３Ｆ","35.710343","139.811603"
"東京ダイヤビルディング店","東京都中央区新川1-28-38 東京ダイヤビルディング1号館1F","35.6751756","139.7844991"
"東京ドームシティ店","東京都文京区後楽1丁目3番61号 東京ドームシティ クリスタルアベニュー","35.7044388","139.7542317"
"東京ビッグサイト店","東京都江東区有明3-11-1","35.6300469","139.7937527"
"東京駅八重洲地下街店","東京都中央区八重洲2丁目1番","35.6798688","139.7696085"
"東京女子医科大学病院店","東京都新宿区河田町8-1 総合外来センター南エントランス","35.6984306","139.7200589"
"東銀座店","東京都中央区築地1-13-14 NBF銀座スクエア1F","35.6678174","139.7696894"
"東武曳舟店","東京都墨田区東向島二丁目27番1号","35.7177434","139.816848"
"東武浅草駅店","東京都台東区花川戸1-4-1　 東武鉄道浅草駅構内2Fコンコース内","35.7120381","139.7984747"
"東邦大森病院店","東京都大田区大森西6-11-1東邦大学医療センター大森病院1階","35.569422","139.724028"
"東陽町イースト２１店","東京都江東区東陽町6-3-2 イースト21モール1F","35.6742519","139.8156448"
"南砂二丁目永代通り店","東京都江東区南砂2-1-9　ジェイスクエア東陽町１F","35.6694597","139.8207816"
"日テレプラザ店","東京都港区東新橋1-6-1 日本テレビタワーB2F","35.6647125","139.7602521"
"日比谷セントラルビル店","東京都港区西新橋1-2-9 日比谷セントラルビル内","35.669629","139.754552"
"日暮里店","東京都荒川区西日暮里2-25-1-110","35.7295938","139.771487"
"日本橋YUITOアネックス店","東京都中央区日本橋室町2丁目4番1号　浮世小路千疋屋ビルB1F","35.687415","139.773933"
"日本橋茅場町店","東京都中央区日本橋茅場町1-6-17","35.6813717","139.7789218"
"日本橋三丁目店","東京都中央区日本橋3-5-12 日本橋MMビル","35.6790667","139.7728811"
"日本経済新聞社太陽樹店","東京都千代田区大手町1－3－7 日本経済新聞社東京本社ビル2Ｆ","35.6887598","139.7622323"
"日本赤十字社医療センター店","東京都渋谷区広尾4-1-22","35.6544397","139.717944"
"八王子アイロード店","東京都八王子市旭町13-2 1F","35.6571634","139.340637"
"飯田橋ガーデンエアタワー店","東京都千代田区飯田橋3-10-10 飯田橋ガーデンエアタワー1F","35.700455","139.750528"
"飯田橋東口店","東京都新宿区揚場町1番14号","35.7025153","139.7439344"
"表参道ヒルズ店","東京都渋谷区神宮前4-12-10　表参道ヒルズ西館Ｂ１Ｆ","35.66774270000001","139.7076069"
"品川インターシティ店","東京都港区港南2丁目15番2号品川インターシティＡ棟2F 201","35.6262656","139.742051"
"浜松町駅北口店","東京都港区浜松町1-30 浜松町スクエア1F","35.65696","139.756654"
"浜離宮パークサイドプレイス店","東京都中央区築地5-6-10 浜離宮パークサイドプレイス1F","35.6623322","139.7656073"
"武蔵小山駅店","東京都品川区小山3丁目4－8","35.6206545","139.7045157"
"武蔵野赤十字病院店","東京都武蔵野市境南町1-26-1","35.6968861","139.5485709"
"平河町森タワー店","東京都千代田区平河町 2-16-1","35.6797791","139.7417827"
"平和島東京流通センター店","東京都大田区平和島6-1-1 東京流通センター センタービル1F","35.579116","139.747703"
"豊洲フロント店","東京都江東区豊洲3丁目2番20号　1F","35.6568301","139.795535"
"麻布十番駅前店","東京都港区麻布十番1-11-8","35.655679","139.7367895"
"立教大学店","東京都豊島区西池袋3-34-1　立教大学池袋キャンパス内　12号館1F","35.730323","139.701815"
"溜池山王店","東京都港区赤坂2丁目10-5 赤坂日ノ樹ビル1F","35.67058189999999","139.742031"
"Ｅｍｉｏ東久留米店","東京都東久留米市東本町 1-8","35.7607724","139.5338137"
"Emio練馬高野台店","東京都練馬区高野台1-7-27 Emio練馬高野台2F","35.740165","139.6176262"
"ＩＢＭ箱崎店","東京都中央区日本橋箱崎町19-21 IBM箱崎ビル1F","35.6791594","139.7868759"
"ＭＩＮＡＮＯ分倍河原店","東京都府中市片町3-22-26","35.6670374","139.4695373"
"ＮＢＦ豊洲店","東京都江東区豊洲5-6-52","35.6505891","139.7992764"
"ｎｏｎｏｗａ西国分寺店","東京都国分寺市西恋ヶ窪2-1-18","35.6998138","139.4657165"
"nonowa武蔵境店","東京都武蔵野市境南町2丁目1番35号","35.701127","139.5411325"
"OEDO日本橋店","東京都中央区日本橋二丁目7-1東京日本橋タワーB1F","35.6818052","139.7741444"
"ＰＣＰ丸の内店","東京都千代田区丸の内1-11-1 パシフィックセンチュリープレイス丸の内B1","35.6780522","139.7668531"
"with U ルミネ池袋店","東京都豊島区西池袋1-11-1ルミネ池袋6F","35.728845","139.709307"
"アトレヴィ巣鴨店","東京都豊島区巣鴨1丁目16番8号 アトレヴィ巣鴨4F","35.7335708","139.7393103"
"アトレ吉祥寺店","東京都武蔵野市吉祥寺南町1丁目1番24号　アトレ吉祥寺東館2F","35.7031145","139.5788053"
"アトレ秋葉原店","東京都千代田区神田花岡町1-9 アトレ秋葉原2 2F","35.698358","139.774777"
"アトレ大森店","東京都大田区大森北1-6-16　アトレ大森１Ｆ","35.5884005","139.7282054"
"アトレ目黒店","東京都品川区上大崎3-1-1 アトレ目黒2F","35.633358","139.71573"
"イーホテル東新宿店","東京都新宿区歌舞伎町2-3-15 　イーホテル東新宿1階","35.6977155","139.707133"
"イオンスタイル板橋前野町店","東京都板橋区前野町4丁目21番22号イオンスタイル板橋前野町店1F","35.7712215","139.6917478"
"エキュート立川店","東京都立川市柴崎町3-1-1 エキュート立川3F","35.697558","139.413356"
"エビススバルビル店","東京都渋谷区恵比寿1-20-8 エビススバルビル1F","35.6469854","139.7134582"
"お台場デックス店","東京都港区台場1-6-1 デックス東京ビーチ1F","35.6290929","139.775913"
"がん研有明病院店","東京都江東区有明3-8-31 がん研有明病院内","35.6344018","139.7949996"
"グランエミオ大泉学園店","東京都練馬区東大泉一丁目28-1グランエミオ大泉学園2F","35.749628","139.587385"
"グランデュオ立川店","東京都立川市柴崎町3-2-1 6F","35.6973884","139.414818"
"グリナード永山店","東京都多摩市永山1-4 グリナード永山1号館4F","35.6294191","139.4484103"
"セレオ国分寺店","東京都国分寺市南町3-20-3　セレオ国分寺2F","35.699792","139.480346"
"セレスティン芝三井ビルディング店","東京都港区芝3-23-1 セレスティン芝三井ビルディング1F","35.6510572","139.7487576"
"ソニーシティ内店","東京都港区港南1－7－1　ソニーシティ1F","35.631165","139.743612"
"ダイバーシティ東京プラザ店","東京都江東区青海1丁目1番地1号　ダイバーシティ東京プラザ 3F","35.6248414","139.7757086"
"デンマーク・ザ・ロイヤルカフェテラス 東京スクエアガーデン店","東京都中央区京橋3丁目1-1 東京スクエアガーデンB1F","35.676097","139.768709"
"トレードピアお台場店","東京都港区台場2-3-1 トレードピアお台場1F","35.62792650000001","139.7764703"
"ニューオータニガーデンコート店","東京都千代田区紀尾井町4-1 ガーデンコート2F","35.6792602","139.7357528"
"ビリーヴ大森店","東京都品川区南大井6丁目25-3 ビリーヴ大森1F","35.5890649","139.7309947"
"ブルースカイタリーズコーヒー羽田空港第一ターミナル店","東京都大田区羽田空港3-3-2第一旅客ターミナルビルP.O.BOX26","35.5491133","139.7838439"
"フレスポ府中店","東京都府中市西原町1-6-2 蔦屋書店 フレスポ府中店内","35.6823235","139.4606338"
"マロニエゲート銀座2店","東京都中央区銀座3-2-1　マロニエゲート銀座2 B2F","35.673741","139.765233"
"みなみ野店","東京都八王子市みなみ野1-7-7","35.632494","139.3273252"
"阿佐ヶ谷ダイヤ街店","東京都杉並区阿佐ヶ谷南3-55-1　阿佐ヶ谷ダイヤ街2F","35.7049797","139.6355408"
"綾瀬駅前店","東京都足立区綾瀬3-1-2 東急ストア内","35.7622747","139.8251382"
"歌舞伎座店","東京都中央区銀座4-12-15 GINZAKABUKIZA　B2F","35.6694671","139.7678232"
"海岸竹芝通り店","東京都港区海岸1-4-8 キヤノン電子ビル","35.6559744","139.7592781"
"蒲田アロマスクエア店","東京都大田区蒲田5-37-1 ニッセイ アロマスクエア1F","35.5609811","139.7183444"
"丸の内CAFE 会店","東京都千代田区丸の内2丁目7番2号","35.67984089999999","139.7650921"
"丸の内パレスビル店","東京都千代田区丸の内1-1-1　パレスビル地下1F","35.685381","139.761559"
"丸の内永楽ビルディング店","東京都千代田区丸の内1-4-1 丸の内永楽ビルディングB1F","35.6846661","139.7647656"
"丸の内東京海上日動ビル店","東京都千代田区丸の内1-2-1 東京海上ビルディング新館1F","35.6831032","139.7633711"
"砧世田谷通り店","東京都世田谷区砧1-15-3 GU世田谷砧店1F","35.636462","139.619053"
"京王高幡SC店","東京都日野市高幡116-10","35.6620418","139.4133917"
"京王多摩センター駅店","東京都多摩市落合1-10-1","35.6253076","139.4241064"
"京急蒲田駅店","東京都大田区蒲田4-50-11　ウィングキッチン京急蒲田１Ｆ","35.5606709","139.7236782"
"錦糸町アルカウエスト店","東京都墨田区錦糸1-2-4 アルカウエスト2F","35.6971549","139.8095509"
"錦糸町オリナスタワー店","東京都墨田区太平4-1-3 オリナスタワー 1F","35.7007502","139.8153059"
"錦糸町オリナスモール店","東京都墨田区太平4-1-2 錦糸町オリナスモール1階","35.70088610000001","139.8158767"
"錦糸町テルミナ店","東京都墨田区江東橋3丁目14番5号 テルミナ4F","35.696405","139.814334"
"金町駅南口店","東京都葛飾区金町6-2-1","35.7678131","139.8712874"
"銀座三越コミュ店","東京都中央区銀座4-6-16 銀座三越ル・プレイス内3階","35.6713225","139.7658367"
"銀座六丁目昭和通り店","東京都中央区銀座6-14-5 銀座ホウライビル1F","35.6687395","139.7656423"
"隅田公園店","東京都台東区花川戸1-1-31　隅田公園内","35.7134182","139.8012615"
"恵比寿東口店","東京都渋谷区恵比寿1-11-1 大慧ビル1F","35.6467173","139.7112988"
"慶大東門前店","東京都港区芝5-1-13 三ツ輪三田ビル1F","35.649989","139.7450649"
"経堂コルティ店","東京都世田谷区経堂2-1-33　経堂コルティ2F","35.651505","139.635762"
"月島駅前店","東京都中央区月島1-5-1","35.6642654","139.7836803"
"虎ノ門ＪＴビル店","東京都港区虎ノ門2-2-1 虎ノ門 JTビル1F","35.669455","139.745672"
"五反田西店","東京都品川区西五反田7-9-4 ウスイビル1F","35.623546","139.720584"
"五反田東店","東京都品川区東五反田2-3-2 タイセイビル1階","35.6255064","139.7260201"
"好仁会東大病院店","東京都文京区本郷7-3-1東大病院内","35.710959","139.765652"
"江古田店","東京都練馬区旭丘1丁目78番3号","35.7372484","139.6734001"
"麹町店","東京都千代田区麹町3-3 丸増ビル1F","35.68367509999999","139.7384186"
"国立国際医療研究センター店","東京都新宿区戸山1-21-1国立国際医療研究センター内1F","35.70173020000001","139.7165838"
"国立精神・神経医療研究センター店","東京都小平市小川東町4-1-1　1Ｆ","35.7373263","139.475253"
"国立店","東京都国立市中1-10-1","35.6980998","139.4454042"
"済生会中央病院店","東京都港区三田1-4-17 新棟1階","35.654028","139.7441382"
"桜新町店","東京都世田谷区桜新町2-8-2","35.63191","139.6449319"
"三井アウトレットパーク多摩南大沢店","東京都八王子市南大沢1-600 三井アウトレットパーク 1F","35.614215","139.37738"
"三井住友海上駿河台ビル店","東京都千代田区神田駿河台3丁目9番地","35.696625","139.7643277"
"三鷹駅南口店","東京都三鷹市下連雀3-46-6","35.7024525","139.5604696"
"三田国際ビル店","東京都港区三田1-4-28 三田国際ビルB1F","35.6527105","139.7444053"
"四ツ谷東口店","東京都千代田区麹町5-3 第7秋山ビルディング","35.6844219","139.7333096"
"市ヶ谷店","東京都千代田区九段南4-6-10 近清堂ビル1F","35.69183090000001","139.7393965"
"汐留シティセンター店","東京都港区東新橋一丁目5番2号　汐留シティセンターB2F","35.66537","139.7611124"
"汐留住友ビル店","東京都港区東新橋一丁目9番2号 汐留住友ビル2F","35.662218","139.7600653"
"芝ＮＢＦタワー店","東京都港区芝大門1-1-30 芝NBFタワー1F","35.659504","139.753218"
"芝浦海岸通り店","東京都港区芝浦4-13-23 MS芝浦ビル1F","35.6402396","139.7480612"
"芝公園店","東京都港区芝公園2-4-1 芝パークビル１Ｆ","35.6556229","139.7522709"
"芝二丁目店","東京都港区芝2-3-3 芝二丁目大門ビルディング1F","35.6523642","139.7536284"
"秋葉原ＵＤＸ店","東京都千代田区外神田4-14-1 秋葉原UDX1","35.699937","139.7722"
"渋谷ファイヤー通り店","東京都渋谷区神南1-12-14","35.6628326","139.7005648"
"渋谷東急本店前店","東京都渋谷区道玄坂2-23-12 フォンティスビル1F","35.6599597","139.6959636"
"順天堂大学練馬病院店","東京都練馬区高野台3-1-10順天堂大学医学部附属練馬病院内1F","35.7420487","139.6153129"
"小田急マルシェ町田店","東京都町田市原町田6-1-1　小田急マルシェ町田　2F","35.5429208","139.4444359"
"昭和大学江東豊洲病院店","東京都江東区豊洲5-1","35.64989190000001","139.7957018"
"昭和大学病院店","東京都品川区旗の台1-5-8 中央棟１F","35.6084331","139.7035027"
"上野の森さくらテラス店","東京都台東区上野公園1-54","35.7121291","139.7744987"
"上野御徒町店","東京都台東区上野5-25-11","35.7075213","139.775585"
"上野広小路店","東京都台東区上野1-20-11 上野鈴乃屋本店ビル1F","35.7074757","139.7726361"
"新宿ＮＳビルアネックス店","東京都新宿区西新宿2-4-1 新宿ＮＳビル1F","35.6879841","139.6935305"
"新宿ＮＳビル店","東京都新宿区西新宿2-4-1 新宿NSビル1F","35.6879841","139.6935305"
"新宿イーストサイドスクエアアトリウム店","東京都新宿区新宿6丁目27番30号 新宿イーストサイドスクエア 1Ｆ","35.6966715","139.7086755"
"新宿イーストサイドスクエア店","東京都新宿区新宿6丁目27番30号 新宿イーストサイドスクエアＢ１Ｆ","35.6966715","139.7086755"
"新宿エルタワー店","東京都新宿区西新宿1丁目6番1号 新宿エルタワーB2F","35.6921374","139.6972612"
"新宿オークタワー店","東京都新宿区西新宿6-8-1 住友不動産新宿オークタワー内","35.6941253","139.6904861"
"新宿コクーンタワー店","東京都新宿区西新宿１－７－３　コクーンタワー1F","35.6915291","139.6968724"
"新宿スクエアタワー店","東京都新宿区西新宿6-22-1 新宿スクエアタワー1F","35.6941735","139.6877075"
"新宿センタービル店","東京都新宿区西新宿1-25-1 新宿センタービル","35.691726","139.695525"
"新宿御苑駅前店","東京都新宿区新宿1-6-5 ソノリティ新宿御苑1F","35.6885179","139.7101506"
"新宿若松河田店","東京都新宿区若松町28-7　ダイヤピア212","35.699517","139.7184442"
"新宿小滝橋通り店","東京都新宿区西新宿7-8-13 栗原ビル1F","35.6954053","139.6982172"
"新宿二丁目店","東京都新宿区新宿2-5-9","35.6896685","139.7069186"
"神楽坂店","東京都新宿区箪笥町22番地","35.7003152","139.7335073"
"神谷町プライムプレイス店","東京都港区虎ノ門4丁目1-17","35.6651253","139.7440747"
"神田橋本郷通り店","東京都千代田区内神田1-2-8","35.6907229","139.7648473"
"神保町三井ビルディング店","東京都千代田区神保町1-105","35.6942168","139.7602586"
"神保町店","東京都千代田区神田神保町2-7 神保町NKビル","35.6955408","139.7558842"
"成瀬駅前店","東京都町田市南成瀬1-1-1 りそな銀行成瀬支店内","35.5353675","139.473404"
"成増ダイエー店","東京都板橋区成増2-21-2 ダイエー成増１Ｆ","35.778123","139.630477"
"西新宿駅前店","東京都新宿区西新宿 8-5-1","35.6946842","139.6930227"
"青山一丁目店","東京都港区南青山一丁目2番6号","35.6721128","139.725265"
"石神井公園店","東京都練馬区石神井町2-14-31 ビオラ1F","35.7436886","139.6075034"
"赤坂ガーデンシティ店","東京都港区赤坂4-15-1 赤坂ガーデンシティ１F","35.6741663","139.7314337"
"赤坂店","東京都港区赤坂3-13-10","35.6730353","139.7373"
"泉岳寺店","東京都港区三田3-10-1 アーバンネット三田1F","35.6405123","139.7405341"
"浅草新仲見世店","東京都台東区浅草1丁目19-8","35.7117075","139.7969721"
"早大理工店","東京都新宿区大久保 3-4-1","35.7060694","139.7068095"
"巣鴨地蔵通り店","東京都豊島区巣鴨3丁目18-18","35.7352561","139.7354005"
"代々木駅北口店","東京都渋谷区代々木1-36-1 オダカビル1F","35.6840879","139.7012289"
"大丸 東京店","東京都千代田区丸の内1-9-1 大丸東京店４F","35.6814742","139.7689286"
"大崎オーバルコート店","東京都品川区東五反田2-17-1 オーバルコート大崎 マークウエスト1F","35.6233364","139.7291988"
"大崎センタービル店","東京都品川区大崎1丁目5番1号","35.621269","139.7284053"
"大手町パークビルディング店","東京都千代田区大手町一丁目1番1号 大手町パークビルディングB1F","35.6867108","139.7626473"
"大泉学園店","東京都練馬区東大泉2-34-1 オズスタジオシティ1F","35.7529981","139.5947772"
"大塚店","東京都豊島区南大塚3-53-11 今井三菱ビル1F","35.7305198","139.7288396"
"淡路町店","東京都千代田区神田淡路町1-1-1","35.6955363","139.7670109"
"池尻大橋店","東京都世田谷区池尻3-2-3 ハピネス5ビル","35.6506121","139.683899"
"池袋サンシャインシティアルパ店","東京都豊島区東池袋3-1-2 サンシャインアルパ内1階","35.7290906","139.7186803"
"築地聖ルカ通り店","東京都中央区築地3丁目6番","35.6673593","139.7739725"
"竹橋店","東京都千代田区神田錦町3-19 ヒロセ第2ビル","35.69189600000001","139.7606734"
"朝日新聞東京本社ビル店","東京都中央区築地5-3-2 朝日新聞東京本社ビル2Fコンコース内","35.6642233","139.7666175"
"鉄鋼ビル店","東京都千代田区丸の内1丁目8番2号 鉄鋼ビルB1F-1F","35.68267","139.770035"
"田町グランパーク店","東京都港区芝浦3-4-1 グランパークタワー1F","35.6436454","139.745484"
"田町駅前店","東京都港区芝五丁目32番12号","35.647172","139.7472749"
"田町森永プラザビル店","東京都港区芝五丁目33番1号 森永プラザビル別館2F","35.646212","139.7476797"
"都庁店","東京都新宿区西新宿2-8-1 東京都庁第二本庁舎2F","35.6896342","139.6921007"
"東急プラザ蒲田店","東京都大田区西蒲田7-69-1東急プラザ蒲田3F","35.5618539","139.7152806"
"東急プラザ赤坂店","東京都千代田区永田町2-14-3","35.6773487","139.7374637"
"東京スカイツリータウン・ソラマチ店","東京都墨田区押上1-1-2　東京スカイツリータウン・ソラマチ３Ｆ","35.710343","139.811603"
"東京ダイヤビルディング店","東京都中央区新川1-28-38 東京ダイヤビルディング1号館1F","35.6751756","139.7844991"
"東京ドームシティ店","東京都文京区後楽1丁目3番61号 東京ドームシティ クリスタルアベニュー","35.7044388","139.7542317"
"東京ビッグサイト店","東京都江東区有明3-11-1","35.6300469","139.7937527"
"東京駅八重洲地下街店","東京都中央区八重洲2丁目1番","35.6798688","139.7696085"
"東京女子医科大学病院店","東京都新宿区河田町8-1 総合外来センター南エントランス","35.6984306","139.7200589"
"東銀座店","東京都中央区築地1-13-14 NBF銀座スクエア1F","35.6678174","139.7696894"
"東武曳舟店","東京都墨田区東向島二丁目27番1号","35.7177434","139.816848"
"東武浅草駅店","東京都台東区花川戸1-4-1　 東武鉄道浅草駅構内2Fコンコース内","35.7120381","139.7984747"
"東邦大森病院店","東京都大田区大森西6-11-1東邦大学医療センター大森病院1階","35.569422","139.724028"
"東陽町イースト２１店","東京都江東区東陽町6-3-2 イースト21モール1F","35.6742519","139.8156448"
"南砂二丁目永代通り店","東京都江東区南砂2-1-9　ジェイスクエア東陽町１F","35.6694597","139.8207816"
"日テレプラザ店","東京都港区東新橋1-6-1 日本テレビタワーB2F","35.6647125","139.7602521"
"日比谷セントラルビル店","東京都港区西新橋1-2-9 日比谷セントラルビル内","35.669629","139.754552"
"日暮里店","東京都荒川区西日暮里2-25-1-110","35.7295938","139.771487"
"日本橋YUITOアネックス店","東京都中央区日本橋室町2丁目4番1号　浮世小路千疋屋ビルB1F","35.687415","139.773933"
"日本橋茅場町店","東京都中央区日本橋茅場町1-6-17","35.6813717","139.7789218"
"日本橋三丁目店","東京都中央区日本橋3-5-12 日本橋MMビル","35.6790667","139.7728811"
"日本経済新聞社太陽樹店","東京都千代田区大手町1－3－7 日本経済新聞社東京本社ビル2Ｆ","35.6887598","139.7622323"
"日本赤十字社医療センター店","東京都渋谷区広尾4-1-22","35.6544397","139.717944"
"八王子アイロード店","東京都八王子市旭町13-2 1F","35.6571634","139.340637"
"飯田橋ガーデンエアタワー店","東京都千代田区飯田橋3-10-10 飯田橋ガーデンエアタワー1F","35.700455","139.750528"
"飯田橋東口店","東京都新宿区揚場町1番14号","35.7025153","139.7439344"
"表参道ヒルズ店","東京都渋谷区神宮前4-12-10　表参道ヒルズ西館Ｂ１Ｆ","35.66774270000001","139.7076069"
"品川インターシティ店","東京都港区港南2丁目15番2号品川インターシティＡ棟2F 201","35.6262656","139.742051"
"浜松町駅北口店","東京都港区浜松町1-30 浜松町スクエア1F","35.65696","139.756654"
"浜離宮パークサイドプレイス店","東京都中央区築地5-6-10 浜離宮パークサイドプレイス1F","35.6623322","139.7656073"
"武蔵小山駅店","東京都品川区小山3丁目4－8","35.6206545","139.7045157"
"武蔵野赤十字病院店","東京都武蔵野市境南町1-26-1","35.6968861","139.5485709"
"平河町森タワー店","東京都千代田区平河町 2-16-1","35.6797791","139.7417827"
"平和島東京流通センター店","東京都大田区平和島6-1-1 東京流通センター センタービル1F","35.579116","139.747703"
"豊洲フロント店","東京都江東区豊洲3丁目2番20号　1F","35.6568301","139.795535"
"麻布十番駅前店","東京都港区麻布十番1-11-8","35.655679","139.7367895"
"立教大学店","東京都豊島区西池袋3-34-1　立教大学池袋キャンパス内　12号館1F","35.730323","139.701815"
"溜池山王店","東京都港区赤坂2丁目10-5 赤坂日ノ樹ビル1F","35.67058189999999","139.742031"
"六本木ヒルズ店","東京都港区六本木6-2-31 六本木ヒルズノースタワー1F","35.6618385","139.7301167"
"六本木一丁目店","東京都港区六本木1-6-1 泉ガーデンタワー1F","35.6646096","139.7395026"
"六本木三丁目 ナナナリア店","東京都港区六本木三丁目2番1号 住友不動産六本木グランドタワー1F","35.6646695","139.7378019"
"六本木店","東京都港区六本木5-1-3　ゴトウビルディング１ｓｔ　１F","35.6626803","139.7327508"
"ｂｏｎｏ相模大野店","神奈川県相模原市南区相模大野3-3 SouthMall 2F","35.5307916","139.4358617"
"あざみ野店","神奈川県横浜市青葉区あざみ野1-25","35.5692054","139.5470675"
"アトレ川崎店","神奈川県川崎市川崎区駅前本町26-1　アトレ川崎１Ｆ","35.5311414","139.6978074"
"アリオ橋本店","神奈川県相模原市緑区大山町1-22","35.5910509","139.3497503"
"ウィズイト－ヤ京急横浜駅店","神奈川県横浜市西区高島2丁目16番1号　京急横浜駅下りホーム","35.4659995","139.6232705"
"ウィズマーロウ ラスカ茅ヶ崎店","神奈川県茅ケ崎市元町1-1　ラスカ茅ケ崎5F","35.3303329","139.4061816"
"ウィング川崎店","神奈川県川崎市川崎区砂子1-3-1 ウィング川崎4F","35.5323159","139.7008189"
"キッズコミュ グランツリー武蔵小杉店","神奈川県川崎市中原区新丸子東3丁目1135番地1号 グランツリー武蔵小杉4F","35.5736949","139.6602377"
"ショッパーズプラザ横須賀店","神奈川県横須賀市本町2-1-12 ダイエーショッパーズプラザ横須賀店2F","35.2828993","139.6625943"
"センター南店","神奈川県横浜市都筑区茅ヶ崎中央6-30 ヴェルヴ1F･2F","35.5434525","139.5737853"
"ｂｏｎｏ相模大野店","神奈川県相模原市南区相模大野3-3 SouthMall 2F","35.5307916","139.4358617"
"あざみ野店","神奈川県横浜市青葉区あざみ野1-25","35.5692054","139.5470675"
"アトレ川崎店","神奈川県川崎市川崎区駅前本町26-1　アトレ川崎１Ｆ","35.5311414","139.6978074"
"アリオ橋本店","神奈川県相模原市緑区大山町1-22","35.5910509","139.3497503"
"ウィズイト－ヤ京急横浜駅店","神奈川県横浜市西区高島2丁目16番1号　京急横浜駅下りホーム","35.4659995","139.6232705"
"ウィズマーロウ ラスカ茅ヶ崎店","神奈川県茅ケ崎市元町1-1　ラスカ茅ケ崎5F","35.3303329","139.4061816"
"ウィング川崎店","神奈川県川崎市川崎区砂子1-3-1 ウィング川崎4F","35.5323159","139.7008189"
"キッズコミュ グランツリー武蔵小杉店","神奈川県川崎市中原区新丸子東3丁目1135番地1号 グランツリー武蔵小杉4F","35.5736949","139.6602377"
"ショッパーズプラザ横須賀店","神奈川県横須賀市本町2-1-12 ダイエーショッパーズプラザ横須賀店2F","35.2828993","139.6625943"
"センター南店","神奈川県横浜市都筑区茅ヶ崎中央6-30 ヴェルヴ1F･2F","35.5434525","139.5737853"
"センター北YOTSUBAKO店","神奈川県横浜市都筑区中川中央1-1-5","35.5536856","139.5790875"
"たまプラーザテラスリンクプラザ店","神奈川県横浜市青葉区新石川町2-1-15","35.5767725","139.5577812"
"トレアージュ白旗店","神奈川県藤沢市藤沢2-3-13","35.3517543","139.4670436"
"トレッサ横浜店","神奈川県横浜市港北区師岡町700番地-1 トレッサ横浜南棟","35.5242293","139.6461345"
"ビアレ横浜店","神奈川県横浜市金沢区並木2-13-2 ビアレ横浜新館 1F","35.3618515","139.6392985"
"ヨドバシ横浜店","神奈川県横浜市西区北幸1-2-7 ヨドバシ横浜B2F","35.467446","139.620612"
"ラゾーナ川崎店","神奈川県川崎市幸区堀川町72番地1 LAZONA川崎plaza 1F","35.5331505","139.6958814"
"ららぽーと横浜店","神奈川県横浜市都筑区池辺町4035-1","35.5179093","139.5663144"
"ららぽーと湘南平塚店","神奈川県平塚市天沼10-1 3F 34070","35.3342465","139.3544786"
"ｂｏｎｏ相模大野店","神奈川県相模原市南区相模大野3-3 SouthMall 2F","35.5307916","139.4358617"
"あざみ野店","神奈川県横浜市青葉区あざみ野1-25","35.5692054","139.5470675"
"アトレ川崎店","神奈川県川崎市川崎区駅前本町26-1　アトレ川崎１Ｆ","35.5311414","139.6978074"
"アリオ橋本店","神奈川県相模原市緑区大山町1-22","35.5910509","139.3497503"
"ウィズイト－ヤ京急横浜駅店","神奈川県横浜市西区高島2丁目16番1号　京急横浜駅下りホーム","35.4659995","139.6232705"
"ウィズマーロウ ラスカ茅ヶ崎店","神奈川県茅ケ崎市元町1-1　ラスカ茅ケ崎5F","35.3303329","139.4061816"
"ウィング川崎店","神奈川県川崎市川崎区砂子1-3-1 ウィング川崎4F","35.5323159","139.7008189"
"キッズコミュ グランツリー武蔵小杉店","神奈川県川崎市中原区新丸子東3丁目1135番地1号 グランツリー武蔵小杉4F","35.5736949","139.6602377"
"ショッパーズプラザ横須賀店","神奈川県横須賀市本町2-1-12 ダイエーショッパーズプラザ横須賀店2F","35.2828993","139.6625943"
"センター南店","神奈川県横浜市都筑区茅ヶ崎中央6-30 ヴェルヴ1F･2F","35.5434525","139.5737853"
"センター北YOTSUBAKO店","神奈川県横浜市都筑区中川中央1-1-5","35.5536856","139.5790875"
"たまプラーザテラスリンクプラザ店","神奈川県横浜市青葉区新石川町2-1-15","35.5767725","139.5577812"
"トレアージュ白旗店","神奈川県藤沢市藤沢2-3-13","35.3517543","139.4670436"
"トレッサ横浜店","神奈川県横浜市港北区師岡町700番地-1 トレッサ横浜南棟","35.5242293","139.6461345"
"ビアレ横浜店","神奈川県横浜市金沢区並木2-13-2 ビアレ横浜新館 1F","35.3618515","139.6392985"
"ヨドバシ横浜店","神奈川県横浜市西区北幸1-2-7 ヨドバシ横浜B2F","35.467446","139.620612"
"ラゾーナ川崎店","神奈川県川崎市幸区堀川町72番地1 LAZONA川崎plaza 1F","35.5331505","139.6958814"
"ららぽーと横浜店","神奈川県横浜市都筑区池辺町4035-1","35.5179093","139.5663144"
"ららぽーと湘南平塚店","神奈川県平塚市天沼10-1 3F 34070","35.3342465","139.3544786"
"ロースターラボ青葉台店","神奈川県横浜市青葉区たちばな台1-2-2","35.55368929999999","139.5141924"
"綾瀬タウンヒルズ店","神奈川県綾瀬市深谷3734-1 綾瀬タウンヒルズSC1F","35.436785","139.428937"
"横須賀中央店","神奈川県横須賀市若松町2-1-3","35.2798997","139.6697062"
"横浜ジョイナス店","神奈川県横浜市西区南幸1-5-24 相鉄ジョイナスビルB１F","35.4655954","139.6207708"
"横浜ポルタ店","神奈川県横浜市西区高島2-16-B1","35.4650337","139.6236927"
"横浜みなとみらいビジネススクエア店","神奈川県横浜市西区みなとみらい3-6 ミナトミライビジネススクエア1F","35.4589225","139.6320246"
"横浜ランドマークタワー店","神奈川県横浜市西区みなとみらい2-2-1 横浜ランドマークタワー3F","35.4545635","139.6314218"
"横浜ワールドポーターズ店","神奈川県横浜市中区新港2-2-1 ワールドポーターズ2F","35.4540281","139.6387606"
"横浜市大附属病院店","神奈川県横浜市金沢区福浦3丁目9番","35.3434301","139.6514946"
"横浜市立みなと赤十字病院店","神奈川県横浜市中区新山下3-12-1横浜市立みなと赤十字病院内1F","35.4365909","139.6641799"
"ｂｏｎｏ相模大野店","神奈川県相模原市南区相模大野3-3 SouthMall 2F","35.5307916","139.4358617"
"あざみ野店","神奈川県横浜市青葉区あざみ野1-25","35.5692054","139.5470675"
"アトレ川崎店","神奈川県川崎市川崎区駅前本町26-1　アトレ川崎１Ｆ","35.5311414","139.6978074"
"アリオ橋本店","神奈川県相模原市緑区大山町1-22","35.5910509","139.3497503"
"ウィズイト－ヤ京急横浜駅店","神奈川県横浜市西区高島2丁目16番1号　京急横浜駅下りホーム","35.4659995","139.6232705"
"ウィズマーロウ ラスカ茅ヶ崎店","神奈川県茅ケ崎市元町1-1　ラスカ茅ケ崎5F","35.3303329","139.4061816"
"ウィング川崎店","神奈川県川崎市川崎区砂子1-3-1 ウィング川崎4F","35.5323159","139.7008189"
"キッズコミュ グランツリー武蔵小杉店","神奈川県川崎市中原区新丸子東3丁目1135番地1号 グランツリー武蔵小杉4F","35.5736949","139.6602377"
"ショッパーズプラザ横須賀店","神奈川県横須賀市本町2-1-12 ダイエーショッパーズプラザ横須賀店2F","35.2828993","139.6625943"
"センター南店","神奈川県横浜市都筑区茅ヶ崎中央6-30 ヴェルヴ1F･2F","35.5434525","139.5737853"
"センター北YOTSUBAKO店","神奈川県横浜市都筑区中川中央1-1-5","35.5536856","139.5790875"
"たまプラーザテラスリンクプラザ店","神奈川県横浜市青葉区新石川町2-1-15","35.5767725","139.5577812"
"トレアージュ白旗店","神奈川県藤沢市藤沢2-3-13","35.3517543","139.4670436"
"トレッサ横浜店","神奈川県横浜市港北区師岡町700番地-1 トレッサ横浜南棟","35.5242293","139.6461345"
"ビアレ横浜店","神奈川県横浜市金沢区並木2-13-2 ビアレ横浜新館 1F","35.3618515","139.6392985"
"ヨドバシ横浜店","神奈川県横浜市西区北幸1-2-7 ヨドバシ横浜B2F","35.467446","139.620612"
"ラゾーナ川崎店","神奈川県川崎市幸区堀川町72番地1 LAZONA川崎plaza 1F","35.5331505","139.6958814"
"ららぽーと横浜店","神奈川県横浜市都筑区池辺町4035-1","35.5179093","139.5663144"
"ららぽーと湘南平塚店","神奈川県平塚市天沼10-1 3F 34070","35.3342465","139.3544786"
"ロースターラボ青葉台店","神奈川県横浜市青葉区たちばな台1-2-2","35.55368929999999","139.5141924"
"綾瀬タウンヒルズ店","神奈川県綾瀬市深谷3734-1 綾瀬タウンヒルズSC1F","35.436785","139.428937"
"横須賀中央店","神奈川県横須賀市若松町2-1-3","35.2798997","139.6697062"
"横浜ジョイナス店","神奈川県横浜市西区南幸1-5-24 相鉄ジョイナスビルB１F","35.4655954","139.6207708"
"横浜ポルタ店","神奈川県横浜市西区高島2-16-B1","35.4650337","139.6236927"
"横浜みなとみらいビジネススクエア店","神奈川県横浜市西区みなとみらい3-6 ミナトミライビジネススクエア1F","35.4589225","139.6320246"
"横浜ランドマークタワー店","神奈川県横浜市西区みなとみらい2-2-1 横浜ランドマークタワー3F","35.4545635","139.6314218"
"横浜ワールドポーターズ店","神奈川県横浜市中区新港2-2-1 ワールドポーターズ2F","35.4540281","139.6387606"
"横浜市大附属病院店","神奈川県横浜市金沢区福浦3丁目9番","35.3434301","139.6514946"
"横浜市立みなと赤十字病院店","神奈川県横浜市中区新山下3-12-1横浜市立みなと赤十字病院内1F","35.4365909","139.6641799"
"横浜馬車道店","神奈川県横浜市中区住吉町5-59 リッチモンドホテル横浜馬車道1F","35.447377","139.635253"
"梶ヶ谷店","神奈川県川崎市高津区末永1-49-1 田園ステーションテラス","35.5943859","139.6048006"
"丸の内 CAFE 会 ららぽーと海老名店","神奈川県海老名市扇町13番1号1階 10400","35.4560389","139.3891643"
"宮崎台店","神奈川県川崎市宮前区宮崎2-10-12","35.5875362","139.5916764"
"京急川崎駅店","神奈川県川崎市川崎区砂子1-3-1","35.5324667","139.7007096"
"慶應日吉店","神奈川県横浜市港北区日吉4－1－1協生館１Ｆ","35.551992","139.64723"
"元住吉駅店","神奈川県川崎市中原区木月1-36-12　元住吉駅ビル1F","35.56460089999999","139.6537128"
"古淵店","神奈川県相模原市南区古淵3-13-33 イトーヨーカドー古淵店1F","35.5525311","139.4188241"
"溝の口店","神奈川県川崎市高津区溝口2-8-1","35.6003093","139.6111733"
"済生会東部病院店","神奈川県横浜市鶴見区下末吉3-6-1 済生会東部病院内1階","35.52394","139.675079"
"ｂｏｎｏ相模大野店","神奈川県相模原市南区相模大野3-3 SouthMall 2F","35.5307916","139.4358617"
"あざみ野店","神奈川県横浜市青葉区あざみ野1-25","35.5692054","139.5470675"
"アトレ川崎店","神奈川県川崎市川崎区駅前本町26-1　アトレ川崎１Ｆ","35.5311414","139.6978074"
"アリオ橋本店","神奈川県相模原市緑区大山町1-22","35.5910509","139.3497503"
"ウィズイト－ヤ京急横浜駅店","神奈川県横浜市西区高島2丁目16番1号　京急横浜駅下りホーム","35.4659995","139.6232705"
"ウィズマーロウ ラスカ茅ヶ崎店","神奈川県茅ケ崎市元町1-1　ラスカ茅ケ崎5F","35.3303329","139.4061816"
"ウィング川崎店","神奈川県川崎市川崎区砂子1-3-1 ウィング川崎4F","35.5323159","139.7008189"
"キッズコミュ グランツリー武蔵小杉店","神奈川県川崎市中原区新丸子東3丁目1135番地1号 グランツリー武蔵小杉4F","35.5736949","139.6602377"
"ショッパーズプラザ横須賀店","神奈川県横須賀市本町2-1-12 ダイエーショッパーズプラザ横須賀店2F","35.2828993","139.6625943"
"センター南店","神奈川県横浜市都筑区茅ヶ崎中央6-30 ヴェルヴ1F･2F","35.5434525","139.5737853"
"センター北YOTSUBAKO店","神奈川県横浜市都筑区中川中央1-1-5","35.5536856","139.5790875"
"たまプラーザテラスリンクプラザ店","神奈川県横浜市青葉区新石川町2-1-15","35.5767725","139.5577812"
"トレアージュ白旗店","神奈川県藤沢市藤沢2-3-13","35.3517543","139.4670436"
"トレッサ横浜店","神奈川県横浜市港北区師岡町700番地-1 トレッサ横浜南棟","35.5242293","139.6461345"
"ビアレ横浜店","神奈川県横浜市金沢区並木2-13-2 ビアレ横浜新館 1F","35.3618515","139.6392985"
"ヨドバシ横浜店","神奈川県横浜市西区北幸1-2-7 ヨドバシ横浜B2F","35.467446","139.620612"
"ラゾーナ川崎店","神奈川県川崎市幸区堀川町72番地1 LAZONA川崎plaza 1F","35.5331505","139.6958814"
"ららぽーと横浜店","神奈川県横浜市都筑区池辺町4035-1","35.5179093","139.5663144"
"ららぽーと湘南平塚店","神奈川県平塚市天沼10-1 3F 34070","35.3342465","139.3544786"
"ロースターラボ青葉台店","神奈川県横浜市青葉区たちばな台1-2-2","35.55368929999999","139.5141924"
"綾瀬タウンヒルズ店","神奈川県綾瀬市深谷3734-1 綾瀬タウンヒルズSC1F","35.436785","139.428937"
"横須賀中央店","神奈川県横須賀市若松町2-1-3","35.2798997","139.6697062"
"横浜ジョイナス店","神奈川県横浜市西区南幸1-5-24 相鉄ジョイナスビルB１F","35.4655954","139.6207708"
"横浜ポルタ店","神奈川県横浜市西区高島2-16-B1","35.4650337","139.6236927"
"横浜みなとみらいビジネススクエア店","神奈川県横浜市西区みなとみらい3-6 ミナトミライビジネススクエア1F","35.4589225","139.6320246"
"横浜ランドマークタワー店","神奈川県横浜市西区みなとみらい2-2-1 横浜ランドマークタワー3F","35.4545635","139.6314218"
"横浜ワールドポーターズ店","神奈川県横浜市中区新港2-2-1 ワールドポーターズ2F","35.4540281","139.6387606"
"横浜市大附属病院店","神奈川県横浜市金沢区福浦3丁目9番","35.3434301","139.6514946"
"横浜市立みなと赤十字病院店","神奈川県横浜市中区新山下3-12-1横浜市立みなと赤十字病院内1F","35.4365909","139.6641799"
"横浜馬車道店","神奈川県横浜市中区住吉町5-59 リッチモンドホテル横浜馬車道1F","35.447377","139.635253"
"梶ヶ谷店","神奈川県川崎市高津区末永1-49-1 田園ステーションテラス","35.5943859","139.6048006"
"丸の内 CAFE 会 ららぽーと海老名店","神奈川県海老名市扇町13番1号1階 10400","35.4560389","139.3891643"
"宮崎台店","神奈川県川崎市宮前区宮崎2-10-12","35.5875362","139.5916764"
"京急川崎駅店","神奈川県川崎市川崎区砂子1-3-1","35.5324667","139.7007096"
"慶應日吉店","神奈川県横浜市港北区日吉4－1－1協生館１Ｆ","35.551992","139.64723"
"元住吉駅店","神奈川県川崎市中原区木月1-36-12　元住吉駅ビル1F","35.56460089999999","139.6537128"
"古淵店","神奈川県相模原市南区古淵3-13-33 イトーヨーカドー古淵店1F","35.5525311","139.4188241"
"溝の口店","神奈川県川崎市高津区溝口2-8-1","35.6003093","139.6111733"
"済生会東部病院店","神奈川県横浜市鶴見区下末吉3-6-1 済生会東部病院内1階","35.52394","139.675079"
"小田急マルシェ新百合ヶ丘店","神奈川県川崎市麻生区万福寺1丁目18-1小田急マルシェ新百合丘2F","35.6040426","139.5076269"
"小田原ダイナシティ店","神奈川県小田原市中里313-12 ダイナシティ ウォーク","35.28384730000001","139.1855724"
"小田原トザンイースト店","神奈川県小田原市栄町2-1-2　トザンイースト1F","35.2557745","139.1569671"
"昭和大学横浜市北部病院店","神奈川県横浜市都筑区茅ヶ崎中央35－1 1F","35.5425121","139.5730495"
"昭和大学藤が丘病院店","神奈川県横浜市青葉区藤が丘1-30 昭和大学藤が丘病院1階","35.5447557","139.5294314"
"湘南モールＦＩＬＬ店","神奈川県藤沢市辻堂新町4-1-1","35.3391335","139.464391"
"湘南藤沢徳洲会病院店","神奈川県藤沢市辻堂神台1丁目5番1号","35.3410577","139.4448589"
"新横浜プリンスペペ店","神奈川県横浜市港北区新横浜3-4 新横浜プリンスペペ2F","35.5094561","139.6189919"
"新横浜店","神奈川県横浜市港北区新横浜2-6-12","35.5088168","139.6145655"
"新川崎三井ビル店","神奈川県川崎市幸区鹿島田1-1-2 新川崎三井ビルWEST棟1F","35.5498877","139.6733496"
"ｂｏｎｏ相模大野店","神奈川県相模原市南区相模大野3-3 SouthMall 2F","35.5307916","139.4358617"
"あざみ野店","神奈川県横浜市青葉区あざみ野1-25","35.5692054","139.5470675"
"アトレ川崎店","神奈川県川崎市川崎区駅前本町26-1　アトレ川崎１Ｆ","35.5311414","139.6978074"
"アリオ橋本店","神奈川県相模原市緑区大山町1-22","35.5910509","139.3497503"
"ウィズイト－ヤ京急横浜駅店","神奈川県横浜市西区高島2丁目16番1号　京急横浜駅下りホーム","35.4659995","139.6232705"
"ウィズマーロウ ラスカ茅ヶ崎店","神奈川県茅ケ崎市元町1-1　ラスカ茅ケ崎5F","35.3303329","139.4061816"
"ウィング川崎店","神奈川県川崎市川崎区砂子1-3-1 ウィング川崎4F","35.5323159","139.7008189"
"キッズコミュ グランツリー武蔵小杉店","神奈川県川崎市中原区新丸子東3丁目1135番地1号 グランツリー武蔵小杉4F","35.5736949","139.6602377"
"ショッパーズプラザ横須賀店","神奈川県横須賀市本町2-1-12 ダイエーショッパーズプラザ横須賀店2F","35.2828993","139.6625943"
"センター南店","神奈川県横浜市都筑区茅ヶ崎中央6-30 ヴェルヴ1F･2F","35.5434525","139.5737853"
"センター北YOTSUBAKO店","神奈川県横浜市都筑区中川中央1-1-5","35.5536856","139.5790875"
"たまプラーザテラスリンクプラザ店","神奈川県横浜市青葉区新石川町2-1-15","35.5767725","139.5577812"
"トレアージュ白旗店","神奈川県藤沢市藤沢2-3-13","35.3517543","139.4670436"
"トレッサ横浜店","神奈川県横浜市港北区師岡町700番地-1 トレッサ横浜南棟","35.5242293","139.6461345"
"ビアレ横浜店","神奈川県横浜市金沢区並木2-13-2 ビアレ横浜新館 1F","35.3618515","139.6392985"
"ヨドバシ横浜店","神奈川県横浜市西区北幸1-2-7 ヨドバシ横浜B2F","35.467446","139.620612"
"ラゾーナ川崎店","神奈川県川崎市幸区堀川町72番地1 LAZONA川崎plaza 1F","35.5331505","139.6958814"
"ららぽーと横浜店","神奈川県横浜市都筑区池辺町4035-1","35.5179093","139.5663144"
"ららぽーと湘南平塚店","神奈川県平塚市天沼10-1 3F 34070","35.3342465","139.3544786"
"ロースターラボ青葉台店","神奈川県横浜市青葉区たちばな台1-2-2","35.55368929999999","139.5141924"
"綾瀬タウンヒルズ店","神奈川県綾瀬市深谷3734-1 綾瀬タウンヒルズSC1F","35.436785","139.428937"
"横須賀中央店","神奈川県横須賀市若松町2-1-3","35.2798997","139.6697062"
"横浜ジョイナス店","神奈川県横浜市西区南幸1-5-24 相鉄ジョイナスビルB１F","35.4655954","139.6207708"
"横浜ポルタ店","神奈川県横浜市西区高島2-16-B1","35.4650337","139.6236927"
"横浜みなとみらいビジネススクエア店","神奈川県横浜市西区みなとみらい3-6 ミナトミライビジネススクエア1F","35.4589225","139.6320246"
"横浜ランドマークタワー店","神奈川県横浜市西区みなとみらい2-2-1 横浜ランドマークタワー3F","35.4545635","139.6314218"
"横浜ワールドポーターズ店","神奈川県横浜市中区新港2-2-1 ワールドポーターズ2F","35.4540281","139.6387606"
"横浜市大附属病院店","神奈川県横浜市金沢区福浦3丁目9番","35.3434301","139.6514946"
"横浜市立みなと赤十字病院店","神奈川県横浜市中区新山下3-12-1横浜市立みなと赤十字病院内1F","35.4365909","139.6641799"
"横浜馬車道店","神奈川県横浜市中区住吉町5-59 リッチモンドホテル横浜馬車道1F","35.447377","139.635253"
"梶ヶ谷店","神奈川県川崎市高津区末永1-49-1 田園ステーションテラス","35.5943859","139.6048006"
"丸の内 CAFE 会 ららぽーと海老名店","神奈川県海老名市扇町13番1号1階 10400","35.4560389","139.3891643"
"宮崎台店","神奈川県川崎市宮前区宮崎2-10-12","35.5875362","139.5916764"
"京急川崎駅店","神奈川県川崎市川崎区砂子1-3-1","35.5324667","139.7007096"
"慶應日吉店","神奈川県横浜市港北区日吉4－1－1協生館１Ｆ","35.551992","139.64723"
"元住吉駅店","神奈川県川崎市中原区木月1-36-12　元住吉駅ビル1F","35.56460089999999","139.6537128"
"古淵店","神奈川県相模原市南区古淵3-13-33 イトーヨーカドー古淵店1F","35.5525311","139.4188241"
"溝の口店","神奈川県川崎市高津区溝口2-8-1","35.6003093","139.6111733"
"済生会東部病院店","神奈川県横浜市鶴見区下末吉3-6-1 済生会東部病院内1階","35.52394","139.675079"
"小田急マルシェ新百合ヶ丘店","神奈川県川崎市麻生区万福寺1丁目18-1小田急マルシェ新百合丘2F","35.6040426","139.5076269"
"小田原ダイナシティ店","神奈川県小田原市中里313-12 ダイナシティ ウォーク","35.28384730000001","139.1855724"
"小田原トザンイースト店","神奈川県小田原市栄町2-1-2　トザンイースト1F","35.2557745","139.1569671"
"昭和大学横浜市北部病院店","神奈川県横浜市都筑区茅ヶ崎中央35－1 1F","35.5425121","139.5730495"
"昭和大学藤が丘病院店","神奈川県横浜市青葉区藤が丘1-30 昭和大学藤が丘病院1階","35.5447557","139.5294314"
"湘南モールＦＩＬＬ店","神奈川県藤沢市辻堂新町4-1-1","35.3391335","139.464391"
"湘南藤沢徳洲会病院店","神奈川県藤沢市辻堂神台1丁目5番1号","35.3410577","139.4448589"
"新横浜プリンスペペ店","神奈川県横浜市港北区新横浜3-4 新横浜プリンスペペ2F","35.5094561","139.6189919"
"新横浜店","神奈川県横浜市港北区新横浜2-6-12","35.5088168","139.6145655"
"新川崎三井ビル店","神奈川県川崎市幸区鹿島田1-1-2 新川崎三井ビルWEST棟1F","35.5498877","139.6733496"
"神奈川県立こども医療センター店","神奈川県横浜市南区六ツ川2-138-4　1F","35.4212242","139.5794454"
"青葉台駅店","神奈川県横浜市青葉区青葉台1-7-3","35.5429107","139.5173485"
"川崎ソリッドスクエア店","神奈川県川崎市幸区堀川町580 川崎ソリッドスクエア東館2F","35.53501680000001","139.7001041"
"中央林間店","神奈川県大和市中央林間4-12-1 中央林間TOKYU1F","35.50739799999999","139.445694"
"東急あざみ野駅店","神奈川県横浜市青葉区あざみ野2-1-1 東急あざみ野ビル1F","35.5683525","139.5538655"
"東急百貨店たまプラーザ店","神奈川県横浜市青葉区美しが丘1-7 B1F","35.578482","139.557753"
"東戸塚駅東口店","神奈川県横浜市戸塚区品濃町516-8 東戸塚駅東口プラザ1F","35.4297152","139.5573994"
"武蔵小杉店","神奈川県川崎市中原区小杉町3-472","35.5756767","139.6595783"
"本厚木ミロードイースト店","神奈川県厚木市泉町1-1 小田急本厚木ミロード1（イースト）","35.439531","139.363774"
"アクロスプラザ長岡美沢店","新潟県長岡市沖田1丁目6番地","37.4448044","138.8651923"
"横越バイパス店","新潟県新潟市江南区横越上町5-1-6　蔦屋書店横越バイパス店内","37.849576","139.1441525"
"佐渡佐和田店","新潟県佐渡市市野沢82 蔦屋書店佐渡佐和田店内","38.0083145","138.3401442"
"新潟駅南ＬＥＸＮ店","新潟県新潟市中央区天神　1-12-7","37.9098409","139.0605974"
"新潟新通店","新潟県新潟市西区新通1272 蔦屋書店新通店内1F","37.8608898","138.9506632"
"新潟大学病院店","新潟県新潟市中央区旭町通一番町754番地","37.9192837","139.0351682"
"新潟万代店","新潟県新潟市中央区幸西3-1-6 蔦屋書店 新潟万代内","37.9114083","139.0472834"
"新発田店","新潟県新発田市新栄町3-1-31","37.9527477","139.297399"
"長岡花園店","新潟県長岡市土合町字小鴉97外","37.4297625","138.86251"
"長岡古正寺店","新潟県長岡市古正寺町350番地","37.4579935","138.815911"
"アクロスプラザ長岡美沢店","新潟県長岡市沖田1丁目6番地","37.4448044","138.8651923"
"横越バイパス店","新潟県新潟市江南区横越上町5-1-6　蔦屋書店横越バイパス店内","37.849576","139.1441525"
"佐渡佐和田店","新潟県佐渡市市野沢82 蔦屋書店佐渡佐和田店内","38.0083145","138.3401442"
"新潟駅南ＬＥＸＮ店","新潟県新潟市中央区天神　1-12-7","37.9098409","139.0605974"
"新潟新通店","新潟県新潟市西区新通1272 蔦屋書店新通店内1F","37.8608898","138.9506632"
"新潟大学病院店","新潟県新潟市中央区旭町通一番町754番地","37.9192837","139.0351682"
"新潟万代店","新潟県新潟市中央区幸西3-1-6 蔦屋書店 新潟万代内","37.9114083","139.0472834"
"新発田店","新潟県新発田市新栄町3-1-31","37.9527477","139.297399"
"長岡花園店","新潟県長岡市土合町字小鴉97外","37.4297625","138.86251"
"長岡古正寺店","新潟県長岡市古正寺町350番地","37.4579935","138.815911"
"長岡新保店","新潟県長岡市新保6丁目222番地","37.4691237","138.8686661"
"滑川店","富山県滑川市上小泉2829","36.7546596","137.3465185"
"高岡射水店","富山県射水市坂東127-1","36.7589655","137.0611892"
"富山県立中央病院店","富山県富山市西長江2丁目2番78号","36.6928612","137.2373109"
"富山新庄経堂店","富山県富山市経堂123-4 明文堂書店　富山新庄経堂店内","36.690695","137.251724"
"富山二口店","富山県富山市二口町2-5-11","36.6700971","137.2065485"
"富山有沢橋店","富山県富山市高田48-1 明文堂書店　富山有沢橋店内","36.6821142","137.186981"
"KOMATSU店","石川県小松市沖周辺土地区画整理事業 施工地区内4街区","36.3964267","136.4617557"
"Rinto100bangai店","石川県金沢市木ノ新保町1－1（Rinto100bangai内）1F","36.5794046","136.6485836"
"イオンモールかほく店","石川県かほく市内日角夕25番イオンモールかほく2F","36.7089382","136.7018409"
"金沢ビーンズ店","石川県金沢市鞍月5-158","36.5989866","136.623617"
"金沢大学病院店","石川県金沢市宝町13-1","36.5570232","136.673382"
"金沢入江店","石川県金沢市入江2-188","36.5645131","136.6277235"
"金沢野々市店","石川県野々市市粟田5丁目461","36.5152744","136.6088517"
"福井ベル店","福井県福井市花堂南2-16-1 アルプラザベル1F","36.03461","136.211926"
"福井赤十字病院店","福井県福井市月見2丁目4番1号　福井赤十字病院1階","36.047511","136.21287"
"セレオ甲府ＡＮＮＥＸ店","山梨県甲府市丸の内1丁目1-8 セレオ甲府 4F","35.6669003","138.5689947"
"セレオ甲府店","山梨県甲府市丸の内1-1-8","35.6669016","138.5688817"
"MIDORI長野店","長野県長野市南千歳1-22-6 MIDORI長野2F","36.6439301","138.1889161"
"軽井沢・プリンスショッピングプラザ店","長野県北佐久郡軽井沢町軽井沢　軽井沢・プリンスショッピングプラザ内","36.3414309","138.6380481"
"佐久小諸店","長野県小諸市御影新田2291-1","36.30101519999999","138.4674669"
"松本駅前大通り店","長野県松本市深志1-2-11 昭和ビル1F","36.2306767","137.9670566"
"上諏訪店","長野県諏訪市諏訪1-821 JR東日本上諏訪駅構内","36.046793","138.116282"
"上田駅店","長野県上田市天神1丁目 ＪＲ東日本上田駅構内","36.3968705","138.249448"
"上田大屋店","長野県上田市大屋219-5","36.3702937","138.2969557"
"信州大学病院店","長野県松本市旭3丁目1番1号","36.2507395","137.9783606"
"長野アイビースクエア店","長野県長野市南千歳1-3-12 アイビースクェアビル1F","36.6459629","138.1886531"
"長野赤十字病院店","長野県長野市若里5-22-1","36.6265441","138.1907105"
"MIDORI長野店","長野県長野市南千歳1-22-6 MIDORI長野2F","36.6439301","138.1889161"
"軽井沢・プリンスショッピングプラザ店","長野県北佐久郡軽井沢町軽井沢　軽井沢・プリンスショッピングプラザ内","36.3414309","138.6380481"
"佐久小諸店","長野県小諸市御影新田2291-1","36.30101519999999","138.4674669"
"松本駅前大通り店","長野県松本市深志1-2-11 昭和ビル1F","36.2306767","137.9670566"
"上諏訪店","長野県諏訪市諏訪1-821 JR東日本上諏訪駅構内","36.046793","138.116282"
"上田駅店","長野県上田市天神1丁目 ＪＲ東日本上田駅構内","36.3968705","138.249448"
"上田大屋店","長野県上田市大屋219-5","36.3702937","138.2969557"
"信州大学病院店","長野県松本市旭3丁目1番1号","36.2507395","137.9783606"
"長野アイビースクエア店","長野県長野市南千歳1-3-12 アイビースクェアビル1F","36.6459629","138.1886531"
"長野赤十字病院店","長野県長野市若里5-22-1","36.6265441","138.1907105"
"長野川中島店","長野県長野市稲里町中央2-12-1 蔦屋書店長野川中島店内1F","36.6015158","138.1713659"
"カラフルタウン岐阜店","岐阜県岐阜市柳津町丸野3-3-6 カラフルタウン岐阜1F","35.362557","136.729057"
"岐阜大学病院店","岐阜県岐阜市柳戸1-1","35.4671887","136.7332194"
"土岐プレミアム・アウトレットサテライト店","岐阜県土岐市土岐ケ丘1丁目2番地","35.3407172","137.1652289"
"土岐プレミアム・アウトレット店","岐阜県土岐市土岐ヶ丘1-2 土岐プレミアム・アウトレット900番","35.340606","137.165231"
"NEOPASA静岡上り店","静岡県静岡市葵区小瀬戸字谷川地1544-3","34.9792284","138.2924055"
"イオンモール浜松市野店","静岡県浜松市東区天王町字諏訪1981-3 イオンモール浜松市野店 2F","34.740475","137.763351"
"イオンモール浜松志都呂店","静岡県浜松市西区志都呂町2-37-1 イオンモール浜松志都呂1F","34.6963971","137.650152"
"ウィズイトーヤASTY静岡店","静岡県静岡市葵区黒金町47番地　アスティ静岡西館内","34.9714672","138.3878639"
"エスパルスドリームプラザ店","静岡県静岡市清水区入船町13-15 清水エスパルスドリームプラザ内1F","35.0105858","138.49293"
"サンストリート浜北店","静岡県浜松市浜北区平口2861","34.7963429","137.7620635"
"サントムーン柿田川店","静岡県駿東郡清水町玉川61-2 サントムーン柿田川1F","35.1106227","138.9039053"
"ベイドリーム清水店","静岡県静岡市清水区駒越北町8-1 ベイドリーム清水1階","34.984645","138.4997509"
"メイワンエキマチ店","静岡県浜松市中区砂山町6-1 メイワンエキマチイースト","34.7037966","137.7351488"
"ららぽーと磐田店","静岡県磐田市高見丘1200番地","34.7503905","137.8422547"
"NEOPASA静岡上り店","静岡県静岡市葵区小瀬戸字谷川地1544-3","34.9792284","138.2924055"
"イオンモール浜松市野店","静岡県浜松市東区天王町字諏訪1981-3 イオンモール浜松市野店 2F","34.740475","137.763351"
"イオンモール浜松志都呂店","静岡県浜松市西区志都呂町2-37-1 イオンモール浜松志都呂1F","34.6963971","137.650152"
"ウィズイトーヤASTY静岡店","静岡県静岡市葵区黒金町47番地　アスティ静岡西館内","34.9714672","138.3878639"
"エスパルスドリームプラザ店","静岡県静岡市清水区入船町13-15 清水エスパルスドリームプラザ内1F","35.0105858","138.49293"
"サンストリート浜北店","静岡県浜松市浜北区平口2861","34.7963429","137.7620635"
"サントムーン柿田川店","静岡県駿東郡清水町玉川61-2 サントムーン柿田川1F","35.1106227","138.9039053"
"ベイドリーム清水店","静岡県静岡市清水区駒越北町8-1 ベイドリーム清水1階","34.984645","138.4997509"
"メイワンエキマチ店","静岡県浜松市中区砂山町6-1 メイワンエキマチイースト","34.7037966","137.7351488"
"ららぽーと磐田店","静岡県磐田市高見丘1200番地","34.7503905","137.8422547"
"御殿場プレミアム・アウトレット店","静岡県御殿場市深沢1312 御殿場プレミアム・アウトレット2395区","35.3074539","138.9672166"
"三島日清プラザ店","静岡県三島市中田町9番30号 イトーヨーカドー日清プラザ店1F","35.1133224","138.9193793"
"沼津イシバシプラザアネックス店","静岡県沼津市高島本町1-5 イシバシプラザ2F","35.1079918","138.8581052"
"沼津イシバシプラザ店","静岡県沼津市高島本町1-5 イシバシプラザ 地下1階","35.1079918","138.8581052"
"沼津駅南口イーラｄｅ店","静岡県沼津市大手町1丁目１-６","35.1023225","138.8582815"
"清水駅前店","静岡県静岡市清水区辻1-2-1 マークス・ザ・タワー清水「えじりあ」1F","35.0238802","138.4875508"
"聖隷三方原病院店","静岡県浜松市北区三方原3453　聖隷三方原病院プラザ棟１F","34.791882","137.692756"
"聖隷浜松病院店","静岡県浜松市中区住吉2-12-12 聖隷浜松病院B棟B1","34.7310262","137.724982"
"静岡ペガサート店","静岡県静岡市葵区御幸町3-21 ぺガサート1F","34.9749945","138.3862267"
"静岡県立総合病院店","静岡県静岡市葵区北安東4-27-1","35.0026198","138.3856696"
"NEOPASA静岡上り店","静岡県静岡市葵区小瀬戸字谷川地1544-3","34.9792284","138.2924055"
"イオンモール浜松市野店","静岡県浜松市東区天王町字諏訪1981-3 イオンモール浜松市野店 2F","34.740475","137.763351"
"イオンモール浜松志都呂店","静岡県浜松市西区志都呂町2-37-1 イオンモール浜松志都呂1F","34.6963971","137.650152"
"ウィズイトーヤASTY静岡店","静岡県静岡市葵区黒金町47番地　アスティ静岡西館内","34.9714672","138.3878639"
"エスパルスドリームプラザ店","静岡県静岡市清水区入船町13-15 清水エスパルスドリームプラザ内1F","35.0105858","138.49293"
"サンストリート浜北店","静岡県浜松市浜北区平口2861","34.7963429","137.7620635"
"サントムーン柿田川店","静岡県駿東郡清水町玉川61-2 サントムーン柿田川1F","35.1106227","138.9039053"
"ベイドリーム清水店","静岡県静岡市清水区駒越北町8-1 ベイドリーム清水1階","34.984645","138.4997509"
"メイワンエキマチ店","静岡県浜松市中区砂山町6-1 メイワンエキマチイースト","34.7037966","137.7351488"
"ららぽーと磐田店","静岡県磐田市高見丘1200番地","34.7503905","137.8422547"
"御殿場プレミアム・アウトレット店","静岡県御殿場市深沢1312 御殿場プレミアム・アウトレット2395区","35.3074539","138.9672166"
"三島日清プラザ店","静岡県三島市中田町9番30号 イトーヨーカドー日清プラザ店1F","35.1133224","138.9193793"
"沼津イシバシプラザアネックス店","静岡県沼津市高島本町1-5 イシバシプラザ2F","35.1079918","138.8581052"
"沼津イシバシプラザ店","静岡県沼津市高島本町1-5 イシバシプラザ 地下1階","35.1079918","138.8581052"
"沼津駅南口イーラｄｅ店","静岡県沼津市大手町1丁目１-６","35.1023225","138.8582815"
"清水駅前店","静岡県静岡市清水区辻1-2-1 マークス・ザ・タワー清水「えじりあ」1F","35.0238802","138.4875508"
"聖隷三方原病院店","静岡県浜松市北区三方原3453　聖隷三方原病院プラザ棟１F","34.791882","137.692756"
"聖隷浜松病院店","静岡県浜松市中区住吉2-12-12 聖隷浜松病院B棟B1","34.7310262","137.724982"
"静岡ペガサート店","静岡県静岡市葵区御幸町3-21 ぺガサート1F","34.9749945","138.3862267"
"静岡県立総合病院店","静岡県静岡市葵区北安東4-27-1","35.0026198","138.3856696"
"静岡紺屋町店","静岡県静岡市葵区紺屋町3-14","34.9732678","138.3852011"
"長泉桜堤店","静岡県駿東郡長泉町桜堤1-8-15","35.1447999","138.9049159"
"富士川楽座店","静岡県富士市岩渕1488-1　富士川楽座内3F","35.1616897","138.6183759"
"OKB田県店","愛知県小牧市久保一色字佃991-8","35.318427","136.9432578"
"ＳＵＮＳＨＩＮＥ　ＳＡＫＡＥ店","愛知県名古屋市中区錦3-24-4 SUNSHINE SAKAE 1F","35.169422","136.9062357"
"イオンモールナゴヤドーム前店","愛知県名古屋市東区矢田南4-102-3 イオンモールナゴヤドーム前2F","35.1870518","136.9449966"
"イオンモール常滑 BOOK & CAFE店","愛知県常滑市りんくう町2丁目20 イオンモール常滑2F 2042","34.880752","136.826505"
"イオンモール常滑店","愛知県常滑市りんくう町2丁目20 イオンモール常滑","34.880752","136.826505"
"エアポートウォーク名古屋店","愛知県西春日井郡豊山町豊場林先1番8エアポートウォーク名古屋1F","35.246034","136.924866"
"ユニゾイン名古屋栄店","愛知県名古屋市中区錦3-16-30 ユニゾイン名古屋栄1F","35.1705883","136.9070443"
"栄セントラルパーク店","愛知県名古屋市中区錦3-15-13 栄セントラルパーク地下街","35.1731378","136.9084137"
"公立陶生病院店","愛知県瀬戸市西追分町160番地","35.2261243","137.0820687"
"春日井市民病院店","愛知県春日井市鷹来町1丁目1-1 春日井市民病院1F","35.2717126","136.9692009"
"OKB田県店","愛知県小牧市久保一色字佃991-8","35.318427","136.9432578"
"ＳＵＮＳＨＩＮＥ　ＳＡＫＡＥ店","愛知県名古屋市中区錦3-24-4 SUNSHINE SAKAE 1F","35.169422","136.9062357"
"イオンモールナゴヤドーム前店","愛知県名古屋市東区矢田南4-102-3 イオンモールナゴヤドーム前2F","35.1870518","136.9449966"
"イオンモール常滑 BOOK & CAFE店","愛知県常滑市りんくう町2丁目20 イオンモール常滑2F 2042","34.880752","136.826505"
"イオンモール常滑店","愛知県常滑市りんくう町2丁目20 イオンモール常滑","34.880752","136.826505"
"エアポートウォーク名古屋店","愛知県西春日井郡豊山町豊場林先1番8エアポートウォーク名古屋1F","35.246034","136.924866"
"ユニゾイン名古屋栄店","愛知県名古屋市中区錦3-16-30 ユニゾイン名古屋栄1F","35.1705883","136.9070443"
"栄セントラルパーク店","愛知県名古屋市中区錦3-15-13 栄セントラルパーク地下街","35.1731378","136.9084137"
"公立陶生病院店","愛知県瀬戸市西追分町160番地","35.2261243","137.0820687"
"春日井市民病院店","愛知県春日井市鷹来町1丁目1-1 春日井市民病院1F","35.2717126","136.9692009"
"上郷ＳＡ下り店","愛知県豊田市永覚町百間圦1-4","35.030702","137.1346528"
"上郷ＳＡ上り店","愛知県豊田市永覚町上長根4-1","35.0332517","137.1355972"
"大名古屋ビルヂング店","愛知県名古屋市中村区名駅三丁目28番12号 大名古屋ビルヂング5F","35.1721","136.8845987"
"電気文化会館店","愛知県名古屋市中区栄2-2-5 電気文化会館1F","35.1678321","136.8992753"
"東海荒尾店","愛知県東海市荒尾町山王前60 アピタ東海荒尾店1F","35.0394095","136.9056889"
"豊橋駅前店","愛知県豊橋市駅前大通1-132","34.7628194","137.3827894"
"豊川市民病院店","愛知県豊川市八幡町野路23番地 豊川市民病院１Ｆ","34.8283846","137.3515366"
"豊田メグリアセントレ店","愛知県豊田市喜多町1-140 GAZAビル2F","35.0879332","137.1573845"
"豊田メグリア店","愛知県豊田市山之手8-92","35.0519557","137.1447404"
"名古屋スパイラルタワーズ店","愛知県名古屋市中村区名駅4-27","35.1679837","136.8859556"
"OKB田県店","愛知県小牧市久保一色字佃991-8","35.318427","136.9432578"
"ＳＵＮＳＨＩＮＥ　ＳＡＫＡＥ店","愛知県名古屋市中区錦3-24-4 SUNSHINE SAKAE 1F","35.169422","136.9062357"
"イオンモールナゴヤドーム前店","愛知県名古屋市東区矢田南4-102-3 イオンモールナゴヤドーム前2F","35.1870518","136.9449966"
"イオンモール常滑 BOOK & CAFE店","愛知県常滑市りんくう町2丁目20 イオンモール常滑2F 2042","34.880752","136.826505"
"イオンモール常滑店","愛知県常滑市りんくう町2丁目20 イオンモール常滑","34.880752","136.826505"
"エアポートウォーク名古屋店","愛知県西春日井郡豊山町豊場林先1番8エアポートウォーク名古屋1F","35.246034","136.924866"
"ユニゾイン名古屋栄店","愛知県名古屋市中区錦3-16-30 ユニゾイン名古屋栄1F","35.1705883","136.9070443"
"栄セントラルパーク店","愛知県名古屋市中区錦3-15-13 栄セントラルパーク地下街","35.1731378","136.9084137"
"公立陶生病院店","愛知県瀬戸市西追分町160番地","35.2261243","137.0820687"
"春日井市民病院店","愛知県春日井市鷹来町1丁目1-1 春日井市民病院1F","35.2717126","136.9692009"
"上郷ＳＡ下り店","愛知県豊田市永覚町百間圦1-4","35.030702","137.1346528"
"上郷ＳＡ上り店","愛知県豊田市永覚町上長根4-1","35.0332517","137.1355972"
"大名古屋ビルヂング店","愛知県名古屋市中村区名駅三丁目28番12号 大名古屋ビルヂング5F","35.1721","136.8845987"
"電気文化会館店","愛知県名古屋市中区栄2-2-5 電気文化会館1F","35.1678321","136.8992753"
"東海荒尾店","愛知県東海市荒尾町山王前60 アピタ東海荒尾店1F","35.0394095","136.9056889"
"豊橋駅前店","愛知県豊橋市駅前大通1-132","34.7628194","137.3827894"
"豊川市民病院店","愛知県豊川市八幡町野路23番地 豊川市民病院１Ｆ","34.8283846","137.3515366"
"豊田メグリアセントレ店","愛知県豊田市喜多町1-140 GAZAビル2F","35.0879332","137.1573845"
"豊田メグリア店","愛知県豊田市山之手8-92","35.0519557","137.1447404"
"名古屋スパイラルタワーズ店","愛知県名古屋市中村区名駅4-27","35.1679837","136.8859556"
"名古屋駅西店","愛知県名古屋市中村区椿町7番1号　OVA21 1階","35.1695222","136.8790618"
"名古屋第一赤十字病院店","愛知県名古屋市中村区道下町3-35名古屋第一赤十字病院2階","35.1718353","136.8623796"
"名古屋滝ノ水店","愛知県名古屋市緑区滝ノ水5丁目2113番地","35.0848634","136.9718251"
"有松店","愛知県名古屋市緑区南陵601 有松ジャンボリーA4棟","35.0446024","136.9650571"
"くわなメディアライヴ店","三重県桑名市中央町3-79 くわなメディアライヴ1F","35.0628397","136.6870401"
"三井アウトレットパーク滋賀竜王店","滋賀県蒲生郡竜王町大字薬師字砂山1178-694","35.06084","136.100301"
"滋賀医大病院","滋賀県大津市瀬田月輪町　滋賀医科大学医学部附属病院外来棟1F","34.9739158","135.9514479"
"ＭＩＮＡＮＯ分倍河原店","東京都府中市片町3-22-26","35.6670374","139.4695373"
"フレスポ府中店","東京都府中市西原町1-6-2 蔦屋書店 フレスポ府中店内","35.6823235","139.4606338"
"ホテルユニゾ京都四条烏丸店","京都府京都市下京区四条通西洞院東入郭巨山町8番外ホテルユニゾ京都四条烏丸1F","35.0035285","135.7555555"
"宇治徳洲会病院店","京都府宇治市槙島町石橋145","34.9031693","135.7871685"
"河原町オーパ店","京都府京都市中京区河原町通四条上ル 河原町オーパB1F","35.0044873","135.7689669"
"祇園花見小路店","京都府京都市東山区四条通花見小路東入 祇園町北側268番地ヤサカ祇園ビル1F","35.0040473","135.7750454"
"京都アバンティ店","京都府京都市南区東九条西山王町31番地 京都アバンティ1F","34.9835624","135.7602743"
"京都三条通り店","京都府京都市中京区三条通麩屋町 東入弁慶石町50","35.0085162","135.7663367"
"京都寺町通り店","京都府京都市中京区寺町通三条下る桜之町425－2","35.007639","135.767016"
"京都大学時計台店","京都府京都市左京区吉田本町36-1 京都大学時計台記念館B1F","35.0262628","135.780806"
"ＭＩＮＡＮＯ分倍河原店","東京都府中市片町3-22-26","35.6670374","139.4695373"
"フレスポ府中店","東京都府中市西原町1-6-2 蔦屋書店 フレスポ府中店内","35.6823235","139.4606338"
"ホテルユニゾ京都四条烏丸店","京都府京都市下京区四条通西洞院東入郭巨山町8番外ホテルユニゾ京都四条烏丸1F","35.0035285","135.7555555"
"宇治徳洲会病院店","京都府宇治市槙島町石橋145","34.9031693","135.7871685"
"河原町オーパ店","京都府京都市中京区河原町通四条上ル 河原町オーパB1F","35.0044873","135.7689669"
"祇園花見小路店","京都府京都市東山区四条通花見小路東入 祇園町北側268番地ヤサカ祇園ビル1F","35.0040473","135.7750454"
"京都アバンティ店","京都府京都市南区東九条西山王町31番地 京都アバンティ1F","34.9835624","135.7602743"
"京都三条通り店","京都府京都市中京区三条通麩屋町 東入弁慶石町50","35.0085162","135.7663367"
"京都寺町通り店","京都府京都市中京区寺町通三条下る桜之町425－2","35.007639","135.767016"
"京都大学時計台店","京都府京都市左京区吉田本町36-1 京都大学時計台記念館B1F","35.0262628","135.780806"
"四条大宮店","京都府京都市下京区四条通大宮東入立中町495 大宮MOMOビル1F","35.0038814","135.7500506"
"嵐電嵐山駅店","京都府京都市右京区嵯峨天龍寺造路町20-2","35.0153238","135.6777089"
"立命館大学衣笠キャンパス店","京都府京都市北区等持院北町56-1 平井嘉一郎記念図書館1F","35.034244","135.725241"
"JCHO大阪病院店","大阪府大阪市福島区福島4-2-78","34.6919847","135.4831529"
"ＫＫＲホテル梅田店","大阪府大阪市北区堂山町 4-1","34.7024729","135.5026175"
"KUZUHA MALL店","大阪府枚方市楠葉花園町15-1","34.8613441","135.6774993"
"ＯＢＰクリスタルタワー店","大阪府大阪市中央区城見1-2-27 クリスタルタワー1F","34.6921404","135.5286615"
"PAUSE なんばパークス店","大阪府大阪市浪速区難波中2丁目10番70号 PAUSE なんばパークス5F","34.6613774","135.5023591"
"with U 吹田グリーンプレイス店","大阪府吹田市片山町2丁目3番11号 吹田グリーンプレイス内","34.76540620000001","135.5194337"
"アル・プラザ高槻店","大阪府高槻市芥川町1-2 C-0201号","34.8521135","135.6161994"
"イオンモール堺鉄砲町店","大阪府堺市堺区鉄砲町1番地 イオンモール堺鉄砲町2F","34.5940509","135.4812012"
"イオン箕面店","大阪府箕面市西宿1-15-30 イオン箕面2F","34.8330133","135.4894015"
"オリックス本町ビル店","大阪府大阪市西区西本町1丁目4-1 地下1階","34.6825917","135.4973408"
"JCHO大阪病院店","大阪府大阪市福島区福島4-2-78","34.6919847","135.4831529"
"ＫＫＲホテル梅田店","大阪府大阪市北区堂山町 4-1","34.7024729","135.5026175"
"KUZUHA MALL店","大阪府枚方市楠葉花園町15-1","34.8613441","135.6774993"
"ＯＢＰクリスタルタワー店","大阪府大阪市中央区城見1-2-27 クリスタルタワー1F","34.6921404","135.5286615"
"PAUSE なんばパークス店","大阪府大阪市浪速区難波中2丁目10番70号 PAUSE なんばパークス5F","34.6613774","135.5023591"
"with U 吹田グリーンプレイス店","大阪府吹田市片山町2丁目3番11号 吹田グリーンプレイス内","34.76540620000001","135.5194337"
"アル・プラザ高槻店","大阪府高槻市芥川町1-2 C-0201号","34.8521135","135.6161994"
"イオンモール堺鉄砲町店","大阪府堺市堺区鉄砲町1番地 イオンモール堺鉄砲町2F","34.5940509","135.4812012"
"イオン箕面店","大阪府箕面市西宿1-15-30 イオン箕面2F","34.8330133","135.4894015"
"オリックス本町ビル店","大阪府大阪市西区西本町1丁目4-1 地下1階","34.6825917","135.4973408"
"グランフロント大阪北館1F店","大阪府大阪市北区大深町3番1号 グランフロント大阪 北館1F","34.70592200000001","135.4947142"
"グランフロント大阪北館9F店","大阪府大阪市北区大深町3番1号 グランフロント大阪北館9F","34.7059121","135.4944715"
"ザ パーク フロント ホテル店","大阪府大阪市此花区島屋6-2-52 301","34.6677335","135.4370912"
"シティプラザ大阪店","大阪府大阪市中央区本町橋2-31シティプラザ大阪内","34.68425","135.5106202"
"タリーズコーヒー・ナチュラルステーション りんくうプレミアム・アウトレット店","大阪府泉佐野市りんくう往来南4-17 りんくうプレミアム・アウトレット区画番号6235","34.406681","135.294965"
"タリーズコーヒー・ナチュラルステーション阪急石橋店","大阪府池田市石橋2-18-1　阪急石橋駅梅田行きホーム（改札内）","34.808174","135.446282"
"なんばＥＫＩＫＡＮ店","大阪府大阪市浪速区敷津東2-1-4","34.657689","135.5000413"
"パシフィックマークス江坂店","大阪府吹田市豊津町9-1 パシフィックマークス江坂1F","34.7595163","135.4966861"
"ホテル阪神店","大阪府大阪市福島区福島5-6-16","34.6972009","135.4877663"
"ヤマダ電機なんば店","大阪府大阪市浪速区難波中2-11-35 2F","34.659786","135.4990914"
"JCHO大阪病院店","大阪府大阪市福島区福島4-2-78","34.6919847","135.4831529"
"ＫＫＲホテル梅田店","大阪府大阪市北区堂山町 4-1","34.7024729","135.5026175"
"KUZUHA MALL店","大阪府枚方市楠葉花園町15-1","34.8613441","135.6774993"
"ＯＢＰクリスタルタワー店","大阪府大阪市中央区城見1-2-27 クリスタルタワー1F","34.6921404","135.5286615"
"PAUSE なんばパークス店","大阪府大阪市浪速区難波中2丁目10番70号 PAUSE なんばパークス5F","34.6613774","135.5023591"
"with U 吹田グリーンプレイス店","大阪府吹田市片山町2丁目3番11号 吹田グリーンプレイス内","34.76540620000001","135.5194337"
"アル・プラザ高槻店","大阪府高槻市芥川町1-2 C-0201号","34.8521135","135.6161994"
"イオンモール堺鉄砲町店","大阪府堺市堺区鉄砲町1番地 イオンモール堺鉄砲町2F","34.5940509","135.4812012"
"イオン箕面店","大阪府箕面市西宿1-15-30 イオン箕面2F","34.8330133","135.4894015"
"オリックス本町ビル店","大阪府大阪市西区西本町1丁目4-1 地下1階","34.6825917","135.4973408"
"グランフロント大阪北館1F店","大阪府大阪市北区大深町3番1号 グランフロント大阪 北館1F","34.70592200000001","135.4947142"
"グランフロント大阪北館9F店","大阪府大阪市北区大深町3番1号 グランフロント大阪北館9F","34.7059121","135.4944715"
"ザ パーク フロント ホテル店","大阪府大阪市此花区島屋6-2-52 301","34.6677335","135.4370912"
"シティプラザ大阪店","大阪府大阪市中央区本町橋2-31シティプラザ大阪内","34.68425","135.5106202"
"タリーズコーヒー・ナチュラルステーション りんくうプレミアム・アウトレット店","大阪府泉佐野市りんくう往来南4-17 りんくうプレミアム・アウトレット区画番号6235","34.406681","135.294965"
"タリーズコーヒー・ナチュラルステーション阪急石橋店","大阪府池田市石橋2-18-1　阪急石橋駅梅田行きホーム（改札内）","34.808174","135.446282"
"なんばＥＫＩＫＡＮ店","大阪府大阪市浪速区敷津東2-1-4","34.657689","135.5000413"
"パシフィックマークス江坂店","大阪府吹田市豊津町9-1 パシフィックマークス江坂1F","34.7595163","135.4966861"
"ホテル阪神店","大阪府大阪市福島区福島5-6-16","34.6972009","135.4877663"
"ヤマダ電機なんば店","大阪府大阪市浪速区難波中2-11-35 2F","34.659786","135.4990914"
"ららぽーとEXPOCITY店","大阪府吹田市千里万博公園2-1 3F 30620","34.8044224","135.5297307"
"ららぽーと和泉店","大阪府和泉市あゆみ野4-4-7　2階 22200","34.43692180000001","135.4481532"
"りんくうシークル店","大阪府泉佐野市りんくう往来南3 りんくうプレジャータウンシークル1F","34.409139","135.297678"
"関西空港南ウイング店","大阪府泉南郡田尻町泉州空港中1","34.4335404","135.2378186"
"関西空港北ウィング店","大阪府泉佐野市泉州空港北1","34.4438866","135.2520562"
"丸の内 CAFE 会 イオンモール四條畷店","大阪府四條畷市砂四丁目3番2号イオンモール四條畷2F","34.746252","135.629635"
"近鉄あべのハルカス店","大阪府大阪市阿倍野区阿倍野筋1-1-43　あべのハルカス近鉄本店　タワー館10F","34.6460591","135.513767"
"光明池店","大阪府和泉市室堂町824-36 COMBOX光明池2F","34.4722994","135.4766821"
"高槻愛仁会リハビリテーション病院店","大阪府高槻市白梅町５番７号","34.8547522","135.6207571"
"PLiCO六甲道店","兵庫県神戸市灘区永手町4-1-1 プリコ六甲道中央館2F","34.715006","135.238635"
"TSUTAYA 西明石店","兵庫県明石市藤江中谷928","34.672237","134.953134"
"イオンモール神戸北店","兵庫県神戸市北区上津台8-1-1イオンモール神戸北1F","34.8609218","135.1958864"
"グランフェスタ姫路店","兵庫県姫路市駅前町188番地1 グランフェスタ4番街","34.8278084","134.6906453"
"タリーズコーヒー・ナチュラルステーション 阪急塚口店","兵庫県尼崎市塚口本町1-1 阪急塚口駅梅田行きホーム（改札内）","34.75303830000001","135.416083"
"ヤマトヤシキ加古川店","兵庫県加古川市加古川町篠原21-8　 ヤマトヤシキ百貨店　加古川店1F","34.7662492","134.8390196"
"伊丹店","兵庫県伊丹市中央3-5","34.7805288","135.4174705"
"加古川中央市民病院店","兵庫県加古川市加古川町本町439番地 加古川中央市民病院1F","34.7714262","134.8324607"
"阪急三宮サンキタ通り店","兵庫県神戸市中央区北長狭通1-1-1　神戸阪急ビル西館1階","34.693282","135.1929474"
"PLiCO六甲道店","兵庫県神戸市灘区永手町4-1-1 プリコ六甲道中央館2F","34.715006","135.238635"
"TSUTAYA 西明石店","兵庫県明石市藤江中谷928","34.672237","134.953134"
"イオンモール神戸北店","兵庫県神戸市北区上津台8-1-1イオンモール神戸北1F","34.8609218","135.1958864"
"グランフェスタ姫路店","兵庫県姫路市駅前町188番地1 グランフェスタ4番街","34.8278084","134.6906453"
"タリーズコーヒー・ナチュラルステーション 阪急塚口店","兵庫県尼崎市塚口本町1-1 阪急塚口駅梅田行きホーム（改札内）","34.75303830000001","135.416083"
"ヤマトヤシキ加古川店","兵庫県加古川市加古川町篠原21-8　 ヤマトヤシキ百貨店　加古川店1F","34.7662492","134.8390196"
"伊丹店","兵庫県伊丹市中央3-5","34.7805288","135.4174705"
"加古川中央市民病院店","兵庫県加古川市加古川町本町439番地 加古川中央市民病院1F","34.7714262","134.8324607"
"阪急三宮サンキタ通り店","兵庫県神戸市中央区北長狭通1-1-1　神戸阪急ビル西館1階","34.693282","135.1929474"
"阪急西宮ガーデンズ店","兵庫県西宮市高松町14-2-104阪急西宮ガーデンズ1F","34.7436097","135.3598864"
"阪急西宮北口店","兵庫県西宮市高松町6-20 区画番号140-206","34.745734","135.356197"
"三井アウトレットパークマリンピア神戸店","兵庫県神戸市垂水区海岸通12-2　三井アウトレットパーク　マリンピア神戸　ファクトリーアウトレッツセントラル2F","34.6260774","135.0474464"
"神戸ファッションマート店","兵庫県神戸市東灘区向洋町中6-9 神戸ファッションマート1F","34.6891397","135.2681585"
"神戸中央市民病院店","兵庫県神戸市中央区港島南町２丁目１番１号","34.6598834","135.2143907"
"神戸北野坂店","兵庫県神戸市中央区山本通1-7-16 ダルビッシュコート1-2F","34.6988672","135.1911868"
"兵庫医科大学病院店","兵庫県西宮市武庫川町1番１号1号館 附属棟3F","34.7183855","135.3790347"
"宝塚店","兵庫県宝塚市向月町3-1","34.8061916","135.3601644"
"イオンモール橿原店","奈良県橿原市曲川町7-20-1 イオンモール橿原店 1F","34.5069808","135.7630125"
"奈良ファミリー店","奈良県奈良市西大寺東町2-4-1 奈良ファミリーB1F","34.6954166","135.7851377"
"TSUTAYA WAY 橋本店","和歌山県橋本市妻2-2-25","34.3200498","135.6234831"
"日本赤十字社和歌山医療センター店","和歌山県和歌山市小松原通4-20","34.2203986","135.1685836"
"和歌山MIO店","和歌山県和歌山市美園町5-61和歌山MIO 1F","34.23174729999999","135.1911604"
"和歌山マリーナシティ店","和歌山県和歌山市毛見1527番地","34.154115","135.1760645"
"鳥取大学医学部附属病院店","鳥取県米子市西町36-1 1F","35.4288104","133.3246256"
"イオンモール出雲店","島根県出雲市渡橋町1066 イオンモール出雲1F","35.368299","132.738597"
"出雲店","島根県出雲市高岡1237-1","35.3837555","132.7622326"
"松江店","島根県松江市東朝日町151 イオン松江1F","35.4640382","133.0692999"
"島根大学医学部附属病院店","島根県出雲市塩冶町89-1 1F","35.3477318","132.7528572"
"アリオ倉敷店","岡山県倉敷市寿町12番2号 アリオ倉敷 1F","34.6033423","133.764184"
"イオンモール岡山店","岡山県岡山市北区下石井1丁目2番1号 イオンモール岡山6F","34.6621499","133.9176812"
"フタバ図書ＭＥＧＡ岡山店","岡山県岡山市南区泉田22-3 フタバ図書MEGA青江店1Ｆ","34.628873","133.913917"
"岡山市民病院店","岡山県岡山市北区北長瀬表町三丁目20番1号　岡山市民病院1F","34.6520525","133.8847815"
"TSUTAYA東広島店","広島県東広島市西条御条6-20 3階","34.4210314","132.7450966"
"イオンモール広島府中店","広島県安芸郡府中町大須2-1-1 イオンモール広島府中店 1F","34.3946249","132.4997912"
"エールエール 広島駅前店","広島県広島市南区松原町9-1 エールエールＡ館　B2F","34.3963802","132.4737745"
"フタバ図書GIGA本通店","広島県広島市中区大手町1-8-20　フタバ図書ＧＩＧＡ本通内1F","34.3939328","132.4555003"
"フタバ図書アルティアルパーク北棟店","広島県広島市西区草津南4丁目7番地1号　アルパーク北棟2階","34.37617","132.395022"
"フタバ図書アルティ福山店","広島県福山市明神町一丁目14番20号","34.4896435","133.39548"
"ゆめタウン呉店","広島県呉市宝町5-10 ゆめタウン呉2F","34.2424446","132.5563223"
"呉中通り店","広島県呉市中通3-5-3　呉ポポロビル 1F","34.2460935","132.5660103"
"広島シャレオ店","広島県広島市中区紙屋町2丁目地下街527号　紙屋町シャレオ内","34.3952799","132.4576857"
"広島神辺店","広島県福山市神辺町字道上75 フジグラン神辺1F","34.545323","133.3569877"
"TSUTAYA東広島店","広島県東広島市西条御条6-20 3階","34.4210314","132.7450966"
"イオンモール広島府中店","広島県安芸郡府中町大須2-1-1 イオンモール広島府中店 1F","34.3946249","132.4997912"
"エールエール 広島駅前店","広島県広島市南区松原町9-1 エールエールＡ館　B2F","34.3963802","132.4737745"
"フタバ図書GIGA本通店","広島県広島市中区大手町1-8-20　フタバ図書ＧＩＧＡ本通内1F","34.3939328","132.4555003"
"フタバ図書アルティアルパーク北棟店","広島県広島市西区草津南4丁目7番地1号　アルパーク北棟2階","34.37617","132.395022"
"フタバ図書アルティ福山店","広島県福山市明神町一丁目14番20号","34.4896435","133.39548"
"ゆめタウン呉店","広島県呉市宝町5-10 ゆめタウン呉2F","34.2424446","132.5563223"
"呉中通り店","広島県呉市中通3-5-3　呉ポポロビル 1F","34.2460935","132.5660103"
"広島シャレオ店","広島県広島市中区紙屋町2丁目地下街527号　紙屋町シャレオ内","34.3952799","132.4576857"
"広島神辺店","広島県福山市神辺町字道上75 フジグラン神辺1F","34.545323","133.3569877"
"広島段原店","広島県広島市南区段原南1丁目3-52","34.3852255","132.4760186"
"広島中央通り店","広島県広島市中区堀川町5-4","34.3926468","132.4628668"
"広島本通店","広島県広島市中区本通5-5","34.3933606","132.4586116"
"広島緑井店","広島県広島市安佐南区緑井1-5-2 フジグラン緑井1F","34.4663689","132.476391"
"天満屋八丁堀店","広島県広島市中区胡町5-22　7F","34.392994","132.4658804"
"フタバ図書ＧＩＧＡ フレスタモール岩国店","山口県岩国市室の木町1丁目2番38号 フレスタモール　カジル岩国内","34.1703519","132.2138126"
"岩国医療センター店","山口県岩国市愛宕町1-1-1","34.1433061","132.2034965"
"山口葵TSUTAYA店","山口県山口市葵1-4-70","34.1603664","131.4508055"
"山口葵店","山口県山口市葵町1-4-70","34.1606147","131.4508287"
"山口県立総合医療センター店","山口県防府市大字大崎77番地山口県立総合医療センター1F","34.0660633","131.5424358"
"フジグラン北島店","徳島県板野郡北島町鯛浜西ノ須174　フジグラン北島2F","34.1121212","134.5469157"
"徳島駅前店","徳島県徳島市元町1-5-1 ホテルサンルート徳島1F","34.073223","134.550697"
"徳島大学病院店","徳島県徳島市蔵本町2-50-1 徳島大学病院内","34.0757376","134.5186241"
"イオンモール綾川店","香川県綾歌郡綾川町萱原822-1 イオンモール綾川店 １F","34.25175540000001","133.9308005"
"高松シンボルタワー店","香川県高松市サンポート2-1 マリタイムプラザ高松 ホール棟1階","34.3529384","134.0471904"
"西宝店","香川県高松市西宝町2丁目7-47","34.3414431","134.0290441"
"エミフルＭＡＳＡＫＩ店","愛媛県伊予郡松前町筒井850 エミフルMASAKI1F","33.789547","132.715333"
"フジグラン松山店","愛媛県松山市宮西一丁目2番1号 フジグラン松山1F","33.8449457","132.7530662"
"愛媛大学病院店","愛媛県東温市志津川454　愛媛大学医学部付属病院内","33.8029561","132.8799055"
"松山銀天街店","愛媛県松山市湊町4丁目8－8","33.8357135","132.7673751"
"松山赤十字病院店","愛媛県松山市文京町1番地","33.8484232","132.7732301"
"高知大学病院店","高知県南国市岡豊町小蓮 高知大学医学部附属病院内","33.5941614","133.6141226"
"ＴＮＣ放送会館店","福岡県福岡市早良区百道浜2-3-2 TNC放送会館1F","33.5924893","130.3523357"
"イオンモール香椎浜店","福岡県福岡市東区香椎浜3-12-1 イオンモール香椎浜1F","33.6570988","130.4298255"
"イオンモール大牟田店","福岡県大牟田市岬町3-4イオンモール大牟田1F","33.0306586","130.4282123"
"イオンモール筑紫野店","福岡県筑紫野市立明寺434-1","33.4809383","130.5267763"
"イオンモール直方店","福岡県直方市湯野原二丁目1番1号 イオンモール直方2F","33.7686854","130.7498554"
"イオンモール福津店","福岡県福津市日蒔野6丁目16-1イオンモール福津2F","33.7534476","130.4939017"
"キャナルシティ博多店","福岡県福岡市博多区祇園町9-2","33.5901215","130.4124868"
"トリアス久山店","福岡県糟屋郡久山町大字山田1111 トリアス久山H棟1F","33.6530851","130.4899104"
"ホテルユニゾ福岡天神店","福岡県福岡市中央区今泉1-22-14　ホテルユニゾ福岡天神 1F","33.586863","130.399442"
"ＴＮＣ放送会館店","福岡県福岡市早良区百道浜2-3-2 TNC放送会館1F","33.5924893","130.3523357"
"イオンモール香椎浜店","福岡県福岡市東区香椎浜3-12-1 イオンモール香椎浜1F","33.6570988","130.4298255"
"イオンモール大牟田店","福岡県大牟田市岬町3-4イオンモール大牟田1F","33.0306586","130.4282123"
"イオンモール筑紫野店","福岡県筑紫野市立明寺434-1","33.4809383","130.5267763"
"イオンモール直方店","福岡県直方市湯野原二丁目1番1号 イオンモール直方2F","33.7686854","130.7498554"
"イオンモール福津店","福岡県福津市日蒔野6丁目16-1イオンモール福津2F","33.7534476","130.4939017"
"キャナルシティ博多店","福岡県福岡市博多区祇園町9-2","33.5901215","130.4124868"
"トリアス久山店","福岡県糟屋郡久山町大字山田1111 トリアス久山H棟1F","33.6530851","130.4899104"
"ホテルユニゾ福岡天神店","福岡県福岡市中央区今泉1-22-14　ホテルユニゾ福岡天神 1F","33.586863","130.399442"
"丸の内 CAFE 会 博多マルイ店","福岡県福岡市博多区博多駅中央街 9番1号　博多マルイ2F","33.5888442","130.4192182"
"九州大学伊都キャンパス店","福岡県福岡市西区元岡744番地","33.5959171","130.2200575"
"産業医科大学病院店","福岡県北九州市八幡西区医生ヶ丘1-1産業医科大学病院1F","33.8779038","130.7139356"
"小倉貴船店","福岡県北九州市小倉北区貴船町1-1","33.871105","130.8702307"
"西鉄久留米店","福岡県久留米市東町315-2 西鉄久留米駅ビル2階","33.312436","130.521461"
"大川高木病院店","福岡県大川市酒見141-11 高木病院内","33.206491","130.38005"
"筑紫野ベレッサ店","福岡県筑紫野市美しが丘南1-12-1 筑紫野ベレッサ1F","33.445838","130.541384"
"中洲ゲイツ店","福岡県福岡市博多区中洲3-7-24　gate’s1階","33.5936356","130.4060191"
"天神新天町店","福岡県福岡市中央区天神2丁目7-241 新天町内","33.590088","130.397096"
"ＴＮＣ放送会館店","福岡県福岡市早良区百道浜2-3-2 TNC放送会館1F","33.5924893","130.3523357"
"イオンモール香椎浜店","福岡県福岡市東区香椎浜3-12-1 イオンモール香椎浜1F","33.6570988","130.4298255"
"イオンモール大牟田店","福岡県大牟田市岬町3-4イオンモール大牟田1F","33.0306586","130.4282123"
"イオンモール筑紫野店","福岡県筑紫野市立明寺434-1","33.4809383","130.5267763"
"イオンモール直方店","福岡県直方市湯野原二丁目1番1号 イオンモール直方2F","33.7686854","130.7498554"
"イオンモール福津店","福岡県福津市日蒔野6丁目16-1イオンモール福津2F","33.7534476","130.4939017"
"キャナルシティ博多店","福岡県福岡市博多区祇園町9-2","33.5901215","130.4124868"
"トリアス久山店","福岡県糟屋郡久山町大字山田1111 トリアス久山H棟1F","33.6530851","130.4899104"
"ホテルユニゾ福岡天神店","福岡県福岡市中央区今泉1-22-14　ホテルユニゾ福岡天神 1F","33.586863","130.399442"
"丸の内 CAFE 会 博多マルイ店","福岡県福岡市博多区博多駅中央街 9番1号　博多マルイ2F","33.5888442","130.4192182"
"九州大学伊都キャンパス店","福岡県福岡市西区元岡744番地","33.5959171","130.2200575"
"産業医科大学病院店","福岡県北九州市八幡西区医生ヶ丘1-1産業医科大学病院1F","33.8779038","130.7139356"
"小倉貴船店","福岡県北九州市小倉北区貴船町1-1","33.871105","130.8702307"
"西鉄久留米店","福岡県久留米市東町315-2 西鉄久留米駅ビル2階","33.312436","130.521461"
"大川高木病院店","福岡県大川市酒見141-11 高木病院内","33.206491","130.38005"
"筑紫野ベレッサ店","福岡県筑紫野市美しが丘南1-12-1 筑紫野ベレッサ1F","33.445838","130.541384"
"中洲ゲイツ店","福岡県福岡市博多区中洲3-7-24　gate’s1階","33.5936356","130.4060191"
"天神新天町店","福岡県福岡市中央区天神2丁目7-241 新天町内","33.590088","130.397096"
"天神店","福岡県福岡市中央区天神2-14-33","33.5916155","130.3968992"
"博多マルイ店","福岡県福岡市博多区博多駅中央街 9番1号　博多マルイ1F","33.5888442","130.4192182"
"博多駅マイング店","福岡県福岡市博多区博多駅中央街 1-1","33.5905244","130.4210695"
"福岡徳洲会病院店","福岡県春日市須玖北4丁目5番地　福岡徳洲会病院1階","33.5440552","130.4468938"
"モラージュ佐賀店","佐賀県佐賀市巨勢町大字牛島730 モラージュ佐賀1F","33.2525864","130.3187945"
"鳥栖プレミアム・アウトレット店","佐賀県鳥栖市弥生が丘8-1 鳥栖プレミアム・アウトレット内区画 NO.430","33.406466","130.511662"
"アミュプラザ長崎店","長崎県長崎市尾上町1-1 アミュプラザ長崎1F","32.7516742","129.8708897"
"佐世保京町店","長崎県佐世保市上京町4-4番地","33.1696968","129.7230953"
"長崎大学病院店","長崎県長崎市坂本1丁目7番1号 長崎大学病院1F","32.769253","129.86887"
"イオンモール熊本店","熊本県上益城郡嘉島町大字上島字長池2232-2114 イオンモール熊本店 2F","32.73795","130.7434685"
"ゆめタウンはません店","熊本県熊本市南区田井島1-2-1 ゆめタウン はません1F","32.77156070000001","130.7265404"
"熊本大学医学部附属病院店","熊本県熊本市中央区本荘1-1-1 熊本大学医学部附属病院１階","32.7964064","130.7107831"
"ゆめタウン別府店","大分県別府市楠町382-7ゆめタウン別府1階","33.2763878","131.5076847"
"大分中央町店","大分県大分市中央町2-5-3　1F","33.2366551","131.6061141"
"イオンモール宮崎店","宮崎県宮崎市新別府町江口862-1 イオンモール宮崎店1階 区画No.175","31.92257589999999","131.4563486"
"イオン延岡店","宮崎県延岡市旭町2-2-1","32.5723427","131.6700874"
"イオン都城店","宮崎県都城市早鈴町1990 イオン都城ショッピングセンター1F","31.714697","131.07582"
"ハンズマン吉尾店","宮崎県都城市吉尾町772番地","31.7548793","131.0798611"
"宮崎橘通り店","宮崎県宮崎市橘通西3-10-36","31.915595","131.4225851"
"宮崎高千穂通り店","宮崎県宮崎市橘通り東4-10 カリーノ宮崎1F","31.9167144","131.4252756"
"イオンタウン姶良店","鹿児島県姶良市西餅田264-1 イオンタウン姶良1F","31.7318362","130.6262275"
"イオン鹿児島鴨池店","鹿児島県鹿児島市鴨池 2-26-30 イオン鹿児島鴨池1F","31.5626761","130.5510164"
"ハンズマン宇宿店","鹿児島県鹿児島市宇宿2-14-6 ハンズマン宇宿店本館2F","31.54238669999999","130.5416051"
"レム鹿児島店","鹿児島県鹿児島市東千石町 1丁目-32","31.5900708","130.553119"
"鹿児島ドルフィンポート店","鹿児島県鹿児島市本港新町5-4 ドルフィンポート2階","31.5928287","130.5626823"
"鹿児島中町店","鹿児島県鹿児島市中町4-23","31.5922346","130.5559716"
"鹿児島天文館店","鹿児島県鹿児島市呉服町1-3チサンイン鹿児島1F","31.590873","130.556164"
"イオンモール沖縄ライカム店","沖縄県中頭郡北中城村アワセ土地区画整理事業地内","26.3142733","127.7961686"
"サンエー那覇メインプレイス店","沖縄県那覇市おもろまち4丁目4-9サンエー那覇メインプレイス2F","26.2257608","127.6947168"
"マチナトシティ店","沖縄県浦添市城間2008-1","26.2612118","127.7109487"
"八重瀬シティ店","沖縄県島尻郡八重瀬町屋宜原99番１ サンエー八重瀬シティ内","26.1612476","127.7298724"
"函館駅店","北海道函館市若松町12番地13号 函館本線函館駅舎内2F","41.77378","140.726474"
"あみプレミアム・アウトレット店","茨城県稲敷郡阿見町よしわら四丁目1番地１　100区画","35.9834709","140.2369789"
"ウニクス秩父店","埼玉県秩父市大宮字上野原905外","35.996219","139.088674"
"三井アウトレットパーク木更津店","千葉県木更津市金田東3丁目1番1　三井アウトレットパーク木更津内　区画番号13000","35.4355857","139.9354862"
"プライムファイブ 東急プラザ銀座店","東京都中央区銀座5丁目2番1号 東急プラザ銀座B1F A区画","35.672179","139.762451"
"築地一丁目店","東京都中央区築地1-9-2 伊勢常ビル1F","35.669417","139.771773"
"MARK IS みなとみらい店","神奈川県横浜市西区みなとみらい3丁目5番1号 マークイズみなとみらい4F405区","35.4579587","139.6318108"
"藤沢オーパ店 ","神奈川県藤沢市南藤沢22-3 藤沢オーパ2F","35.337637","139.486797"
"御堂筋本町ビル店","大阪府大阪市中央区本町3丁目5番7号御堂筋本町ビル B1F","34.684093","135.501135"
"TSUKASHiN店","兵庫県尼崎市塚口本町4-8-1　「グンゼ　タウンセンター　つかしん」内　にしまち１F","34.7616068","135.4189324"
"アリオ倉敷店","岡山県倉敷市寿町12-3 区画番号2200号室","34.6037506","133.7620842"
"コムシティ黒崎店","福岡県北九州市八幡西区黒崎3-15-3 COMCITY3F","33.866376","130.7642649"
"小倉店","福岡県北九州市小倉北区船場町4-25 紫江’s II 1F","33.8838156","130.877497"